,street,latitude,longitude,plz
0,Altkircherstrasse 22,47.5535082,7.569879500000001,4054
1,Landskronstrasse 28,47.5688515,7.5775108,4056
2,"Breisacherstrasse 61, 63",47.5668322,7.5887022,4057
3,"St. Alban-Vorstadt 38, 40, 42",47.5543916,7.5971832,4052
4,Klybeckstrasse 1,47.56452909999999,7.591295199999998,4058
5,"Alemannengasse 57, 59, 61, 63, 65",47.5580356,7.6026016,4058
6,Alemannengasse,47.5577399,7.6023357,4058
7,Alemannengasse 65A,47.557918,7.603119400000001,4058
8,Rütlistrasse 45,47.55461469999999,7.577441599999999,4051
9,"Grellingerstrasse 16, 18",47.5510953,7.606897799999999,4052
11,Beim Letziturm 16,47.5541648,7.605087399999999,4052
13,Allschwilerstrasse 13A,47.5552931,7.5741486,4054
14,Rudolfstrasse 10,47.5553647,7.574794299999999,4054
15,Allschwilerstrasse,47.55705680000001,7.570882699999999,
16,"Güterstrasse 76, 78",47.5461788,7.5846193,4053
17,Erstfeldstrasse 71,47.5477388,7.5607352,4054
18,Gartenstrasse 64,47.5497623,7.5953495,4052
19,Unterer Rheinweg 116,47.5676261,7.5868042,4057
20,Waldenburgerstrasse 8,47.5553197,7.6087047,4052
21,Klingental 8,47.5624107,7.591116099999999,4058
22,Centralbahnplatz 8,47.5482232,7.5894735,4051
23,Vogesenstrasse 80,47.5675032,7.5770233,4056
24,Schützenmattstrasse 49,47.5548365,7.579966499999998,4051
25,Emanuel Büchel-Strasse 10,47.5501414,7.613364300000001,4052
26,Dorfstrasse 33,47.5835593,7.5926099,4057
27,Schulgasse 8,47.58345689999999,7.5922339,4057
28,Güterstrasse 272,47.54146009999999,7.598708799999999,4053
29,Morgartenring 24,47.5559601,7.5648369,4054
30,Hasenmattstrasse 3,47.53349679999999,7.5918668,4059
31,Isteinerstrasse 70,47.56575489999999,7.5997999,4058
32,Drosselstrasse 21,47.5383934,7.5891536,4059
33,Näfelserstrasse 31,47.55802910000001,7.565731,4055
34,Allschwilerstrasse 110,47.5578009,7.565908599999999,4055
35,Mittlere Strasse 75,47.56228309999999,7.577119199999999,4056
36,Liesbergerstrasse 19,47.5413428,7.5963874,4053
37,"Gellertstrasse 45, 45",47.5511294,7.614284199999998,4052
38,Frobenstrasse 75,47.54333949999999,7.5849113,4053
39,Wanderstrasse 7,47.5526983,7.570276000000001,4054
40,Weilerweg 3,47.5850932,7.592648399999999,4057
41,Predigerhofstrasse,47.5229542,7.5893598,
42,"Greifengasse 36, 38",47.5613225,7.5929519,4058
44,Bläsiring 161,47.5689812,7.5959242,4057
46,"Am Krayenrain 3, 5, 7, 9",47.5656516,7.576074999999999,4056
47,"Gundeldingerrain 171, 173, 175, 177, 179",47.5331324,7.595659299999999,4059
49,Thannerstrasse 30,47.554554,7.574427099999999,4054
50,Holbeinstrasse 27,47.5537495,7.584465799999998,4051
51,Sissacherstrasse 33,47.5463527,7.608901899999999,4052
52,Bartenheimerstrasse 56,47.5589054,7.5690025,4055
53,Mittlere Strasse 112,47.5639701,7.575765100000001,4056
54,Starenstrasse 28,47.5389346,7.5878934,4059
55,"Bruderholzallee 172, 172A",47.5325502,7.5954357,4059
56,Lehenmattsrasse 189,47.5504312,7.621137399999999,4052
57,St. Johanns-Vorstadt 26,47.5633296,7.5847858,4056
58,Hegenheimerstrasse 197,47.563758,7.5639962,4055
59,Dachsfelderstrasse 21,47.5462243,7.582192900000001,4053
60,Schwarzwaldallee,47.5674126,7.606394300000001,
62,"Lehenmattstrasse 242, 244, 248, 248A",47.5481796,7.6200397,4052
63,Nadelberg 23,47.5578827,7.585669099999999,4051
64,Wettsteinallee 79,47.5613439,7.603568500000001,4058
65,Amerbachstrasse 16,47.569176,7.591419799999999,4057
66,Bedrettostrasse 11,47.5259913,7.5909182,4059
67,Bachlettenstrasse 7,47.5501497,7.580844099999999,4054
68,Hagenbachstrasse 12,47.5476603,7.600112299999998,4052
69,Sevogelstrasse 107,47.5482913,7.600152400000001,4052
70,Sennheimerstrasse 49,47.554039,7.5697214,4054
71,Birsstrasse 54,47.5525971,7.6190318,4052
72,Unterer Batterieweg 46,47.5399867,7.586393899999999,4053
73,Rheinweilerweg 21,47.572381,7.596029300000001,4057
74,Schützengraben 15,47.5557239,7.582413399999999,4051
75,In den Ziegelhöfen 158,47.54513069999999,7.5571071,4054
76,Hardstrasse 58,47.5500187,7.605087699999999,4052
77,Mariasteinstrasse 22,47.5486146,7.5708106,4054
79,Austrasse 77,47.5548114,7.578411999999998,4051
80,Dornacherstrasse 317,47.5394915,7.6018407,4053
81,Mattenstrasse 2,47.5641943,7.604002500000001,4058
82,Käferholzstrasse 50,47.5666564,7.6176441,4058
83,Güterstrasse 308,47.5406252,7.6014856,4053
84,Thiersteinerallee 62,47.5408923,7.596997099999999,4053
86,Karl Jaspers-Allee 4,47.5475822,7.6106726,4052
88,Schillerstrasse 31,47.5435641,7.596500199999999,4053
89,J. J. Balmer-Strasse 1,47.5406646,7.595254799999999,4053
90,"J. J. Balmer-Strasse 3, 5, 7, 9",47.5406275,7.5951127,4053
91,"J. J. Balmer- Strasse 6, 8, 10",47.5407483,7.594665699999999,4053
92,J. J. Balmer-Strasse 10,47.540437,7.5944854,4053
93,"Fürstensteinerstrasse 95, 97",47.53698199999999,7.602018999999999,4053
94,Fürstensteinerstrasse,47.5374712,7.599307,4053
95,Falknerstrasse 13,47.556072,7.589173700000001,4001
96,Feldbergstrasse 4,47.5653586,7.587661599999999,4057
98,Am Krayenrain 1,47.5657414,7.576221400000001,4056
101,Pelikanweg 9,47.54964529999999,7.5814273,4054
102,Gempenstrasse 22,47.5447189,7.586922500000001,4053
103,Häsingerstrasse 38,47.5623509,7.5682004,4055
104,Clarastrasse 19,47.5626314,7.5961541,4058
106,St. Alban-Tal 42,47.5539691,7.6026653,4052
108,Im tiefen Boden 23,47.531004,7.591098000000001,4059
110,Gärtnerstrasse 50,47.5765412,7.5916126,4057
111,Holeestrasse 159,47.546482,7.5650632,4054
112,Jacob Burckhardt-Strasse 14,47.5482173,7.6008028,4052
113,Oberwilerstrasse 38,47.5498023,7.5780668,4054
114,Schweizergasse 26,47.5498205,7.577840999999999,4054
115,Klybeckstrasse 69,47.5677744,7.590366,4057
116,"Oetlingerstrasse 51, 53",47.5677299,7.589967199999999,4057
117,Holeestrasse 37,47.5445921,7.572806399999998,4054
119,Rennweg 32,47.5507995,7.606192799999999,4052
120,Falkensteinerstrasse 54,47.53857559999999,7.600802,4053
121,Gotthardstrasse 2,47.5472454,7.5645772,4054
123,Riehenring 32,47.5621388,7.6008789,4058
124,Neuweilerstrasse 38,47.5466284,7.562446599999999,4054
125,Waldenburgerstrasse 21,47.5547252,7.6093671,4052
127,Amselstrasse 35,47.5385391,7.5877196,4059
128,Elsässerstrasse,47.5717775,7.5770722,4056
129,Seltisbergerstrasse 43,47.5285315,7.599403799999999,4059
130,Römergasse 30,47.5584569,7.5999911,4058
131,"Holeestrasse 151, 151A, 151B, 151C, 153, 153A, 153B, 153C",47.5462188,7.565836699999998,4054
133,Burgunderstrasse 13,47.5534995,7.5802396,4051
135,Unterer Batterieweg 163,47.5363907,7.586876900000001,4059
136,Erikastrasse 1,47.57158099999999,7.5910338,4057
137,Eulerstrasse 16,47.5548343,7.5817334,4051
138,Thiersteinerstrasse 167,47.53933749999999,7.5962978,4053
139,Rotbergerstrasse 13,47.5486785,7.5777185,4054
140,Bäumlihofstrasse 98,47.5644278,7.616454000000001,4058
141,"Bruderholzrain 22, 24",47.537694,7.594384499999999,4059
142,Bruderholzstrasse 31,47.54418860000001,7.595240599999999,4053
143,Claragraben 78,47.5623995,7.594616,4058
144,Amerbachstrasse 80,47.5692178,7.5954078,4057
145,Oberalpstrasse 87,47.5505472,7.5636152,4054
146,Amerbachstrasse 45,47.56944319999999,7.5933874,4057
147,Rümmingerstrasse 17,47.5657524,7.620630999999999,4058
148,Bachlettenstrasse 1,47.5503382,7.5811369,4054
149,St. Johanns-Vorstadt 7,47.562592,7.5849299,4056
151,Gundeldingerstrasse 391,47.5387862,7.5981065,4053
152,"Benkenstrasse 10, 12",47.5493243,7.5714766,4054
153,Marschalkenstrasse 27,47.5500407,7.574214899999999,4054
154,Wiesenstrasse 6,47.5770954,7.592508499999998,4057
155,Homburgerstrasse 4,47.5562051,7.612082099999999,4052
156,Bürenfluhstrasse 20,47.5292696,7.5989412,4059
157,Dornacherstrasse 172,47.5420092,7.5923634,4053
158,Binzenstrasse 25,47.5674109,7.6182845,4058
159,Hirzbodenweg 108,47.5480116,7.606104299999999,4052
161,"Chrischonastrasse 39, 39A–D, 41, 41A–D",47.559961,7.602089299999999,4058
162,Wettsteinallee,47.5613169,7.606198699999999,4058
163,Holbeinstrasse 14,47.5544986,7.5841372,4051
167,Altkircherstrasse 30,47.5536256,7.569546399999999,4054
168,"Hüningerstrasse 31, 33",47.5715977,7.5750272,4056
169,Engelgasse 82,47.548624,7.6020029,4052
170,Oberalpstrasse 7,47.5479024,7.564180200000001,4054
171,Baumgartenweg 19,47.5418761,7.5945977,4053
172,Marschalkenstrasse 42,47.54958310000001,7.573270600000001,4054
173,Jacob Burckhardt-Strasse 5,47.5485039,7.601416599999999,4052
175,Engelgasse 79,47.54878069999999,7.6028123,4052
176,Leonhardsstrasse 37,47.5538055,7.5846136,4051
178,Sperrstrasse 82,47.5654647,7.595847399999999,4057
179,Schaffhauserrheinweg 61,47.5572905,7.601589599999999,4058
180,Reinacherstrasse 64,47.5396341,7.6027842,4053
182,Andreas Heusler-Strasse 12,47.54759319999999,7.6030478,4052
183,Fatiostrasse 10,47.5672012,7.579743,4056
185,Birsigstrasse 127,47.55056829999999,7.5767403,4054
186,Im Spitzacker 12,47.52819900000001,7.5992036,4059
187,Grienstrasse 115,47.56006199999999,7.5656743,4055
188,Metzerstrasse 9,47.5640211,7.5782766,4056
189,Rheinschanze 12,47.5663513,7.5830722,4056
192,Rheinländerstrasse 4,47.5638861,7.578324299999999,4056
193,Leimenstrasse 21,47.554365,7.5830873,4051
194,Eichenstrasse 19,47.5560976,7.570616599999999,4054
195,Oetlingerstrasse 18,47.567294,7.5882346,4057
196,"Weiherhofstrasse 34, 34A, 36",47.55066,7.558912800000001,4054
197,Mittlere Strasse 60,47.5625218,7.5773493,4056
198,Bändelgasse 1,47.5796519,7.5927391,4057
199,Eisenbahnweg 10,47.5598869,7.615136000000001,4058
200,Hebelstrasse 133,47.5641673,7.5763237,4056
201,Farnsburgerstrasse 34,47.5551059,7.613420400000001,4052
203,Sperrstrasse 88,47.5655633,7.596153399999999,4057
204,Angensteinerstrasse 26,47.5493994,7.6041426,4052
205,Zürcherstrasse 19,47.5532727,7.606760599999999,4052
207,Feldbergstrasse 42,47.5659668,7.590254499999999,4057
208,Bleichestrasse 19,47.5660603,7.600965200000001,4058
209,Vogesenstrasse 78,47.567386,7.577209,4056
210,"Schönaustrasse 20, 22",47.5676961,7.6001414,4058
211,Niklaus von Flüe-Strasse 24,47.5342618,7.598491399999999,4059
212,Bruderholzallee,47.5329597,7.5948013,4059
213,Luzernerring 89,47.5682772,7.567655499999999,4056
215,Gellertstrasse,47.5467289,7.6155528,4052
216,"Emanuel Büchel-Strasse 2, 4",47.55049150000001,7.613830399999999,4052
217,Münchensteinerstrasse 81,47.53991629999999,7.606716499999999,4052
218,Münchensteinerstrasse 97,47.5395744,7.606808399999999,4052
219,Südquaistrasse,47.5852531,7.597167100000001,4057
221,"Thiersteinerrain 13, 15",47.5383031,7.596534999999999,4053
223,Furkastrasse 66,47.5486245,7.561711099999998,4054
224,Birmannsgasse 24,47.557736,7.5770246,4055
227,Schwarzwaldallee 67,47.5614418,7.610557799999999,4058
228,Therwilerstrasse 19,47.5504148,7.5773112,4054
229,Rufacherstrasse 12,47.5579569,7.5726938,4055
230,Allschwilerstrasse 26,47.5562018,7.573845299999999,4055
231,Gotthelfstrasse 19,47.5524211,7.5688539,4054
234,Freie Strasse 53,47.55610160000001,7.590471399999999,4001
235,Oberwilerstrasse 64,47.5487797,7.5770855,4054
236,Unterer Batterieweg 81,47.5392954,7.587097499999999,4059
237,Wattstrasse 14,47.5699484,7.577933300000001,4056
238,"Wasgenring 90, 92, 94",47.5603767,7.564196199999999,4055
239,Hammerstrasse,47.5648381,7.595553,
240,Altkircherstrasse 20,47.5535268,7.570004,4054
243,Neudorfstrasse,47.57399849999999,7.566386000000001,4056
244,St. Galler-Ring 204,47.5512442,7.567721799999999,4054
245,St. Galler-Ring 198,47.5515051,7.567629399999999,4054
247,"Dufourstrasse 5, 7",47.5546106,7.594912099999999,4052
248,Spalenberg 10,47.5573917,7.586456900000001,4051
249,Furkastrasse 50,47.5482017,7.561843,4054
250,"Hörnliallee 1, 3, 5, 7, 9",47.562433,7.634386999999998,4125
251,St. Johanns-Ring 40,47.5647232,7.577773499999999,4056
252,Schöllenenstrasse 5,47.5506628,7.5647712,4054
253,"Glaserbergstrasse 19, 21, 23",47.56699,7.5697132,4056
254,"Glaserbergstrasse 25, 27, 29",47.5666577,7.5692606,4056
255,Türkheimerstrasse 42,47.55897179999999,7.573905399999999,4055
256,Rastatterstrasse 43,47.579214,7.590146399999999,4057
257,"Holeestrasse 97, 99, 101, 103, 105, 107",47.5451091,7.5689822,4054
261,Unterer Rheinweg 98,47.5667625,7.586974499999999,4057
262,Schöllenenstrasse 25,47.5511126,7.564666,4054
263,Güterstrasse 81,47.5465864,7.585224699999999,4053
264,Bruderholzstrasse 20,47.5437526,7.5945833,4053
265,Mühlenberg 7,47.55478799999999,7.597992199999999,4052
267,"Dornacherstrasse 136, 138, 140, 142",47.5427072,7.590560000000001,4053
268,Friedrich Oser-Strasse 22,47.5314561,7.5844862,4059
270,Erlenmattstrasse,47.5702346,7.6017324,4058
272,"Arlesheimerstrasse 45, 47, 49",47.53861930000001,7.6017318,4053
273,Gotthardstrasse 42,47.54850589999999,7.563278299999999,4054
274,Fürstensteinerstrasse 63,47.53748,7.5997253,4053
277,Bundesstrasse 5,47.5525557,7.576984599999999,4054
278,Kandererstrasse 19,47.5656883,7.5900544,4057
279,Sierenzerstrasse 57,47.5590407,7.568670699999999,4055
280,Herrengrabenweg 25,47.555256,7.5722365,4054
281,Weiherhofstrasse 132,47.5477651,7.557883400000001,4054
282,"Schönmattstrasse 15, 17, 19, 21",47.5450382,7.5761363,4054
283,Schönmattstrasse,47.5447701,7.575919899999999,4054
284,Thiersteinerallee,47.541435,7.597721600000001,4053
287,Clarahofweg 20,47.5616653,7.5969595,4058
288,Farnsburgerstrasse 28,47.555601,7.613143,4052
289,Weiherhofstrasse 66,47.5494193,7.558471599999999,4054
291,Im langen Loh 120,47.5512336,7.560906699999999,4054
292,Oetlingerstrasse 190,47.5679254,7.5967893,4057
293,Petersgasse 32,47.5606839,7.586054099999999,4051
294,Elsässerstrasse 17,47.5676109,7.580681099999999,4056
295,Byfangweg 47,47.5511486,7.581459499999999,4051
297,Brantgasse 4,47.5641486,7.5975794,4057
299,Münchensteinerstrasse,47.5414645,7.603912499999999,
302,Clarastrasse 21,47.562674,7.5962864,4058
303,St. Alban-Rheinweg 70,47.5547088,7.601993500000001,4052
304,St. Galler-Ring 176,47.5523803,7.567359499999999,4054
307,Spalenring 132,47.5555165,7.5753847,4055
308,Herrengrabenweg 50,47.554604,7.571197399999999,4054
309,Weiherweg 86,47.5533109,7.573018399999999,4054
310,Strassburgerallee 75,47.5620792,7.569940399999999,4055
311,Dornacherstrasse 152,47.5423117,7.5914758,4053
312,Zürcherstrasse 105,47.55491070000001,7.6116129,4052
313,Vogesenstrasse 49,47.5661719,7.5772192,4056
315,Röschenzerstrasse 3,47.5413848,7.588206400000001,4053
316,Rümmingerstrasse 52,47.5649245,7.6209205,4058
319,Oberalpstrasse 69,47.5500433,7.5638133,4054
320,Jungstrasse 8,47.5678415,7.579867999999998,4056
321,Thiersteinerrain 170,47.53449699999999,7.594041299999999,4059
322,Steinengraben 42,47.5531025,7.5857941,4051
323,Niklaus von Flüe-Strasse 35,47.5352685,7.598919399999999,4059
324,Kluserstrasse 16,47.5498501,7.573427,4054
325,Käferholzstrasse 129,47.5651597,7.620057600000001,4058
326,Florastrasse 34,47.5643898,7.5890467,4057
327,"Andreasplatz 7, 8, 12, 14",47.5580842,7.5860156,4051
328,"Andreasplatz 12, 14",47.5582376,7.5860474,4051
329,"Andreasplatz 7, 8",47.5580842,7.5860156,4051
330,Paracelsusstrasse 15,47.5642691,7.6143806,4058
331,Lerchenstrasse 61,47.5379961,7.5903345,4059
333,Gotthardstrasse 98,47.5500988,7.562338899999999,4054
334,Pfeffingerstrasse 16,47.545027,7.592068,4053
335,Grellingerstrasse 27,47.5502858,7.606975,4052
336,Liestalerstrasse 29,47.5550048,7.614881500000001,4052
337,Paradieshofstrasse 87,47.5489326,7.5595598,4054
338,Oetlingerstrasse 7,47.5674455,7.5873219,4057
340,"Grellingerstrasse 11A, 11B",47.5513099,7.607788599999999,4052
341,Hagentalerstrasse 10,47.5614397,7.572363200000001,4055
342,Schützengraben 33,47.5562656,7.5806877,4051
343,Käferholzstrasse 116,47.5651114,7.619571000000001,4058
344,Auf dem Wolf 9,47.5403919,7.613518300000001,4052
345,Dornacherstrasse 397,47.5379974,7.606364500000001,4053
346,"Dornacherstrasse 398, 400",47.5376315,7.606965499999999,4053
347,Leimgrubenweg 29,47.5364738,7.605218199999999,4053
349,Walkeweg,47.5391431,7.6130687,
350,Rümelinsplatz 13,47.5566981,7.5872787,4001
351,Hagenbachstrasse 18,47.547507,7.600417299999999,4052
352,Hagenbachstrasse 20,47.5474529,7.600523399999999,4052
353,"Viaduktstrasse 8, 10, 12, 14",47.5489496,7.587584499999999,4051
354,Brombacherstrasse 7,47.57056980000001,7.595817299999998,4057
355,Schönaustrasse 50,47.5681728,7.602717699999999,4058
356,Gotthardstrasse 110,47.55063209999999,7.562024299999999,4054
357,Benkenstrasse 15,47.5492964,7.572188199999999,4054
361,Rheingasse 28,47.5599026,7.5920842,4058
362,Feierabendstrasse 23,47.5518753,7.581831800000001,4051
363,Leimenstrasse 56,47.5529194,7.581130499999999,4051
364,Thiersteinerallee 91,47.5394446,7.596767000000001,4053
365,Gempenstrasse 9,47.54503390000001,7.5876245,4053
367,Dittingerstrasse 45,47.5402297,7.5879634,4053
368,Gotthardstrasse 105,47.5504323,7.561688699999999,4054
369,Austrasse 116,47.5554338,7.577258199999998,4051
370,Sennheimerstrasse 20,47.5537656,7.571285400000001,4054
371,Solothurnerstrasse 65,47.5428179,7.5894448,4053
372,Bartenheimerstrasse 3,47.5603816,7.571088,4055
373,Aescherstrasse 14,47.5489864,7.5739202,4054
374,Wettsteinallee 41,47.5604811,7.600725499999999,4058
376,Flughafenstrasse 30,47.5677078,7.571190100000001,4056
378,Rührbergerstrasse 9,47.5601847,7.602860700000001,4058
380,"Chrischonastrasse 39, 39 A, 39 B, 39 C, 39  D, 41, 41 A, 41 B, 41 C, 41 D",47.56028430000001,7.602449099999999,4058
381,St. Johanns-Platz 24,47.5668514,7.580583,4056
382,Farnsburgerstrasse 6,47.5563571,7.6127071,4052
383,Bruderholzallee 34,47.53422219999999,7.5870384,4059
384,Oetlingerstrasse 78,47.5676201,7.591468499999999,4057
385,Spalenvorstadt 3,47.5569815,7.5835992,4051
388,Dufourstrasse 9,47.5540888,7.595043400000001,4052
389,Dufourstrasse 11,47.5540208,7.595206500000001,4052
390,General Guisan-Strasse 143,47.54874849999999,7.562297000000001,4054
391,Hebelstrasse 114,47.5636462,7.5773264,4056
392,St. Alban-Ring 202,47.5486364,7.609387399999999,4052
393,Kleinhüningerstrasse 115,47.5779471,7.589716999999999,4057
394,Gundeldingerrain 109,47.53465749999999,7.591838999999999,4059
395,Theaterstrasse 20,47.5527615,7.5895882,4051
396,Türkheimerstrasse 62,47.55963819999999,7.5732029,4055
398,Schorenweg 9,47.5700088,7.609661000000001,4058
399,"Frobenstrasse 60, 60A",47.5438014,7.58482,4053
400,"Burgfelderstrasse 205, 211",47.56693300000001,7.5633718,4055
401,Karpfenweg 11,47.5510319,7.619172600000001,4052
405,"In den Klostermatten 10, 12",47.5515805,7.6167598,4052
406,Passwangstrasse 15,47.5368752,7.594674199999999,4059
407,Matthäusstrasse 22,47.5669895,7.5922109,4057
409,Erlenstrasse 30,47.5681923,7.5999098,4058
410,Rheingasse 11,47.5605686,7.591793799999999,4058
411,Wallstrasse 16,47.5506269,7.589252799999999,4051
412,Zur Gempenfluh 56,47.5294193,7.601239000000001,4059
413,Furkastrasse 25,47.5473653,7.5617746,4054
414,Birsigstrasse 125,47.5505232,7.5768863,4054
415,"Lindenhofstrasse 30, 32, 34",47.5466946,7.5960564,4052
416,Göschenenstrasse 70,47.5471519,7.559449499999999,4054
417,Hegenheimerstrasse 30,47.5605723,7.572533099999999,4055
418,Münchensteinerstrasse 220,47.53840659999999,7.606656399999999,4053
419,Eulerstrasse 22,47.5550776,7.581348800000001,4051
420,Weiherhofstrasse 135,47.546806,7.5579908,4054
422,Bedrettostrasse 6,47.526135,7.590581299999999,4059
423,"Mathilde Paravicini-Strasse 5, 7, 9, 11",47.5485812,7.603993999999999,4052
424,Oberalpstrasse 82,47.5509336,7.5638685,4054
425,Hegenheimerstrasse 71,47.5607294,7.570588099999999,4055
426,Im Heimatland 84,47.5650992,7.616684500000001,4058
427,St. Alban-Kirchrain,47.554064,7.6018464,4052
429,"Julia Gauss-Strasse 15, 17",47.56722,7.5650229,4056
430,"Hagentalerstrasse 41, 43, 45",47.5618713,7.5708168,4055
433,Erstfeldstrasse 16,47.548595,7.564128699999999,4054
435,Glaserbergstrasse 80,47.5655988,7.5671984,4056
436,Lerchenstrasse 98,47.53621,7.5875006,4059
437,Belchenstrasse 5,47.55415989999999,7.5741191,4054
438,Belchenstrasse 7,47.55408790000001,7.5741455,4054
439,Hardstrasse 60,47.5499555,7.605193799999999,4052
440,Binzenstrasse 44,47.5676161,7.619374899999999,4058
441,Bartenheimerstrasse 37,47.5594857,7.570055099999998,4055
442,Ryffstrasse 16,47.5686713,7.578533800000001,4056
444,Delsbergerallee 4,47.54232620000001,7.6006938,4053
445,Speiserstrasse 106,47.5465113,7.6111075,4052
446,Schauenburgerstrasse 39,47.5544899,7.6103627,4052
447,Schwarzwaldallee 267,47.5694349,7.604432399999999,4058
449,Güterstrasse 233,47.5424205,7.596386400000001,4053
451,Turnerstrasse 18,47.561151,7.6000335,4058
452,St. Alban-Vorstadt 82B,47.5533276,7.5991994,4052
453,Gellertstrasse 18,47.5518505,7.6071127,4052
454,St. Jakobs-Strasse 155,47.5455245,7.6031621,4052
455,Oberwilerstrasse 22,47.5506828,7.5788956,4054
456,Reichensteinerstrasse 43,47.5436597,7.58372,4053
457,St. Alban-Rheinweg 202,47.5562039,7.611725600000001,4052
459,Leonhardsstrasse 51,47.5539,7.583551699999998,4051
460,Haltingerstrasse 17,47.5657028,7.5926722,4057
461,Birsigstrasse 18,47.5508651,7.5844294,4054
462,Flughafenstrasse 47,47.5679968,7.5701277,4056
463,Schaffhauserrheinweg 9,47.55725839999999,7.598839199999999,4058
466,Riehenstrasse 250,47.56742930000001,7.6120655,4058
467,Niklaus von Flüe-Strasse 19,47.5345748,7.5982397,4059
468,Schönaustrasse 46,47.5680282,7.6021672,4058
469,Burgfelderstrasse 160,47.5659986,7.566036999999999,4055
470,Spiegelgasse 5,47.560044,7.5871153,4051
471,Fischmarkt 11,47.5592292,7.5867875,4051
472,Spiegelgasse 15,47.5597652,7.587087899999998,4051
473,Spiegelgasse 11,47.5598552,7.5870749,4051
474,Innere Margarethenstrasse 6,47.5504032,7.586690000000001,4051
475,Flachsländerstrasse 2,47.5687136,7.5895637,4057
476,"Missionsstrasse 34, 36",47.5601729,7.5774029,4055
477,Markircherstrasse 50,47.5655383,7.5623353,4055
478,Markircherstrasse 52,47.5653973,7.5622015,4055
479,Markircherstrasse 56,47.5651637,7.561961800000001,4055
480,Markircherstrasse  58,47.5650559,7.561841899999999,4055
481,Wattstrasse,47.5697091,7.578029399999999,4056
482,Wiesendamm,47.58108,7.59237,4057
484,Isteinerstrasse,47.5655688,7.5997142,4058
485,Claragraben,47.5626238,7.594120500000001,
486,Hardstrasse,47.5502479,7.6049495,4052
487,Pfeffingerstrasse,47.5440237,7.591430099999998,4053
488,Bruderholzstrasse,47.5427031,7.594012299999999,4053
489,Zwingerstrasse,47.5440153,7.593087299999999,4053
490,Birsigstrasse,47.54982,7.58006,
491,Schützenmattstrasse,47.5554386,7.580409899999998,4051
492,Tessinstrasse,47.5511975,7.563582599999999,4054
493,Schützengraben 35,47.5563646,7.580688,4051
494,Spalentorweg,47.5559471,7.5794568,4051
495,Spalenvorstadt 19,47.5573398,7.582403500000001,4051
496,Hammerstrasse 80,47.5636744,7.5963072,4057
497,Markircherstrasse 3,47.5664837,7.5639182,4055
498,Hegenheimerstrasse 52,47.5608878,7.571209399999999,4055
499,Bärschwilerstrasse 12,47.5419738,7.5952736,4053
500,"Güterstrasse 173, 175, 177, 179",47.5439209,7.591971899999999,4053
501,"Grosspeterstrasse 9, 11",47.5453667,7.6002381,4052
502,Jacob  Burckhardt-Strasse 67,47.5460499,7.6005059,4052
503,Murbacherstrasse 52,47.5688662,7.5759115,4056
504,"Davidsbodenstrasse 62, 64",47.5669653,7.5755469,4056
505,Steinengrabe,47.554046,7.5856935,4051
506,Riehenstrasse 280,47.5681291,7.6132372,4058
507,Baumgartenweg 6,47.5423526,7.5945176,4053
508,Schweizergasse 7,47.549062,7.579088699999999,4054
509,Neuweilerstrasse 112,47.5461833,7.5567906,4054
510,Hirzbodenweg 5,47.5512182,7.608970599999999,4052
511,Hirzbodenweg,47.5495455,7.607944499999999,4052
512,Holeestrasse 8,47.544581,7.574586300000001,4054
514,Sängergasse 5,47.5559072,7.5719712,4054
515,Unterer Rheinweg 36,47.5637205,7.5885872,4057
516,"Bernoullistrasse 26, 28",47.5601954,7.5810569,4056
517,"Nauenstrasse 63, 63 A",47.5469082,7.5944561,4052
520,Bachlettenstrasse 13,47.5499702,7.580564700000001,4054
521,Birsigstrasse 82,47.5498535,7.5803784,4054
522,Strassburgerallee 15,47.5639979,7.572189599999999,4055
523,"St. Alban-Anlage 65, 67",47.553071,7.6026262,4052
524,Vogesenstrasse 139,47.5695328,7.574103000000001,4056
525,Seltisbergerstrasse 5,47.5296178,7.6008146,4059
526,Innere Margarethenstrasse 15,47.5498998,7.586856399999999,4051
527,Hardstrasse 65,47.5506481,7.605142799999999,4052
528,Holbeinstrasse 20,47.5540399,7.5841625,4051
529,"Vogesenstrasse 68, 70, 72",47.5670709,7.5775537,4056
530,Florastrasse 35,47.5640954,7.5890435,4057
531,Muespacherstrasse 64,47.5620272,7.566866099999999,4055
533,Im langen Loh 213,47.5491743,7.5605832,4054
535,Grimselstrasse 2,47.5462486,7.5623692,4054
536,Freie Strasse 23,47.5572642,7.589161199999999,4001
537,Oetlingerstrasse 37,47.5676232,7.5890765,4057
538,Erlenstrasse 78,47.569311,7.6036956,4058
539,Kleinriehenstrasse 88,47.5681605,7.6162406,4058
540,Steinbühlallee 183–189,47.547049,7.5571427,4054
541,Rosentalstrasse 27,47.5651299,7.6038592,4058
542,Friedensgasse 13,47.5630577,7.5791777,4056
543,Sperrstrasse 80,47.56543790000001,7.595701200000001,4057
544,"Giessliweg 60, 62, 64, 66",47.5799703,7.590001900000001,4057
545,Chrischonastrasse 47,47.5598074,7.6025938,4058
546,"Chrischonastrasse 39, 39A, 39B, 39C, 39D",47.559961,7.602089299999999,4058
548,Kleinhüningerstrasse 160,47.5790397,7.590768100000001,4057
549,Falkensteinerstrasse 71,47.5380003,7.6008846,4053
550,Rebgasse 53,47.5592136,7.5965095,4058
551,Isteinerstrasse 108,47.5674843,7.598830100000001,4058
552,Schlettstadterstrasse 24,47.5591619,7.572882799999999,4055
553,"Bosenhaldenweg 24, 26, 28",47.5876021,7.659772899999999,4125
554,Heinrichsgasse 10,47.5566418,7.5763919,4055
555,"Utengasse 15, 17",47.5601827,7.5932223,4058
556,Bartenheimerstrasse 35,47.5595918,7.5701822,4055
557,"Anwilerstrasse 10, 12",47.5291469,7.5965904,4059
558,Largitzenstrasse 79,47.5659268,7.567008100000001,4056
560,"Kaysersbergerstrasse 37, 39",47.5663862,7.562575899999999,4055
561,Fasanenstrasse 122,47.5727206,7.610036,4058
563,Hirzbrunnenallee 4,47.5670702,7.611678899999998,4058
564,Solothurnerstrasse 41,47.5441294,7.5906168,4053
565,Schneidergasse 22,47.557958,7.586657799999999,4051
566,Gilgenbergerstrasse 21,47.5379382,7.602571699999999,4053
567,Lothringerstrasse,47.5690833,7.5766791,4056
568,Bundesstrasse 1,47.5527264,7.577117899999998,4054
569,Fatiostrasse 35,47.5666988,7.5793313,4056
570,Brombacherstrasse 1,47.5706816,7.5954508,4057
571,"Gellertstrasse 51, 53",47.5509218,7.614775,4052
572,Spalenring 137,47.5552067,7.576179199999999,4055
573,Leonhardsstrasse 32,47.5540853,7.5837774,4051
574,"Feldbergstrasse 7, 9",47.5657906,7.5880335,4057
575,Leuengasse 10,47.56602400000001,7.5877033,4057
576,Paradieshofstrasse 163,47.546472,7.5589456,4054
578,Lenzgasse 41,47.568558,7.570296399999999,4056
579,Jurastrasse 35.,47.54199149999999,7.5916061,4053
580,"Gellertstrasse 97, 99",47.5496256,7.6170441,4052
581,Dornacherstrasse 274,47.5399992,7.598946799999998,4053
582,Hegenheimerstrasse 62,47.5610021,7.5708934,4055
584,St. Galler-Ring 202,47.5513162,7.567695400000001,4054
585,"Sonnenweg 3, 7",47.4865754,7.6059872,4147
586,Jacob Burckhardt-Strasse 23,47.54799149999999,7.601268900000001,4052
588,Dammerkirchstrasse 80,47.5661669,7.5657646,4056
589,Erlenstrasse,47.5716657,7.602701300000001,
590,Delsbergerallee 75,47.53874889999999,7.5990892,4053
591,Airoloweglein,47.5318258,7.5895283,4059
592,Mittlere Strasse 138,47.564488,7.5751719,4056
594,Flughafenstrasse 45,47.56794499999999,7.570206499999999,4056
595,Röttelerstrasse 20,47.5694818,7.616763199999999,4058
596,Binzenstrasse 45,47.5678235,7.6189769,4058
597,Friedensgasse 23,47.5627883,7.578884599999999,4056
598,Metzerstrasse 57,47.5649151,7.575275899999999,4056
599,"Bruderholzallee 174, 176",47.53263159999999,7.595872,4059
600,Maulbeerstrasse 163,47.5697422,7.6088591,4058
601,Realpstrasse 52,47.5482241,7.5660673,4054
602,Mailand-Strasse 30,47.53361109999999,7.6070818,4053
603,"Schönbeinstrasse 21, 23",47.5594048,7.5804037,4056
604,Schliengerweg 21,47.5718362,7.5956796,4057
605,Landskronstrasse 54,47.5678648,7.5754163,4056
606,Unterer Rheinweg 88,47.5664476,7.587053399999999,4057
607,Klingental 17,47.5618659,7.5900569,4058
608,Homburgerstrasse 25,47.5556106,7.6127312,4052
609,St. Johanns-Ring 18,47.5658003,7.579610100000001,4056
610,Holeestrasse 129,47.54574600000001,7.5671562,4054
612,Färberstrasse 5,47.5767655,7.5923187,4057
615,Neubadstrasse 138,47.5472715,7.565427400000001,4054
616,Chrischonastrasse 49,47.55987,7.602846399999999,4058
618,Wettstein- allee,47.5613169,7.606198699999999,4058
619,St. Jakobs-Strasse 79,47.547222,7.600179100000001,4052
620,Passwangstrasse 29,47.5359493,7.5942997,4059
621,Holbeinstrasse 64,47.5516576,7.5833324,4051
622,"Sempacherstrasse 51, 53",47.5429433,7.587320699999998,4053
623,Hebelstrasse 88,47.56278,7.5782734,4056
624,Elsässerstrasse 56,47.570235,7.578890899999999,4056
625,"Rennweg 15, 17, 19",47.551422,7.604866299999999,4052
626,Weiherhofstrasse 164,47.546848,7.5576688,4054
627,Gundeldingerrain 81,47.5363772,7.5903698,4059
628,"Giornicostrasse 249, 251, 253",47.5263673,7.590182,4059
629,Klybeckstrasse 14,47.5635948,7.592038499999999,4057
631,Kandererstrasse 29,47.5658225,7.590533199999999,4057
632,Neuensteinerstrasse 24,47.5400591,7.601178399999998,4053
633,Paradieshofstrasse 126,47.5474944,7.558786099999999,4054
635,Bäumlihofstrasse 70,47.56374650000001,7.614976799999999,4058
636,Strassburgerallee 11,47.564091,7.5723371,4055
637,Reinacherstrasse 30,47.5407669,7.6022648,4053
638,Ramsteinerstrasse 22,47.5550643,7.610861399999999,4052
640,Turnerstrasse 37,47.5606371,7.6009354,4058
642,Dorfstrasse 30,47.583339,7.593033699999999,4057
644,Türkheimerstrasse 70,47.55979139999999,7.5729243,4055
645,Hirzbodenweg 9,47.5509127,7.608770399999999,4052
646,Seltisbergerstrasse 33,47.52865670000001,7.5998822,4059
648,Schwarzwaldallee 12,47.5600907,7.6119087,4058
649,Schillerstrasse 7,47.5438929,7.5954132,4053
650,Adlerstrasse 14,47.54744,7.6095297,4052
651,St. Alban-Anlage 35,47.5526962,7.600299199999999,4052
652,Mittlere Strasse 80,47.5631684,7.5765946,4056
654,Oetlingerstrasse 150,47.5676796,7.59406,4057
656,Bruderholzallee 126,47.5320501,7.5912339,4059
663,Thiersteinerallee 83,47.539777,7.596993800000001,4053
665,"Julia Gauss-Str. 5, 7, 9",47.5679032,7.56537,4056
666,Dittingerstrasse 47,47.5402478,7.5878439,4053
668,St. Alban-Rheinweg 146,47.5552232,7.6070835,4052
670,St. Galler-Ring 7,47.5597342,7.567822,4055
671,Sevogelstrasse 104,47.5485291,7.599661299999999,4052
672,Sevogelstrasse,47.5492151,7.601735499999999,4052
674,"Allschwilerstrasse 123, 127",47.5564987,7.565808000000001,4055
675,Münchensteinerstrasse 91,47.5394414,7.6061864,4052
676,"Klybeckstrasse 212, 218, 222, 224, 226",47.575432,7.590357999999998,4057
677,"Claragraben 55,",47.5611036,7.595250000000001,4058
678,"Grenzacherstrasse 293, 295, 297",47.5610569,7.6153001,4058
679,"Wiesenplatz 7, 8",47.5131771,7.546416299999999,4104
680,Klingnaustrasse 24,47.5606662,7.5994607,4058
681,Wartenbergstrasse 24,47.5480326,7.6075929,4052
682,St. Galler-Ring 156,47.5534663,7.567142599999999,4054
683,In den Ziegelhöfen 151,47.5449665,7.5576573,4054
684,Hammerstrasse 86,47.5639174,7.596148500000001,4057
685,"Dornacherstrasse 248, 250, 250A",47.540722,7.5965317,4053
686,Sierenzerstrasse 37,47.5597048,7.569407600000001,4055
687,Sängergasse 20,47.5555303,7.571199699999999,4054
688,"Thiersteinerrain 9, 11",47.5385368,7.596352599999999,4053
689,Brombacherstrasse 34,47.5699603,7.5968308,4057
690,Hebelstrasse 110,47.5635275,7.5774515,4056
691,Petersgasse 4,47.5609006,7.586411099999999,4051
692,Paradieshofstrasse 166,47.5463614,7.5585444,4054
693,Kembserweg 24,47.56136710000001,7.5713471,4055
694,Im tiefen Boden 39,47.53023169999999,7.5910696,4059
696,Leimgrubenweg 13,47.5366069,7.607325499999999,4053
697,Mittlere Strasse 135,47.5642139,7.574968399999999,4056
698,Falkensteinerstrasse,47.5394003,7.601578,4053
699,Falkensteinerstrasse 65,47.5382066,7.601026599999999,4053
700,Ryffstrasse 45,47.5678176,7.577316499999999,4056
701,Neuweilerstrasse 93,47.5459207,7.5585036,4054
702,Metzerstrasse 28,47.5646882,7.577016,4056
703,Bleichestrasse 15,47.56600659999999,7.6007524,4058
704,Leonhardsstrasse 34,47.5541125,7.5836446,4051
705,In den Ziegelhöfen 69,47.5455842,7.5621557,4054
706,Steinenvorstadt 11,47.55358409999999,7.5891429,4051
707,Dornacherstrasse 120,47.5428982,7.5899765,4053
708,Frobenstrasse 40,47.5443745,7.5853396,4053
709,Bärenfelserstrasse 44,47.5683054,7.5878279,4057
711,Oberalpstrasse 50,47.5498719,7.5642646,4054
712,Reussstrasse 41,47.5502197,7.5634811,4054
713,Birsstrasse 102,47.5513617,7.621126599999999,4052
715,"Göschenenstrasse 49, 51, 53",47.5468801,7.561375,4054
716,Bristenweg 24,47.54964409999999,7.567053700000001,4054
717,Lehenmattstrasse 332,47.5442097,7.6198508,4052
718,Thiersteinerrain 135,47.5358445,7.595519299999999,4059
720,Engelgasse 131,47.5467141,7.606681699999999,4052
721,Weilerweg,47.5849678,7.593748399999999,4057
722,Steinenvorstadt 51,47.5526716,7.5887295,4051
723,Göschenenstrasse 57,47.5470333,7.561069799999999,4054
729,Birsigstrasse 32,47.55062270000001,7.583821099999999,4054
730,Birsigstrasse 34,47.5505778,7.583728,4054
731,Blotzheimerstrasse 9,47.5613322,7.568116499999999,4055
739,Elsässerstrasse 46,47.5697196,7.579199999999999,4056
743,Mittlere Strasse 22,47.5609352,7.5791588,4056
744,Rotbergerstrasse 16A,47.5490022,7.577732600000001,4054
745,Rotbergerstrasse 9,47.5485883,7.5778909,4054
746,Beinwilerstrasse 11,47.5419801,7.5905716,4053
747,Marignanostrasse 22,47.5351869,7.585811100000001,4059
748,Reinacherstrasse 60,47.5398141,7.602704999999999,4053
750,Peter Merian-Weg 2,47.5469272,7.5919854,4051
752,"Predigerhofstrasse 61, 63, 65, 67",47.52449679999999,7.5900572,4059
754,Angensteinerstrasse 20,47.5491929,7.6038896,4052
755,Morgartenring 159,47.5511382,7.565981300000001,4054
756,Steinbühlallee 13,47.5517394,7.558808900000001,4054
762,"Frobenstrasse 38, 40",47.5443745,7.5853396,4053
764,Unterer Batterieweg 62,47.5395919,7.5873108,4053
765,Maulbeerstrasse 60,47.5675325,7.602936400000001,4058
766,Brombacherstrasse 37,47.5701046,7.597259299999999,4057
767,Wartenbergstrasse 21,47.5477649,7.6077137,4052
770,Arabienstrasse 15,47.5321267,7.589106499999999,4059
771,Auf dem Wolf 37,47.541414,7.614884099999999,4052
772,Leimenstrasse 42,47.5535303,7.581676799999999,4051
773,Fürstensteinerstrasse 20,47.5379869,7.5972939,4053
774,"St. Alban-Rheinweg 108, 110, 112, 114, 116",47.5539225,7.604714599999999,4052
775,Käferholzstrasse 105,47.5656103,7.6194877,4058
776,Reiterstrasse 25,47.5485623,7.5656393,4054
777,Gundeldingerstrasse 431,47.5382349,7.600057199999999,4053
778,Kannenfeldstrasse 22,47.5629557,7.574221100000001,4056
779,St. Galler-Ring 170,47.5528996,7.5672077,4054
780,Feldbergstrasse 89,47.5669331,7.5940711,4057
784,Nufenenstrasse 55,47.5508091,7.5625531,4054
785,Im Sesselacker 52,47.5361303,7.600104000000001,4059
786,Bergalingerstrasse 11,47.5599579,7.6104999,4058
788,Dornacherstrasse 118,47.5429343,7.589870399999999,4053
789,Dornacherstrasse 323,47.539365,7.6022654,4053
790,Davidsbodenstrasse,47.5660783,7.576482799999999,4056
791,Gotthardstrasse 37,47.5480797,7.5630741,4054
792,Murbacherstrasse 37,47.56901509999999,7.5769523,4056
793,Müllheimerstrasse 162,47.5704968,7.592433600000001,4057
796,"Erasmusplatz 10, 11",47.5658059,7.5894568,4057
797,Erlenstrasse 21,47.56887769999999,7.599246200000001,4058
798,Bruderholzallee 2,47.53559,7.587087199999999,4059
799,Seltisbergerstrasse 51,47.5284691,7.598952099999999,4059
800,Wettsteinallee 81,47.5613542,7.6036921,4058
801,Kandererstrasse 12,47.5654724,7.590067100000001,4057
802,Landskronstrasse 25,47.56871719999999,7.5779049,4056
803,Näfelserstrasse 29,47.5580829,7.565809499999999,4055
804,Sennheimerstrasse 42,47.5541639,7.570179999999999,4054
807,Gotthelfplatz 11,47.55345639999999,7.567926399999999,4054
809,Meltingerstrasse 17,47.545274,7.581721099999998,4053
810,Weissensteinstrasse 11,47.5357981,7.5930641,4059
811,Blauenstrasse 47,47.554323,7.5730434,4054
814,Sierenzerstrasse 65,47.5587461,7.568478799999999,4055
817,Bachofenstrasse 17,47.5393001,7.5904312,4053
818,Rotbergerstrasse 16,47.5489302,7.5778121,4054
819,"Schweizergasse 29, 31",47.54956929999999,7.577388699999999,4054
820,Bruderholzrain 36,47.5376685,7.593281999999999,4059
821,Klingnaustrasse 30,47.5605137,7.599127999999999,4058
822,"Oberer Batterieweg 57, 61",47.5315405,7.5888554,4059
823,Oberer Batterieweg,47.5307421,7.5887037,4059
824,Bruderholzstrasse 92,47.5413645,7.592448599999999,4053
826,Schweizergasse 52,47.5502812,7.5761816,4054
829,"Frobenstrasse 58, 58A",47.543865,7.5848732,4053
831,Thiersteinerrain 158,47.5349656,7.594347600000001,4059
832,Freiburgerstrasse 19,47.57547659999999,7.601020399999999,4057
833,Im langen Loh 23,47.555871,7.5640395,4054
834,Pfeffingerstrasse 73,47.54305,7.590800499999999,4053
835,Hochwaldstrasse 18,47.53023109999999,7.6027418,4059
836,Sommergasse 23,47.5636569,7.5744355,4056
837,Froburgstrasse 17,47.5557642,7.6119459,4052
838,Rotterdam-Str. 21,47.5340694,7.6057573,4053
840,Zur Gempenfluh 22,47.5299963,7.6002182,4059
841,"Offenburgerstrasse 14, 16",47.5690555,7.587246700000001,4057
842,Oberalpstrasse 72,47.5506097,7.563987300000001,4054
844,Allschwilerstrasse 25,47.55594079999999,7.5736705,4055
846,Matthäusstrasse 7,47.56712539999999,7.591480400000001,4057
848,Palmenstrasse 24,47.5564603,7.5734295,4055
849,Im Heimatland 86,47.565147,7.616629199999999,4058
850,Im Sesselacker 31,47.536653,7.5993352,4059
852,Auf der Alp 17,47.5256726,7.591866400000001,4059
853,Thiersteinerrain 131,47.5359855,7.5956359,4059
855,Petersgasse 2,47.5609551,7.586490599999999,4051
856,Luftmattstrasse 22,47.5477658,7.6018527,4052
857,"Schauenburgerstrasse 23, 25, 27",47.5551378,7.6100858,4052
858,Schauenburgerstrasse,47.5543319,7.6102631,4052
859,Unterer Batterieweg 145,47.5373262,7.5867334,4059
860,Gotthelfstrasse 11,47.55221419999999,7.5689331,4054
861,Entenweidstrasse 4,47.5658701,7.5738166,4056
863,Freiburgerstrasse 7,47.5752434,7.600594399999999,4057
864,Holbeinstrasse 95,47.5506523,7.5816691,4051
865,Türkheimerstrasse 85,47.5600262,7.572061199999999,4055
866,Birmannsgasse 16,47.5578884,7.5774236,4055
867,Tellstrasse 42,47.5429974,7.5965915,4053
868,Wattstrasse 12,47.5698492,7.5781058,4056
869,Bättwilerstrasse 2,47.5498632,7.572142100000001,4054
870,Webergasse 15,47.5620218,7.590657599999999,4058
871,Socinstrasse 60,47.5557852,7.576302099999999,4051
873,Marignanostrasse 76,47.5331381,7.5843712,4059
875,Hochwaldstrasse 10,47.5296704,7.602165400000001,4059
878,Lothringerstrasse 109,47.5699767,7.575570399999999,4056
879,Glaserbergstrasse 56,47.56616229999999,7.5679799,4056
880,"Spalenring 31, 33",47.56034700000001,7.574666300000001,4055
881,"Brombacherstrasse 6, 8",47.5703847,7.595503099999998,4057
882,Feldbergstrasse 95,47.56700619999999,7.594465400000001,4057
883,"Austrasse 70, 72",47.554311,7.580562700000001,4051
884,Hirzbrunnenschanze 39,47.566928,7.616488899999999,4058
885,Güterstrasse 150,47.5444363,7.589848099999999,4053
886,St. Alban-Ring 183,47.5495075,7.610253699999999,4052
889,Reiterstrasse 8,47.54912420000001,7.5654318,4054
893,Florastrasse 33,47.5641695,7.5891598,4057
894,Bonergasse 75,47.5852555,7.5923432,4057
895,Davidsbodenstrasse 8,47.5651907,7.577947500000001,4056
896,Davidsbodenstrasse 14,47.5653438,7.5777353,4056
898,Pruntruterstrasse 7,47.54603030000001,7.5810324,4053
899,Säntisstrasse 6,47.5521246,7.5685742,4054
900,Largitzenstrasse 72,47.5663426,7.5670538,4056
901,Rigistrasse 6,47.5552673,7.5642049,4054
902,Wanderstrasse 6,47.5529867,7.569785199999999,4054
903,Reservoirstrasse 242,47.5281252,7.5897191,4059
904,"Hochbergerstrasse 72, 74, 76",47.58023379999999,7.5947478,4057
905,Mülhauserstrasse 133,47.5661379,7.575558,4056
908,Vogesenstrasse 86,47.5676472,7.576904099999999,4056
909,Therwilerstrasse 39,47.5494936,7.576561700000001,4054
911,Müllheimerstrasse 151,47.5698406,7.592112699999999,4057
912,St. Johanns-Ring 20,47.56576440000001,7.579503700000001,4056
913,St. Johanns-Vorstadt 28,47.5633836,7.5847727,4056
914,St. Johanns-Ring 111,47.5627214,7.575701400000001,4056
915,Dammerkirchstrasse 31,47.5671993,7.5675078,4056
916,Buchenstrasse 58,47.5562193,7.5680019,4054
917,Friedensgasse 37,47.5622338,7.577996100000001,4056
920,Holeestrasse 43,47.5446569,7.572522299999999,4054
922,Gärtnerstrasse 67,47.5778648,7.5916277,4057
923,Bäumlihofstrasse 43,47.5634054,7.6132521,4058
924,Bäumlihofstrasse 45,47.5634654,7.613407800000001,4058
927,Mittlere Strasse 145,47.5644751,7.574676800000001,4056
928,Schwarzwaldallee 265,47.56934589999999,7.604500499999999,4058
929,Schillerstrasse 3,47.5438216,7.595267100000001,4053
930,Sängergasse 14,47.5557729,7.5713996,4054
931,Sängergasse 16,47.55569209999999,7.5713197,4054
932,Stettenweg 16,47.5893453,7.658620399999999,4125
934,Erlenstrasse 24,47.56813,7.599692800000001,4058
935,General Guisan-Strasse 104,47.5498856,7.5652081,4054
936,Lehenmattstrasse 338,47.5440482,7.6197892,4052
937,Lehenmattstrasse 334,47.5445461,7.620013999999999,4052
938,Andreas Heusler-Strasse 26,47.5472251,7.6026215,4052
942,Riehenring 153,47.5683768,7.5972779,4058
943,Gundeldingerrain 119,47.5341713,7.5922493,4059
944,Karl Jaspers-Allee 26,47.5471572,7.612238700000001,4052
947,Lothringerstrasse 134,47.5715551,7.5746157,4056
949,Glaserbergstrasse 70,47.5658412,7.5675179,4056
950,Blauenstrasse 43,47.5546017,7.5732168,4054
951,Blauenstrasse 15,47.5554342,7.5737818,4054
953,Muespacherstrasse 72,47.5616873,7.566497999999999,4055
955,Unterer Batterieweg 173,47.5361566,7.5870489,4059
956,Rütlistrasse 53,47.5543813,7.5770292,4051
957,Metzerstrasse 26,47.5646297,7.5771544,4056
958,Reservoirstrasse 182,47.527798,7.594645900000001,4059
959,Hegenheimerstrasse 124,47.5627031,7.5669124,4055
960,Spalenring 113,47.5565189,7.575722700000001,4055
961,Karpfenweg 18,47.5511943,7.618894200000001,4052
962,Wettsteinallee 27,47.5602226,7.6001926,4058
963,Lindenhofstrasse 14,47.5469474,7.595228100000001,4052
964,Beim Buremichelskopf 9,47.5331662,7.585643800000001,4059
967,"Birsigstrasse 137, 139",47.55073100000001,7.576049999999999,4054
968,Gundeldingerrain 49,47.5378322,7.5918747,4059
971,Davidsbodenstrasse 27,47.5656328,7.5768058,4056
973,Klingelbergstrasse 39,47.56231870000001,7.580411499999999,4056
974,Dornacherstrasse 315,47.539618,7.6014427,4053
977,Elsässerstrasse 3,47.5671829,7.5810833,4056
978,Hirzbrunnenschanze 65,47.56641279999999,7.6172175,4058
980,Spalenring 103,47.5569373,7.5755876,4055
981,St. Galler-Ring 150,47.55370019999999,7.5671166,4054
982,Rebgasse 36,47.5599278,7.5952169,4058
985,Grenzacherstrasse 223,47.55983060000001,7.611442899999999,4058
986,Schauenburgerstrasse 22,47.55471540000001,7.6098985,4052
988,Gundeldingerstrasse 415,47.53848139999999,7.599221099999999,4053
989,Amerbachstrasse 43,47.5694285,7.593258700000001,4057
990,"Im tiefen Boden 3, 5",47.5319519,7.590649399999999,4059
993,Theodorsgraben 34,47.5586344,7.5988567,4058
994,Im langen Loh 215,47.5491204,7.560569800000001,4054
995,Im langen Loh 287,47.5465668,7.559979500000001,4054
998,Giornicostrasse 118,47.5282885,7.599495999999999,4059
999,"Leimenstrasse 30, 32",47.5539138,7.582156800000001,4051
1000,Drahtzugstrasse 24,47.56320849999999,7.595631999999999,4057
1001,Passwangstrasse 40,47.5354736,7.5935944,4059
1002,Marschalkenstrasse 46,47.5494753,7.573164099999999,4054
1003,Klingnaustrasse 8,47.5608821,7.599381600000001,4058
1005,Leonhardsgrabe,47.5561763,7.585233,4051
1010,Herrengrabenweg 76,47.5535974,7.570570499999999,4054
1011,Spalenring 83,47.55816979999999,7.5752852,4055
1012,Spalenring,47.55717869999999,7.5752375,
1013,Reiterstrasse 49,47.5474833,7.5652402,4054
1014,Helvetiaplatz 20,47.5597132,7.566748500000001,4055
1015,Gundeldingerstrasse 162,47.5413682,7.588503999999999,4053
1016,Bruderholzallee 58,47.533052,7.5883949,4059
1017,Riehenring 79,47.56439109999999,7.5983424,4058
1018,Hagenbachstrasse 32,47.5469927,7.601624600000001,4052
1019,Riehenring,47.5706048,7.597693100000001,
1020,Lyon-Strasse 14,47.5357982,7.6076757,4053
1021,Hirzbodenweg 92,47.5483887,7.6065439,4052
1023,Petersplatz 5,47.55816110000001,7.5824598,4051
1025,Göschenenstrasse 38,47.547303,7.561136899999999,4054
1026,Freie Strasse,47.5556164,7.5905103,
1027,Feierabendstrasse 32,47.5522974,7.581553299999999,4051
1028,"Schützenmattstrasse 26, 28",47.5560498,7.5806473,4051
1029,Hegenheimerstrasse 120,47.5625395,7.5671021,4055
1030,Hagentalerstrasse 15,47.5613473,7.5719473,4055
1031,Hebelstrasse 121,47.5638701,7.5766817,4056
1032,Steinenbachgässlein 7,47.5536925,7.588612200000001,4051
1034,Steinenvorstadt 13,47.5535069,7.589198499999999,4051
1035,Birsigstrasse 78,47.54971519999999,7.580748000000001,4054
1036,"Viaduktstrasse 40, 42, 44",47.5491733,7.585674199999999,4051
1040,Thannerstrasse 39,47.5544489,7.573096899999999,4054
1042,Baumgartenweg 21,47.5417949,7.594542499999999,4053
1043,Marktgasse 11,47.5594424,7.587581600000001,4051
1045,Neuweilerstrasse 81,47.5459472,7.558995100000001,4054
1046,Waldenburgerstrasse 30,47.5545278,7.6090609,4052
1048,Byfangweg 14,47.5522614,7.5822978,4051
1049,Largitzenstrasse 44,47.5669805,7.567932799999999,4056
1053,Schönaustrasse 30,47.5677785,7.6006648,4058
1054,Ahornstrasse 24,47.557677,7.572527,4055
1055,"Wallstrasse 17, 19, 21, 23, 25",47.5503648,7.589384600000001,4051
1056,Elsässerstrasse 81,47.5701639,7.5782395,4056
1057,Eimeldingerweg 47,47.5735499,7.596004199999999,4057
1060,"Holbeinstrasse 77A, 79",47.5510806,7.58289,4051
1062,Efringerstrasse 71,47.56914279999999,7.596124100000001,4057
1064,Buchenstrasse 8,47.5562675,7.571480599999999,4054
1065,Metzerstrasse 48,47.5651577,7.575422699999999,4056
1066,St. Jakobs-Strasse 45,47.5486345,7.598016299999999,4052
1068,Dittingerstrasse 30,47.5407777,7.58839,4053
1069,Morgartenring 32,47.5557352,7.5648762,4054
1070,Weiherhofstrasse 28,47.5511635,7.559060000000001,4054
1072,Neuweilerstrasse 108,47.54612909999999,7.557042900000001,4054
1073,Schlachthofstrasse 67,47.57562859999999,7.565508,4056
1074,Schlachthofstrasse 65,47.5760149,7.5658943,4056
1078,Thumringerstrasse 48,47.5679052,7.618498799999999,4058
1079,Gundeldingerstrasse 503,47.5371505,7.6036929,4053
1080,"Engelgasse 28, 30",47.549927,7.599880000000001,4052
1081,Gundeldingerstrasse 115,47.54264509999999,7.5858335,4053
1082,"Wanderstrasse 129, 131",47.5517617,7.562205899999999,4054
1083,Hüningerstrasse 14,47.570636,7.5744931,4056
1084,Steinenring 56,47.55059989999999,7.580393699999998,4051
1086,Horburgstrasse 30,47.5705512,7.5920882,4057
1088,Laufenstrasse 90,47.5391919,7.597403799999999,4053
1089,Jurastrasse 49,47.5415745,7.591227200000001,4053
1091,Weiherhofstrasse 109,47.5475849,7.5581885,4054
1092,Blauenstrasse 74,47.55384249999999,7.572338800000001,4054
1093,Hohe Winde-Strasse 104,47.5328381,7.5914387,4059
1095,Gerbergasse 52,47.5557791,7.5885649,4001
1096,Güterstrasse 213,47.5427656,7.5950501,4053
1098,"Fürstensteinerstrasse 7, 9, 11, 13, 15",47.5383248,7.5974983,4053
1101,Gotthelfstrasse 105,47.5571209,7.568267,4054
1103,Güterstrasse,47.5432554,7.593327,4053
1105,Röschenzerstrasse 4,47.5413393,7.5878106,4053
1106,Hammerstrasse 61,47.5623517,7.5967551,4058
1107,Beim Wasserturm 19,47.5271639,7.593145400000001,4059
1108,Weiherweg 92,47.55329829999999,7.5726157,4054
1109,Turnerstrasse 14,47.5612681,7.599927499999999,4058
1110,Unterer Rheinweg 66,47.5656468,7.5873435,4057
1111,"Vogesenstrasse 132, 136",47.56942470000001,7.5747791,4056
1112,Uhlandstrasse 10,47.5435197,7.5967464,4053
1113,Gempenstrasse 15,47.5448785,7.587486999999999,4053
1114,Henric Petri-Str. 11,47.5523027,7.5922616,4051
1116,Florastrasse 24,47.5646445,7.5899275,4057
1117,Grenzacherstrasse 215,47.5597323,7.6109908,4058
1118,Feldbergstrasse 92,47.5666902,7.594123499999999,4057
1120,Schweizergasse 25,47.5495637,7.577836199999999,4054
1122,Innere Margarethenstrasse 12,47.5501905,7.586553599999999,4051
1123,Arnold Böcklin-Strasse 47,47.551145,7.5757986,4051
1125,Oberwilerstrasse 155,47.5448675,7.5756517,4054
1126,Schäublin-Strasse 99,47.5329412,7.583587199999999,4059
1127,Fürstensteinerstrasse 67,47.5374102,7.599937,4053
1129,Laupenring 149,47.5484393,7.5666789,4054
1130,Peter Ochs-Strasse 22,47.5314439,7.5939678,4059
1131,Markgräflerstrasse 72,47.5699341,7.5952514,4057
1132,Bläsiring 136,47.56846179999999,7.594208399999999,4057
1134,Speiserstrasse 89,47.54705879999999,7.6118399,4052
1136,Grosspeterstrasse 12,47.5448765,7.5995329,4052
1137,Sierenzerstrasse 42,47.5595981,7.5688713,4055
1138,Schorenweg 53,47.57252080000001,7.611337799999999,4058
1140,Rütimeyerstrasse 3,47.5506688,7.575412099999999,4054
1141,Vogesenstrasse 34,47.565963,7.5788797,4056
1142,Dornacherstrasse 325,47.5393362,7.602426299999999,4053
1143,Dammerkirchstrasse 17,47.5675316,7.5679472,4056
1144,Kluserstrasse 24,47.5494741,7.5742002,4054
1145,Gundeldingerstrasse 280,47.5399365,7.592119599999999,4053
1147,Schäferweg 59,47.5847126,7.5948141,4057
1149,Lachenstrasse 15,47.56816750000001,7.568885299999999,4056
1151,"Gundeldingerrain 167, 169",47.533414,7.595450400000001,4059
1152,Sattelgasse 3,47.5580473,7.5871895,4051
1153,"Nonnenweg 64, 64A, 64B, 64C, 64D",47.5592757,7.5755006,4055
1154,Alemannengasse 67,47.55796300000001,7.6030398,4058
1156,Alemannengasse 65 A,47.557918,7.603119400000001,4058
1160,Mülhauserstrasse 142,47.5664177,7.5754592,4056
1161,Wanderstrasse 87,47.5519677,7.564083500000001,4054
1163,Burgfelderstrasse 20,47.5629307,7.5724538,4055
1164,Im langen Loh 57,47.5546757,7.563199699999999,4054
1165,Glaserbergstrasse 15,47.5671876,7.569939600000001,4056
1168,Rütimeyerstrasse 10,47.5504015,7.574981299999999,4054
1170,Eggfluhstrasse 15,47.5448871,7.574334700000001,4054
1172,Marschalkenstrasse 69,47.5481999,7.572364599999999,4054
1173,Schäublin-Strasse 103,47.5327976,7.583361,4059
1176,Vogesenstrasse 43,47.5663065,7.577458699999999,4056
1177,Lehenmattstrasse 336,47.5441042,7.619809399999999,4052
1179,Missionsstrasse 13,47.5583711,7.5799492,4055
1180,Klingelbergstrasse 37,47.5622288,7.580437799999999,4056
1181,Gundeldingerrain 152,47.5332476,7.5943519,4059
1182,Furkastrasse 33,47.54763519999999,7.5617088,4054
1183,Morgartenring 179,47.5503139,7.5660619,4054
1184,Luftmattstrasse 9,47.5479177,7.602557300000001,4052
1185,Immengasse 10,47.5666451,7.580130599999999,4056
1186,Hegenheimerstrasse 50,47.5608559,7.5713081,4055
1190,Schifflände 1,47.5595839,7.588243400000001,4051
1191,Haltingerstrasse 99,47.5667132,7.597100199999999,4057
1192,Sperrstrasse 90,47.56559009999999,7.5962597,4057
1193,Wettsteinallee 88,47.560849,7.603766199999999,4058
1194,Hochstrasse 84,47.543916,7.5967663,4053
1195,Herengrabenweg 72,47.55369930000001,7.5706319,4054
1196,In den Ziegelhöfen 116,47.5453984,7.559233000000001,4054
1197,Weiherhofstrasse 70,47.54932050000001,7.558431499999999,4054
1198,Stachelrain 8,47.5578429,7.605311400000001,4058
1200,Rheinländerstrasse 10,47.5637427,7.5779703,4056
1201,Gundeldingerstrasse 135,47.5421664,7.587139700000001,4053
1203,Claragraben 60,47.5616788,7.595530699999999,4058
1204,Sierenzerstrasse 61,47.55893289999999,7.5685907,4055
1205,In den Ziegelhöfen 162,47.5451039,7.556960899999999,4054
1206,"Rümelinbachweg 18, 20",47.55137149999999,7.583953,4054
1207,Paradieshofstrasse 101,47.5481774,7.5592658,4054
1208,Birsfelderstrasse 33,47.5560096,7.616519,4052
1210,"Predigerhofstrasse 25, 27",47.5272487,7.5902376,4059
1212,Riehentorstrasse 7,47.5587023,7.5952163,4058
1213,Peter Rot-Strasse 60,47.5602105,7.6045394,4058
1215,Breisacherstrasse 84,47.5678958,7.588924400000001,4057
1216,Steinbühlallee 97,47.5495188,7.557993600000001,4054
1218,Ahornstrasse 43,47.5572831,7.572054400000001,4055
1219,St. Johanns-Vorstadt 9,47.562664,7.5848371,4056
1220,Lindenhofstrasse 10,47.54698399999999,7.5951118,4052
1221,Bedrettostrasse 9,47.5260629,7.590922099999998,4059
1223,Pfeffelstrasse 14,47.559559,7.5716216,4055
1224,Oberer Rheinweg 85,47.5585896,7.593888799999998,4058
1226,"Stöberstrasse 34, 36",47.5588126,7.571606500000001,4055
1228,Oberalpstrasse 41,47.5490716,7.5641963,4054
1229,"Peter Ochs-Strasse 17, 19",47.5320006,7.5946334,4059
1230,Seltisbergerstrasse 42,47.5288033,7.597943900000001,4059
1231,Bättwilerstrasse 1,47.5499978,7.572434700000001,4054
1232,Alemannengasse 91,47.5580694,7.604129599999999,4058
1236,Paradieshofstrasse 76,47.5495623,7.5594018,4054
1237,In den Ziegelhöfen 86,47.5455681,7.5603359,4054
1238,"Grienstrasse 98, 100",47.5604629,7.565258000000001,4055
1239,Bartenheimerstrasse 30,47.5598274,7.5700058,4055
1240,Pfeffingerstrasse 18,47.5449641,7.5920147,4053
1244,Neuhausstrasse,47.5821204,7.5977519,4057
1246,Fürstensteinerstrasse 59,47.53756120000001,7.5994575,4053
1249,Rheinfelderstrasse 21,47.56010759999999,7.599223899999999,4058
1251,Friedrich Oser-Strasse 28,47.5313935,7.5842204,4059
1253,Gotthelfstrasse 89,47.5562708,7.568407799999999,4054
1254,Gotthardstrasse 21,47.5476693,7.563502199999999,4054
1255,Oberer Batterieweg 66,47.5311183,7.5884558,4059
1259,Kaltbrunnenstrasse 7,47.5451208,7.5746381,4054
1260,Neuweilerstrasse 66,47.54648479999999,7.5610022,4054
1261,Breisacherstrasse 27,47.5647367,7.589312,4057
1262,Gundeldingerstrasse 459,47.5374924,7.6026046,4053
1263,Schertlingasse 24,47.5518259,7.585365399999999,4051
1264,"Clarahofweg 17, 19, 19A, 19B",47.5620908,7.5968341,4058
1265,Gellertstrasse 86,47.5505195,7.613153,4052
1266,Hirzbrunnenallee 20,47.5665838,7.6121292,4058
1267,Riehenstrasse 274,47.56801249999999,7.6130374,4058
1268,Hardstrasse 99,47.5494405,7.606879299999999,4052
1269,Largitzenstrasse 52,47.5668026,7.567683499999998,4056
1270,Arlesheimerstrasse 20,47.5387384,7.600138399999999,4053
1271,Bündnerstrasse 46,47.5588753,7.5678526,4055
1272,Tellstrasse 11,47.5431876,7.5955428,4053
1273,Haltingerstrasse 77,47.5664001,7.595836899999999,4057
1275,Jungstrasse 36,47.5672048,7.5783381,4056
1276,Schöllenenstrasse 28,47.5512112,7.5649718,4054
1277,"Gärtnerstrasse 97, 99",47.5788975,7.591965999999999,4057
1280,Mittlere Strasse 8,47.560629,7.5795035,4056
1281,Gilgenbergerstrasse 19,47.53801310000001,7.6026202,4053
1282,Rosengartenweg 2,47.5590097,7.6034693,4058
1283,In den Ziegelhöfen 30,47.54567979999999,7.560943399999999,4054
1284,Largitzenstrasse 46,47.566936,7.567867299999999,4056
1285,Müllheimerstrasse 52,47.5660645,7.5931017,4057
1286,Schertlingasse 22,47.551806,7.5852457,4051
1288,Oetlingerstrasse 179,47.5680746,7.595975399999999,4057
1289,Klingentalstrasse 72,47.5643485,7.596628099999999,4057
1290,General Guisan-Strasse 165,47.5485496,7.5610156,4054
1291,Speiserstrasse 97,47.5467802,7.611706099999999,4052
1292,Grienstrasse 91,47.5608835,7.565721699999999,4055
1293,Starenstrasse 30,47.5389255,7.587986299999999,4059
1294,Kannenfeldstrasse 64,47.5648633,7.5734021,4056
1295,General Guisan-Strasse 36,47.55153070000001,7.568865,4054
1296,Clarahofweg 34,47.5621343,7.597844,4058
1298,Grenzstrasse,47.58663019999999,7.6000871,4057
1299,Uferstrasse,47.57821970000001,7.586079199999999,4057
1301,In den Ziegelhöfen 137,47.545102,7.558833899999999,4054
1302,Bleichestrasse 13,47.56597989999999,7.6006062,4058
1303,Turnerstrasse 27,47.5609498,7.6006702,4058
1304,Rheinfelderstrasse 8,47.5603668,7.598729,4058
1305,Bruderholzrain 34,47.5375872,7.593504899999998,4059
1306,Bruderholzrain 30d,47.5378299,7.593667699999998,4059
1307,Hirzbrunnenschanze 46,47.566496,7.616700100000001,4058
1308,Gotthardstrasse 4,47.54731229999999,7.564529800000001,4054
1310,"Steinbühlallee 183, 185, 187,189",47.547049,7.5571427,4054
1311,"Steinbühlallee 183, 185, 187, 189",47.547049,7.5571427,4054
1317,Bruderholzallee 45,47.5341771,7.5877062,4059
1322,Dornacherstrasse 263,47.54056689999999,7.5981649,4053
1323,St. Alban-Ring 149,47.550586,7.610748699999999,4052
1324,Sevogelstrasse 99,47.548458,7.6005379,4052
1326,Schönenbuchstrasse 12,47.55804759999999,7.571285400000001,4055
1327,"Missionsstrasse 35, 35A, 35B",47.56001149999999,7.5769375,4055
1328,Käferholzstrasse 126,47.5649083,7.6198042,4058
1329,Hohe Winde-Strasse 35,47.5339062,7.588636299999999,4059
1331,Wanderstrasse 14,47.552912,7.5692594,4054
1332,Hammerstrasse 82,47.5637554,7.5962543,4057
1333,Hüningerstrasse 160,47.5757149,7.581765700000001,4056
1335,Asconastrasse 5,47.5255073,7.590872499999999,4059
1337,Auberg 10,47.5526182,7.5846901,4051
1338,Dornacherstrasse 161,47.542364,7.592362,4053
1339,Lindenhofstrasse 28,47.5467036,7.595964899999999,4052
1340,Hammerstrasse 41,47.5613797,7.597257099999999,4058
1341,Haltingerstrasse 20,47.5655046,7.592924099999999,4057
1342,"Spalentorweg 42, 44",47.5558987,7.579212,4051
1344,Margarethenstrasse 54,47.5461746,7.583217200000001,4053
1345,Buchenstrasse 43,47.5560001,7.569367399999999,4054
1346,Sennheimerstrasse 51,47.55405709999999,7.569615100000001,4054
1347,Schalerstrasse 36,47.5476219,7.5737704,4054
1348,Friedrichstrasse 27,47.5569381,7.57491,4055
1350,Drahtzugstrasse 65,47.564122,7.597836699999999,4057
1352,"Julia Gauss-Strasse 5, 7, 9",47.5679032,7.56537,4056
1353,Hohe Winde-Strasse 112,47.532847,7.592523999999999,4059
1357,Blauensteinerstrasse 14,47.5440584,7.5829266,4053
1358,Gotthelfstrasse 23,47.5525659,7.5688194,4054
1359,"Thiersteinerrain 30, 32, 34, 36, 38, 40, 42, 44, 46, 48",47.537771,7.5967839,4053
1360,Steinenring 40,47.5508707,7.5796106,4051
1361,Grienstrasse 50,47.56173380000001,7.5650365,4055
1362,Holbeinstrasse 88,47.5510476,7.5820687,4051
1363,Lautengartenstrasse 23,47.5531962,7.5966881,4052
1364,Lerchenstrasse 34,47.5387884,7.589685999999999,4059
1366,Gerbergasse 16,47.55713739999999,7.587938299999998,4001
1367,Bruderholzallee 124,47.5320773,7.5910348,4059
1369,Eulerstrasse 62,47.5564567,7.578839999999999,4051
1370,Rudolfstrasse 48,47.553925,7.5750352,4054
1371,Barfüsserplatz 22,47.5549779,7.589187,4051
1374,Schützenmattstrasse 42,47.5552443,7.579748299999999,4051
1375,Wollbacherstrasse 20,47.5667081,7.6191459,4058
1376,Riehenring 111,47.5661911,7.5974442,4058
1377,Luftmattstrasse 27,47.5473969,7.601957899999999,4052
1378,"Sommergasse 10, 12",47.56320820000001,7.5754003,4056
1379,Strassburgerallee 111,47.5608216,7.568581999999998,4055
1380,Maulbeerstrasse 61,47.5677757,7.602698,4058
1381,Wanderstrasse 79,47.5520121,7.5645742,4054
1383,Güterstrasse 223,47.5425717,7.595845,4053
1385,Arnold Böcklin-Strasse 1,47.5509883,7.579052900000001,4051
1387,Knöringerstrasse 10,47.5631259,7.566873500000001,4055
1388,Pfeffingerstrasse 100,47.5417162,7.589245,4053
1389,Winkelriedplatz 4,47.5431075,7.588077699999999,4053
1390,Fasanenstrasse 125,47.5729351,7.610967,4058
1391,Efringerstrasse 1,47.5673347,7.596357899999999,4057
1393,Birsstrasse 94,47.5515869,7.6208616,4052
1395,Binzenstrasse 51,47.5679581,7.6192166,4058
1396,Habsburgerstrasse 13,47.5621287,7.572102699999999,4055
1400,An der hohlen Gasse 2,47.5726931,7.6103947,4058
1402,Sustenstrasse 15,47.5455535,7.559989400000001,4054
1403,Paulusgasse 8,47.5520018,7.577590199999999,4051
1404,Rheinländerstrasse 8,47.5637875,7.5781033,4056
1405,Rümelinbachweg 6,47.5516525,7.585678,4054
1407,Riehenring 155,47.5684577,7.597291500000001,4058
1408,Missionsstrasse 4,47.5588025,7.580149699999999,4055
1409,Neuweilerstrasse 91,47.5459296,7.558596599999999,4054
1411,Vogesenstrasse 45,47.5662616,7.5773789,4056
1412,Feldbergstrasse 2,47.5653227,7.5875419,4057
1413,Hardrain 16,47.5458129,7.6175057,4052
1414,Laufenstrasse 27,47.5416757,7.5994506,4053
1415,Hirzbodenweg 77,47.5485572,7.6073914,4052
1416,Rufacherstrasse 14,47.557993,7.572600899999999,4055
1417,Alemannengasse 4,47.5580053,7.5985226,4058
1418,Laupenring 123,47.547224,7.5677519,4054
1419,Im Holeeletten 11,47.5469192,7.5668479,4054
1420,Holbeinstrasse 10,47.5546663,7.5841323,4051
1421,Haltingerstrasse 25,47.5658458,7.593337099999999,4057
1422,In den Klostermatten 26,47.55126,7.617074400000001,4052
1424,Metzerstrasse 33,47.5644365,7.576842600000001,4056
1425,Metzerstrasse 35,47.5644816,7.5767364,4056
1426,Jacob Burckhardt-Strasse 29,47.5478134,7.6012223,4052
1427,"Blotzheimerstrasse 19, 19A",47.5613708,7.567098199999999,4055
1428,Blotzheimerstrasse 19,47.5613708,7.567098199999999,4055
1429,Blotzheimerstrasse 19A,47.560949,7.567200499999999,4055
1430,Allschwilerstrasse 119,47.5570284,7.5665799,4055
1431,Unterer Batterieweg 90,47.53962929999999,7.586208500000001,4059
1435,Offenburgerstrasse 54,47.5691602,7.5897852,4057
1436,Schönaustrasse 89,47.5689872,7.604548899999999,4058
1437,Austrasse 42,47.55343939999999,7.582500299999999,4051
1441,Schorenweg 35,47.57121859999999,7.610097599999999,4058
1442,Steinentorstrasse 20,47.55184149999999,7.588802599999999,4051
1447,Rebgasse 48,47.5596013,7.595511300000001,4058
1448,Käferholzstrasse 136,47.5647294,7.6200521,4058
1449,Sommergasse 14,47.5634006,7.5752108,4056
1450,"Glaserbergstrasse 14, 16",47.5674126,7.5697674,4056
1452,Largitzenstrasse 39,47.5669518,7.568382,4056
1454,Palmenstrasse 25,47.5563104,7.573705599999999,4055
1455,Kirschblütenweg 18,47.5357771,7.588415800000001,4059
1456,Leuengasse 6,47.5660217,7.5875168,4057
1458,Aeschenvorstadt 15,47.55316639999999,7.593014999999999,4051
1459,Hirzbodenweg 107,47.5476697,7.606196199999999,4052
1460,St. Johanns-Rheinweg,47.564452,7.5841995,
1462,"Kastelstrasse 10, 12",47.5458042,7.574589400000001,4054
1463,Strassburgerallee 131,47.5601478,7.567942599999999,4055
1465,Hirzbrunnenschanze 4,47.5669116,7.615439100000001,4058
1466,Sempacherstrasse 23,47.5441447,7.588348899999999,4053
1467,Jurastrasse 20,47.5428098,7.591866899999999,4053
1468,Efringerstrasse 77,47.5696507,7.596056300000001,4057
1469,St. Johanns-Vorstadt 80,47.5652804,7.583358,4056
1470,Hammerstrasse 106,47.565348,7.595700900000001,4057
1471,Rosengartenweg 9,47.5594385,7.6031087,4058
1472,Neubadstrasse 125,47.54726120000001,7.5665964,4054
1473,Inselstrasse 76,47.5767332,7.590977499999999,4057
1474,Weidengasse 45,47.5539722,7.607690700000001,4052
1477,Kleinriehenstrasse 5,47.56584609999999,7.612286199999999,4058
1479,Lerchenstrasse 109,47.5363803,7.5881586,4059
1480,Dornacherstrasse 307,47.5397536,7.600964899999999,4053
1482,Rheinweilerweg 26,47.572199,7.596271999999999,4057
1483,Holbeinstrasse 65,47.5516173,7.583706200000001,4051
1486,Horburgstrasse 70,47.570431,7.5945597,4057
1487,Güterstrasse 271,47.541645,7.599018199999999,4053
1488,"Socinstrasse 17, 19",47.5573463,7.579534700000001,4051
1489,Paracelsusstrasse 43,47.5654506,7.6121255,4058
1490,Horburgstrasse 91,47.5715984,7.5961077,4057
1491,"Bruderholzrain 26, 28",47.53768549999999,7.5940258,4059
1492,Auf dem Wolf 4,47.5402745,7.613849999999999,4052
1495,Mittlere Strasse 111,47.5635205,7.5757507,4056
1496,Güterstrasse 237,47.5423498,7.5965631,4053
1497,Güterstrasse 239,47.5423227,7.596655999999999,4053
1498,Zürcherstrasse 91,47.55465179999999,7.6108951,4052
1499,Hagenaustrasse,47.5744113,7.568116899999999,4056
1500,Wettsteinallee 80,47.56082259999999,7.603327699999999,4058
1503,Faidostrasse 12,47.5333514,7.586363800000001,4059
1505,Rixheimerstrasse 10,47.56082,7.5690801,4055
1507,Delsbergerallee 44,47.5408705,7.5997464,4053
1509,"Leimgrubenweg 4, 6",47.5370247,7.607320700000001,4053
1511,Peter Ochs-Strasse 11,47.5315775,7.5949111,4059
1512,Vogesenstrasse 35,47.56632399999999,7.5778308,4056
1514,Spalentorweg 23,47.5563205,7.5799438,4051
1516,Walkeweg 1,47.5373396,7.608511199999999,4053
1517,Angensteinerstrasse 14,47.5490054,7.6036356,4052
1518,Rheinsprung 17,47.5582775,7.590020099999999,4051
1519,Feldbergstrasse 115,47.567165,7.5955069,4057
1520,Wanderstrasse 83,47.5519944,7.564309399999999,4054
1521,Saint-Louis-Strasse,47.5716565,7.572201799999999,4056
1523,Hirzbrunnenschanze 3,47.5670453,7.615268599999999,4058
1525,"Blotzheimerstrasse 28, 28A, 30, 32",47.5620117,7.565861,4055
1526,Engelgasse 113,47.5474821,7.6052791,4052
1527,Fabrikstrasse,47.5737013,7.5791551,4056
1528,"Hirzbrunnenallee 7, 9, 11",47.5681798,7.613731399999999,4058
1529,Unterer Batterieweg 113,47.53879999999999,7.5858727,4059
1531,Erlenstrasse 18,47.5680626,7.599337199999999,4058
1532,Heinrichsgasse 21,47.556253,7.5761837,4055
1533,Thannerstrasse 12,47.5546891,7.575382599999999,4054
1534,Thannerstrasse 5,47.554464,7.575541399999999,4054
1535,Arabienstrasse 3,47.5323511,7.587981199999999,4059
1537,Wettsteinallee 7,47.5597127,7.5990708,4058
1538,Speiserstrasse 91,47.5469959,7.6118131,4052
1539,"Bruderholzstrasse 14,16",47.5439892,7.594721600000001,4053
1540,"Heuberg 19, 21",47.5561142,7.586745699999999,4051
1541,Dammerkirchstrasse 18,47.5677297,7.567695199999998,4056
1543,Beim Wasserturm 23,47.5269571,7.593105,4059
1545,Brantgasse 12,47.5644211,7.597400500000001,4057
1546,Dornacherstrasse 185,47.5419223,7.5934936,4053
1547,Erlenstrasse 56,47.56870319999999,7.601674699999999,4058
1548,Wanderstrasse 65,47.5522176,7.5658775,4054
1549,Breisacherstrasse 37,47.5651228,7.5891758,4057
1550,Müllhauserstrasse 88,47.5678164,7.578146599999999,4056
1551,Wasgenring 98,47.5596031,7.564314,4055
1552,Wasgenring 100,47.5594052,7.564326800000001,4055
1554,Zürcherstrasse 149,47.55631700000001,7.614278399999999,4052
1555,Im Sesselacker 39,47.53646149999999,7.5999843,4059
1556,Güterstrasse 136,47.5447701,7.5890255,4053
1557,"Thiersteinerrain 85, 95",47.5370166,7.5965075,4059
1558,Im Sesselacker 73,47.5362415,7.6010117,4059
1561,Spalenring 18,47.5608515,7.5738703,4055
1562,Im Wasenboden 49,47.5706947,7.5703071,4056
1563,Engelgasse 77,47.548934,7.602560400000001,4052
1565,Hebelstrasse 125,47.5639692,7.576535799999999,4056
1566,Predigerhofstrasse 47,47.5253926,7.589980499999999,4059
1570,Schaffhauserrheinweg 101,47.5575296,7.6042741,4058
1571,Gundeldingerrain 53,47.5373922,7.591381999999999,4059
1572,"Horburgstrasse 22, 24, 26, 28",47.5705652,7.5917378,4057
1573,Fatiostrasse 18,47.5670402,7.579350499999999,4056
1574,Lothringerstrasse 17,47.5663764,7.579159799999999,4056
1575,Weiherhofstrasse 170,47.5467131,7.5576154,4054
1576,Zürcherstrasse 69,47.5543018,7.6098573,4052
1578,Freie Strasse 8,47.5573469,7.5885646,4001
1580,In den Schorenmatten 9,47.5703477,7.6090715,4058
1581,Marschalkenstrasse 57,47.549025,7.5731873,4054
1582,Sommergasse 9,47.5630805,7.575125000000001,4056
1585,Kasernenstrasse 36,47.56286189999999,7.5918269,4058
1587,Lautengartenstrasse,47.5531486,7.5961905,4052
1588,Greifengasse 6,47.5608387,7.591528800000001,4058
1592,Haltingerstrasse 76,47.5660764,7.595695699999999,4057
1593,Gempenstrasse 62,47.5434095,7.5858243,4053
1594,"Gotthardstrasse 124, 126",47.5512597,7.561677299999999,4054
1595,Im Heimatland 18,47.5644296,7.615298,4058
1596,"Lehenmattstrasse 106, 108",47.5520868,7.6175288,4052
1597,Rheingasse 23,47.560191,7.592334799999999,4058
1598,Markgräflerstrasse 44,47.5699111,7.593216000000001,4057
1599,Holeestrasse 73,47.5449991,7.5707884,4054
1600,Bündnerstrasse 71,47.5588825,7.5653088,4055
1602,Drahtzugstrasse 32,47.5633632,7.596147399999999,4057
1604,Westquaistrasse 62,47.5873998,7.5894513,4057
1606,St. Alban-Ring 186,47.5492476,7.609628499999999,4052
1608,Hardrain 22,47.5455578,7.6171881,4052
1609,General Guisan-Strasse 61,47.5502286,7.567134800000001,4054
1610,Riehenstrasse 129,47.56438259999999,7.604415,4058
1612,St. Johanns-Vorstadt 24,47.5632643,7.5848609,4056
1613,Rebgasse 37,47.5598665,7.5956881,4058
1615,"Peter Ochs-Strasse 35, 35A",47.5305438,7.5944698,4059
1616,Grellingerstrasse 48,47.54951620000001,7.6061161,4052
1618,Angensteinerstrasse 16,47.5490673,7.603716500000001,4052
1619,Schützenmattstrasse 10,47.5571367,7.5822778,4051
1620,Bristenweg 22,47.5496709,7.5671335,4054
1621,Stadthausgasse 11,47.55853339999999,7.5868587,4051
1623,Dornacherstrasse 41,47.5449919,7.585635799999999,4053
1625,Sperrstrasse 97,47.5659673,7.596632899999999,4057
1629,Hans Huber-Strasse 21,47.5452214,7.5805919,4053
1631,Angensteinerstrasse 42,47.5498304,7.604688599999999,4052
1632,Sissacherstrasse 29,47.5463721,7.608477499999999,4052
1633,Salinenstrasse 16,47.5468924,7.608850500000001,4052
1634,Waldenburgerstrasse 10,47.5552297,7.608744299999999,4052
1635,Turnerstrasse 12,47.5613311,7.5998613,4058
1636,Vogesenstrasse 100,47.56823139999999,7.576209899999999,4056
1637,St. Alban-Ring 257,47.5464357,7.6074942,4052
1638,Mittlere Strasse 10,47.5607208,7.579400400000001,4056
1639,Blauenstrasse 52,47.5544134,7.5727115,4054
1640,Jacob Burckhardt-Strasse 33,47.547708,7.6012102,4052
1641,Neubadstrasse 112,47.54771969999999,7.5667967,4054
1642,Bruderholzallee 22,47.5347803,7.5872841,4059
1643,Krachenrain 9,47.5362053,7.5911661,4059
1645,"Palmenstrasse 7, 9",47.55685769999999,7.5743784,4055
1646,Mülhauserstrasse 158,47.5658783,7.5744943,4056
1647,Lehenmattstrasse,47.5482233,7.6211387,4052
1648,Flughafenstrasse 58,47.5683474,7.570301300000001,4056
1649,Kembserweg 14,47.5611417,7.5718248,4055
1650,Morgartenring 163,47.5509853,7.5660075,4054
1651,Im langen Loh 147B,47.5511522,7.561265199999999,4054
1654,Wettsteinallee 76,47.560814,7.603101799999998,4058
1656,Römergasse 26,47.5583092,7.599892000000001,4058
1657,Im Wasenboden 51,47.5707397,7.570295199999999,4056
1658,Drosselstrasse 45,47.53740570000001,7.5878891,4059
1659,"Martinsgasse 6, 8",47.5582429,7.588957100000001,4051
1661,Im langen Loh 218,47.54808680000001,7.559863399999998,4054
1662,Passwangstrasse 46,47.5351086,7.5936116,4059
1663,Passwangstrasse 52,47.5349163,7.593327200000001,4059
1665,Claragraben 8,47.5596973,7.5976773,4058
1666,Kilchgrundstrasse 28,47.5765842,7.640445,4125
1668,Kanonengasse 35,47.5529327,7.584903499999999,4051
1669,Paradieshofstrasse 71A,47.5493551,7.559720199999999,4054
1674,Hirzbodenweg 40,47.5501314,7.6080107,4052
1675,"Münsterplatz 1, 2",47.5571876,7.5912393,4051
1676,Hardstrasse 120,47.5482958,7.608575999999999,4052
1678,Neuhausstrasse 40,47.5823189,7.595870499999999,4057
1679,"Gellertstrasse 37, 37A",47.5518868,7.613011299999999,4052
1682,Haltingerstrasse 97,47.5666631,7.5970053,4057
1683,Glaserbergstrasse 48,47.5664159,7.5683431,4056
1685,Bartenheimerstrasse 8,47.5604504,7.5707203,4055
1687,Frobenstrasse 47,47.5441742,7.5855653,4053
1688,Marignanostrasse 90,47.5326087,7.584141199999999,4059
1689,Bruderholzstrasse 74,47.5420576,7.5931486,4053
1690,Landskronstrasse 87,47.567205,7.5748314,4056
1691,Largitzenstrasse 80,47.5661612,7.5667971,4056
1692,Schweizergasse 38,47.5500012,7.577230399999999,4054
1693,Sommergasse 2,47.563084,7.575523,4056
1695,Sierenzerstrasse 81,47.5576742,7.5681891,4055
1696,Petersplatz 17,47.559553,7.5841776,4051
1698,Lenzgasse 3,47.5677706,7.5713098,4056
1700,Haltingerstrasse 18,47.5654794,7.592817199999999,4057
1702,Wielandplatz 8,47.5527698,7.5706748,4054
1703,Schäferweg 61,47.5847755,7.594814299999999,4057
1704,Bläsiring 124,47.5685076,7.5936106,4057
1706,Pruntruterstrasse 21,47.5455623,7.581137000000001,4053
1707,Sperrstrasse 96,47.56568859999999,7.596565699999999,4057
1708,Sperrstrasse 98,47.56572449999999,7.596658799999999,4057
1711,Spalenring 1,47.5615016,7.574351200000001,4055
1712,Rixheimerstrasse 9,47.5605868,7.569391899999999,4055
1714,Gotthardstrasse 26,47.5479838,7.5637553,4054
1715,Rudolfstrasse 42,47.5541493,7.574963100000001,4054
1717,Peter Rot-Strasse 104,47.5623323,7.604249199999999,4058
1718,Peter Rot-Strasse 108,47.5626469,7.6043697,4058
1719,Kohlenberg,47.5545092,7.5876381,4051
1722,Riehenstrasse 324,47.569896,7.616445700000001,4058
1723,Markircherstrasse 19,47.5657291,7.5631325,4055
1724,Wanderstrasse 27,47.5524934,7.568575099999999,4054
1726,Walkeweg 36,47.5384785,7.6120378,4053
1727,Steinenring 12,47.552339,7.5776749,4051
1728,Spalenring 144,47.5549946,7.575609200000001,4055
1729,Kannenfeldstrasse 18,47.5627039,7.5740386,4056
1730,Wasserstrasse 11,47.5698023,7.5797403,4056
1731,Lothringerstrasse  11,47.5661603,7.5793586,4056
1732,Nonnenweg 35,47.5581961,7.5758433,4055
1733,"Frobenstrasse 70, 72",47.54358,7.5842536,4053
1734,Jurastrasse 7,47.5430895,7.592539599999999,4053
1735,"Liesbergerstrasse 23,",47.5411873,7.596303899999999,4053
1736,"Gellertstrasse 2, 2",47.55241059999999,7.6053476,4052
1737,Sperrstrasse 77,47.565583,7.5952561,4057
1738,"Sperrstrasse 69, 71",47.5654799,7.594980800000001,4057
1739,Hagenbachstrasse 10,47.5477054,7.600046,4052
1741,Drahtzugstrasse 55,47.5639293,7.597124699999999,4057
1743,Oberer Rheinweg 25,47.5597855,7.5920023,4058
1747,Neuweilerstrasse 6,47.5468719,7.5639698,4054
1749,Friedrichstrasse 11,47.5564335,7.574356000000001,4055
1750,Bättwilerstrasse 12,47.5495697,7.5725457,4054
1751,Florastrasse 18,47.5647066,7.5902562,4057
1752,Holeestrasse 9,47.5442755,7.574373,4054
1753,Sierenzerstrasse 2,47.5608107,7.570269400000001,4055
1754,Im Holeeletten 32,47.5464162,7.5662224,4054
1755,Gärtnerstrasse 46,47.5759728,7.5913704,4057
1757,Riehenring 187,47.5703642,7.597403399999999,4058
1764,Asconastrasse 3,47.5255857,7.591241099999999,4059
1765,Ackerstrasse 33,47.57832459999999,7.5899175,4057
1766,Giornicostrasse 222,47.5269115,7.5935297,4059
1769,Nufenenstrasse 30,47.55003500000001,7.5631225,4054
1770,Brunnmattstrasse 10,47.54034739999999,7.590174699999999,4053
1771,Marignanostrasse 4,47.53590579999999,7.586291199999999,4059
1772,Sulzerstrasse 26,47.5538481,7.5715808,4054
1775,"Gundeldingerrain 5, 7",47.5386361,7.5960474,4053
1776,Claragraben 125,47.5643629,7.592588599999999,4057
1777,Rennweg 51,47.5509103,7.607418300000001,4052
1778,Rufacherstrasse 60,47.5594122,7.5693326,4055
1780,Mittlere Strasse 157,47.5649703,7.574146499999999,4056
1782,Schönaustrasse 87,47.5689514,7.604402599999999,4058
1783,Im langen Loh 155,47.5508016,7.5611449,4054
1784,Landskronstrasse 73,47.5674924,7.5753514,4056
1786,Oberwilerstrasse 108,47.5467565,7.5754553,4054
1789,Streitgasse 4,47.55534489999999,7.5904901,4051
1790,Freie Strasse 43,47.5564606,7.590094700000001,4001
1791,Hirzbrunnenstrasse 21,47.5678135,7.614197099999998,4058
1792,Homburgerstrasse 46,47.5546842,7.612728199999999,4052
1793,Wanderstrasse 9,47.55268040000001,7.570179999999999,4054
1795,"Spalenring 78, 80",47.5583414,7.574608,4055
1796,Maulbeerstrasse 36,47.5670492,7.6012872,4058
1797,Kandererstrasse 34,47.5656487,7.590869700000001,4057
1798,Erlenstrasse 58,47.568739,7.601809100000001,4058
1800,Stöberstrasse 13,47.5590546,7.5723113,4055
1801,Paradieshofstrasse 147,47.5468286,7.559023699999999,4054
1802,Predigerhofstrasse 69,47.5242623,7.5905345,4059
1804,Gotthardstrasse 48,47.5486499,7.5631857,4054
1807,Tüllingerstrasse 54,47.5681226,7.6175427,4058
1808,Andreas Heusler-Strasse 4,47.5477997,7.6033008,4052
1809,Steinenvorstadt 48,47.5523083,7.587970599999999,4051
1810,Holeestrasse 1,47.5441539,7.5751084,4054
1811,Badenstrasse,47.5802858,7.596939,4057
1812,Maulbeerstrasse 12,47.566618,7.5997668,4058
1813,Birsstrasse 70,47.5521459,7.6199602,4052
1815,Hirzbrunnenallee 55,47.5670588,7.6132469,4058
1816,Hagentalerstrasse 53,47.56212379999999,7.570286,4055
1821,Allschwilerstrasse 11,47.5557063,7.574587999999999,4055
1822,Burgfelderstrasse 185,47.5663122,7.5644759,4055
1823,Alemannengasse 11,47.5581515,7.5991122,4058
1824,Paracelsusstrasse 28,47.5649084,7.613851199999999,4058
1825,Rheinländerstrasse 18,47.5635272,7.5776508,4056
1826,Neuhausstrasse 18,47.5824292,7.594036500000001,4057
1827,Leimgrubenweg 10,47.5369955,7.6067593,4053
1828,Steinbühlallee 83,47.5499143,7.558140599999999,4054
1829,Oberalpstrasse 45,47.5491615,7.5641566,4054
1831,Morgartenring 155,47.5512911,7.5659551,4054
1832,Schützenmattstrasse 75,47.5538129,7.5785555,4051
1833,Rosengartenweg 5,47.559285,7.603097099999999,4058
1834,Oltingerstrasse 63,47.5651119,7.560235899999999,4055
1835,Neuensteinerstrasse 31,47.5401547,7.601738500000001,4053
1838,Bruderholzallee 4,47.535527,7.587113599999999,4059
1839,Im Holeeletten 17,47.5467484,7.566767799999999,4054
1840,Thiersteinerallee 89,47.5395233,7.596827599999999,4053
1842,Largitzenstrasse 50,47.5668312,7.5677295,4056
1843,Eichenstrasse 62,47.5546231,7.5695785,4054
1844,Margarethenstrasse 101,47.5442303,7.5820371,4053
1845,Lerchenstrasse 115,47.5361465,7.587965299999999,4059
1846,Sommergasse 13,47.5633057,7.574833300000001,4056
1850,Therwilerstrasse 35,47.5496304,7.5766749,4054
1852,Gundeldingerstrasse 208,47.5404827,7.5911754,4053
1853,Peter Ochs-Strasse 45,47.5297438,7.594109,4059
1855,Zur Gempenfluh 66,47.529015,7.6009323,4059
1856,Gellertstrasse 48,47.55138729999999,7.6101668,4052
1860,Nadelberg 13,47.5583164,7.5857036,4051
1861,Wasserstrasse 12,47.5695782,7.580017700000001,4056
1862,Gundeldingerrain 107,47.5347914,7.5916861,4059
1864,Lerchenstrasse 105,47.5364789,7.588258400000001,4059
1865,Kirschblütenweg,47.53611,7.58877,4059
1868,Morgartenring 4,47.5568866,7.5646929,4054
1870,St. Galler-Ring 144,47.553934,7.567090599999999,4054
1871,Burgfelderstrasse 1,47.5618862,7.5735541,4055
1873,Hebelplatz 1,47.5648778,7.5764053,4056
1875,Hebelstrasse 107,47.5632128,7.5773311,4056
1878,Im Sesselacker 37,47.5365286,7.599700099999999,4059
1879,Laufenstrasse 61,47.5398652,7.5982691,4053
1881,Scherkesselweg 33,47.5452976,7.616775499999999,4052
1882,"Petersgasse 36, 38",47.5604393,7.586093,4051
1883,Röschenzerstrasse 2,47.5415261,7.587935,4053
1884,Rümmingerstrasse 16,47.5656992,7.620165699999999,4058
1887,Hirzbrunnenstrasse 26,47.5674485,7.613992099999999,4058
1888,St. Galler-Ring 222,47.5497503,7.5686082,4054
1889,Arlesheimerstrasse 9,47.53915199999999,7.6002193,4053
1895,Austrasse 41,47.5532326,7.5823934,4051
1896,Riehenstrasse 183,47.56575489999999,7.607050300000001,4058
1897,Angensteinerstrasse 5,47.549059,7.603171799999998,4052
1899,Hirzbodenweg 104,47.5481013,7.606237500000001,4052
1901,Rudolfstrasse 27,47.5546534,7.575156599999999,4054
1903,Hagentalerstrasse 39,47.5618443,7.5708965,4055
1904,St. Alban-Vorstadt 102,47.5534796,7.6016942,4052
1905,Seltisbergerstrasse 102,47.5270614,7.595774299999999,4059
1906,Weiherhofstrasse 58,47.5496171,7.558538500000001,4054
1910,Mülhauserstrasse 141,47.56590449999999,7.5751987,4056
1911,Eichenstrasse 53,47.5544348,7.569708999999999,4054
1913,Arlesheimerstrasse 17,47.5389889,7.600656700000001,4053
1915,Gempenstrasse 72,47.5430668,7.5854911,4053
1917,Vogesenstrasse 120,47.56895309999999,7.5754058,4056
1919,"Dorfstrasse 50, 52",47.5843992,7.5928985,4057
1921,"Nonnenweg 64, 64 A-D",47.5592757,7.5755006,4055
1922,Thannerstrasse 51,47.55477399999999,7.571968399999999,4054
1923,Sulzerstrasse 10,47.5545115,7.5720953,4054
1924,Im Spitzacker 17,47.5278402,7.5984722,4059
1928,"Rheingasse 31, 33",47.5599649,7.5926424,4058
1929,Im Wasenboden 29,47.5701458,7.5706247,4056
1930,Lenzgasse 17,47.5682925,7.571098500000001,4056
1932,Giornicostrasse 132,47.52766070000001,7.5985266,4059
1933,Giornicostrasse 136,47.5274442,7.5983288,4059
1935,Wiesenschanzweg 2,47.5713677,7.595218399999999,4057
1936,Davidsbodenstrasse 29,47.5656778,7.5767395,4056
1938,Hardstrasse 123,47.548863,7.6081793,4052
1941,Alemannengasse 111,47.5583202,7.605415799999999,4058
1942,Neubadstrasse 86,47.5485366,7.5681802,4054
1944,Lothringerstrasse 9,47.566081,7.5794614,4056
1946,Lange Gasse 37,47.5513929,7.600003999999999,4052
1947,Seltisbergerstrasse 7,47.5295548,7.600787899999999,4059
1948,Brunnmattstrasse 8,47.5403994,7.5902138,4053
1949,"Bruderholzstrasse 165, 167",47.5420797,7.5933809,4053
1951,Frobenstrasse 55,47.5439677,7.5854518,4053
1953,"Marschalkenstrasse 50,",47.549246,7.5729132,4054
1954,Eulerstrasse 68,47.5571089,7.5782057,4051
1955,Sennheimerstrasse 34,47.5540111,7.570531699999999,4054
1957,Kohlenstrasse,47.575619,7.575291699999999,4056
1960,Sängergasse 24,47.5553955,7.571093100000001,4054
1961,Klingnaustrasse 15,47.5609085,7.5998069,4058
1962,Falkensteinerstrasse 60,47.5383151,7.600615299999999,4053
1964,Lothringerstrasse 139,47.5714788,7.5742816,4056
1966,Utengasse 28,47.5601804,7.592842300000001,4058
1967,Reiterstrasse 31,47.5483972,7.565579400000001,4054
1968,Güterstrasse 269,47.5416721,7.5988855,4053
1969,Passwangstrasse 48,47.5350601,7.593394,4059
1970,Hammerstrasse 13,47.5601648,7.597785000000001,4058
1972,Baldeggerstrasse 32,47.5538581,7.616000599999999,4052
1973,Thumringerstrasse 14,47.5674208,7.617686600000001,4058
1975,Lenzgasse 24,47.5684629,7.5714976,4056
1976,Lange Gasse 39,47.5514796,7.6001249,4052
1978,Beckenstrasse 11,47.57196649999999,7.574908499999998,4056
1979,Sommergasse 26,47.5637644,7.574794599999999,4056
1982,St. Johanns-Parkweg 7,47.569781,7.582438000000001,4056
1984,Birsstrasse 106,47.5512536,7.6212457,4052
1985,Rütimeyerstrasse 22,47.54983259999999,7.575224,4054
1986,Reservoirstrasse 174,47.5284602,7.5949732,4059
1987,Engelgasse 107,47.5476354,7.605000599999999,4052
1990,Leonhardsstapfelberg 2,47.5556716,7.5882059,4051
1992,Neuweilerstrasse 83,47.5459294,7.5587959,4054
1994,Feldbergstrasse 41,47.5662993,7.5904415,4057
1997,Eulerstrasse 64,47.5565289,7.578655599999998,4051
1998,Oscar Frey-Str. 11,47.5312001,7.5877921,4059
2001,Luftmattstrasse 10,47.548179,7.602226000000001,4052
2002,In den Schorenmatten 2,47.5699985,7.6092254,4058
2006,Bleichestrasse,47.56619209999999,7.601852000000001,4058
2007,Im Rheinacker 15,47.5635413,7.6254867,4058
2009,Bäumlihofstrasse 133,47.5655411,7.6177201,4058
2010,"Mülhauserstrasse 49, 51",47.568569,7.580720400000001,4056
2012,Im Heimatland 78,47.5649854,7.616442600000001,4058
2014,Wanderstrasse 67,47.5521676,7.565322699999999,4054
2015,Tüllingerstrasse 58,47.5681764,7.6176492,4058
2016,Rixheimerstrasse 19,47.5603486,7.569086599999999,4055
2017,Güterstrasse 134,47.5448153,7.5888927,4053
2021,Pfirtergasse 5,47.5497198,7.5793419,4054
2022,Solothurnerstrasse 29,47.5447847,7.591141,4053
2023,Engelgasse 111,47.5475182,7.605212799999999,4052
2024,Hirzbodenweg 122,47.5475018,7.605699899999999,4052
2025,Morgartenring 6,47.5568326,7.5647061,4054
2026,Rudolfstrasse 9,47.5553633,7.5751556,4054
2027,Riehenstrasse 394,47.57040929999999,7.6218429,4058
2028,Röschenzerstrasse 21,47.5404279,7.587685,4053
2031,"Itelpfad 10, 12, 14, 16",47.5625451,7.6063493,4058
2032,Engelgasse 109,47.5475723,7.605119999999999,4052
2034,Klingentalgraben 15,47.5636835,7.589371000000001,4057
2038,Weiherhofstrasse 46,47.54989579999999,7.5586454,4054
2039,Aeschenvorstadt 56,47.5517517,7.594040199999999,4051
2040,Hebelstrasse 130,47.5643559,7.5765634,4056
2041,Riehenring 28,47.5619697,7.601126600000001,4058
2043,Gellertstrasse 120,47.5494899,7.616005699999999,4052
2044,Birsigstrasse 102,47.5501751,7.579328400000001,4054
2045,Solothurnerstrasse 59,47.5433599,7.589873000000001,4053
2047,Arlesheimerstrasse 50,47.5383045,7.601704299999999,4053
2050,Grenzacherstrasse 97,47.558884,7.6035296,4058
2051,Kleinhüningerstrasse 167,47.57955519999999,7.5905852,4057
2052,Maulbeerstrasse 89,47.56819609999999,7.6043072,4058
2053,Kannenfeldstrasse 32,47.563337,7.5738694,4056
2054,Paradieshofstrasse 123,47.5475569,7.5591582,4054
2055,Strassburgerallee 114,47.5608134,7.567864500000001,4055
2057,Eichhornstrasse,47.534862,7.6001032,4059
2058,Beuggenstrasse 55,47.5525775,7.581289000000001,4051
2059,Stöberstrasse 38,47.5587048,7.5714733,4055
2060,Benkenstrasse 77,47.5477107,7.5754023,4054
2061,Neuensteinerstrasse 27,47.5402476,7.601520400000001,4053
2062,Amerbachstrasse 86,47.5692242,7.5957389,4057
2064,Nonnenweg 56,47.558967,7.5757146,4055
2065,Neuweilerstrasse 78,47.5464293,7.560617199999999,4054
2066,Jakobsbergerholzweg 6,47.5341366,7.6044008,4053
2068,Güterstrasse 151,47.5445887,7.5902735,4053
2069,"Güterstrasse 149,",47.5446501,7.590196600000001,4053
2070,Güterstrasse 147,47.5446609,7.5900612,4053
2071,Schwarzwaldallee 269,47.5695422,7.6043509,4058
2072,Andlauerstrasse 6,47.56878469999999,7.5880565,4057
2074,"Im Lohnhof 5, 6, 7",47.554673,7.588468799999998,4051
2075,"Burgfelderstrasse 24, 26",47.5630657,7.5723744,4055
2076,Peter Ochs-Strasse 33A,47.5308491,7.594816000000001,4059
2077,"Hirzbodenweg 48, 50",47.5497628,7.6079032,4052
2078,Maulbeerstrasse 1,47.5667822,7.5992532,4058
2079,Ramsteinerstrasse 23,47.5551811,7.611215199999999,4052
2080,Klybeckstrasse 50,47.56520039999999,7.591516199999999,4057
2081,Haltingerstrasse 2,47.56523199999999,7.5916496,4057
2083,Sommergasse 30,47.5638928,7.574670200000001,4056
2086,Brunnmattstrasse 15,47.54005739999999,7.5904563,4053
2087,Rosentalstrasse 68,47.5659714,7.606585900000001,4058
2089,Sustenstrasse 19,47.5453255,7.560069699999999,4054
2090,Gundeldingerstrasse 432,47.5378842,7.600003,4053
2091,In den Schorenmatten 25,47.5707445,7.6092177,4058
2092,Biascastrasse 32,47.527265,7.5914991,4059
2093,Klingentalstrasse 85,47.5650304,7.5977729,4057
2094,Sperrstrasse 12,47.56447989999999,7.592509300000001,4057
2095,Kembserweg 20,47.5612679,7.5715727,4055
2096,Kembserweg 22,47.561295,7.571479799999999,4055
2097,"Schlossgasse 3,",47.5770586,7.588225899999999,4057
2098,Schlossgasse 5,47.5770225,7.588372000000001,4057
2099,St. Johanns-Ring 14,47.5660513,7.5802353,4056
2101,Im Holeeletten 27,47.5464068,7.566607599999999,4054
2102,Im Wasenboden 42,47.57062519999999,7.570673299999998,4056
2103,St. Alban-Ring 172,47.54967,7.6098424,4052
2104,Herbstgasse 10,47.5645191,7.575474199999999,4056
2106,Hüningerstrasse,47.5734253,7.577404899999999,4056
2107,Thannerstrasse 57,47.555013,7.5713584,4054
2110,Froburgstrasse 21,47.5555216,7.6120666,4052
2113,Inselstrasse 44,47.5773291,7.588813200000001,4057
2114,Benkenstrasse 17,47.5492522,7.5722475,4054
2115,Rufacherstrasse 16,47.5580381,7.572494700000001,4055
2116,Rheinhafen St. Johann 1,47.5700313,7.573843500000001,4056
2117,Hüningerstrasse 166 C,47.5750602,7.582505299999999,4056
2118,Grellingerstrasse 40,47.5499897,7.606429400000001,4052
2119,Riehentorstrasse 14,47.5591499,7.5959236,4058
2121,Birkenstrasse 35,47.5567874,7.5732704,4055
2122,Rheinhafen St. Johann 7A,47.5700313,7.573843500000001,4056
2123,"Rheinhafen St. Johann 7, 12, 14",47.5700313,7.573843500000001,4056
2124,"Rheinhafen St. Johann 9, 2, 3, 6",47.5733407,7.586811,
2125,Voltastrasse 10,47.5706992,7.581753199999999,4056
2126,Voltastrasse 8A,47.5706992,7.581753199999999,4056
2128,Elsässerstrasse 257,47.5765205,7.5721689,4056
2129,Lichtstrasse 5,47.5720176,7.577354,4056
2130,Elsässerstrasse 255,47.5764125,7.5722483,4056
2131,Thannerstrasse 9,47.5544284,7.575249099999999,4054
2132,Riehenstrasse 12,47.5601024,7.5973995,4058
2133,"Bachlettenstrasse 19, 21",47.5495972,7.580052399999999,4054
2134,Allschwilerstrasse 90,47.5574853,7.5682417,4055
2140,General Guisan-Strasse 151,47.5486692,7.562029999999999,4054
2141,Bruderholzstrasse 39,47.5435597,7.594887200000001,4053
2142,Röschenzerstrasse 17,47.5407203,7.587811299999999,4053
2143,Hegenheimerstrasse 171,47.56338849999999,7.565226500000001,4055
2145,Spalenberg 56,47.5568957,7.584849999999999,4051
2146,Sierenzerstrasse 1,47.5607295,7.5704818,4055
2148,Güterstrasse 186,47.5432903,7.5927803,4053
2149,Bergalingerstrasse 17,47.5601469,7.610407500000001,4058
2150,Hammerstrasse 16,47.56017079999999,7.598192900000001,4058
2151,Weiherweg 62,47.553587,7.574663999999999,4054
2152,St. Alban-Vorstadt 74,47.5540239,7.5991843,4052
2153,Bannwartweg 30,47.5595077,7.601700300000001,4058
2156,Steinenvorstadt 67,47.5520831,7.5882622,4051
2157,Theaterstrasse 4,47.5536642,7.589648299999999,4051
2159,Glaserbergstrasse 67,47.56552629999999,7.56765,4056
2162,Holeestrasse 3,47.544194,7.5748377,4054
2163,Matthäusstrasse 11,47.5671679,7.5917777,4057
2164,Markircherstrasse 62,47.5648494,7.561640400000001,4055
2165,Horburgerstrasse 112,47.5716567,7.5969675,4057
2167,Claragraben 115,47.5637059,7.592932200000001,4057
2168,Laufenstrasse 13,47.5420935,7.599856299999999,4053
2170,"Entenweidstrasse 84, 84A, 84B, 86, 88",47.5694814,7.573680700000001,4056
2171,Sternenbergerstrasse 12,47.5380427,7.5978862,4053
2172,Güterstrasse 281,47.5414372,7.599681700000001,4053
2173,Im tiefen Boden 26,47.5309474,7.590665100000001,4059
2174,St. Alban-Anlage 33,47.552643,7.599981199999999,4052
2175,Hochstrasse 73,47.544224,7.5966121,4053
2176,Hegenheimerstrasse 27,47.56031249999999,7.573390599999999,4055
2178,Türkheimerstrasse 44,47.55906179999999,7.5738259,4055
2180,In den Ziegelhöfe,47.5454211,7.5599484,4054
2181,Neuweilerstrasse,47.5462934,7.560992400000001,4054
2182,Bruderholzallee 100,47.5325015,7.589880699999999,4059
2184,Edisonstrasse 9,47.5465393,7.582818499999999,4053
2185,Starenstrasse 6,47.5388467,7.586286099999999,4059
2186,Amerbachstrasse 53,47.5694471,7.5938946,4057
2187,"Güterstrasse 211, 213",47.5428377,7.594917499999999,4053
2190,Gustav Wenk-Strasse 34,47.5698533,7.5666903,4056
2192,General Guisan-Strasse 188,47.5486986,7.559665499999999,4054
2195,Schönenbuchstrasse 10,47.557958,7.5712889,4055
2196,Rufacherstrasse 41,47.5585082,7.5703833,4055
2199,Strassburgerallee 109,47.56087549999999,7.5686353,4055
2202,Wielandplatz 5,47.55314689999999,7.571233700000001,4054
2204,Im Wasenboden 30,47.57032539999999,7.570837699999999,4056
2207,Birkenstrasse 42,47.5566952,7.572713599999999,4055
2208,St. Galler-Ring 42,47.5581253,7.5668881,4055
2209,Austrasse 33,47.5530613,7.582804800000001,4051
2211,Horburgstrasse 93,47.57164299999999,7.5962261,4057
2212,Pilgerstrasse 3,47.5595071,7.5776138,4055
2213,Wartenbergstrasse 5,47.5482243,7.6083335,4052
2215,Mittlere Strasse 59,47.5616046,7.5778622,4056
2216,Hammerstrasse 115,47.5664891,7.595165300000001,4057
2217,Färberstrasse 15,47.5765347,7.592660599999999,4057
2220,Gundeldingerstrasse 404,47.53827279999999,7.5986628,4053
2224,Blochmonterstrasse 8,47.5471712,7.5745796,4054
2225,Davidsrain 9,47.5652821,7.576751799999999,4056
2226,Schöllenenstrasse 4,47.5506805,7.5651034,4054
2227,Im langen Loh 247,47.5479695,7.5602218,4054
2228,Paradieshofstrasse 77,47.5492066,7.5596654,4054
2229,Thiersteinerallee 31,47.5419426,7.5984081,4053
2230,"Predigerhofstrasse 73, 73A, 73B",47.5242894,7.590454899999999,4059
2231,Colmarerstrasse 61,47.5594787,7.5710766,4055
2232,Hechtweg 29,47.5509344,7.6182556,4052
2236,Hegenheimerstrasse 46,47.5607913,7.5714785,4055
2237,Clarastrasse 46,47.5629181,7.598124299999998,4058
2239,Erlenstrasse 15,47.5686002,7.599256199999998,4058
2240,Schwarzwaldallee 39,47.5604246,7.611125899999999,4058
2241,Hauensteinstrasse 118,47.5339609,7.594891499999998,4059
2243,Riehenring 9,47.5613468,7.6015089,4058
2244,Steinenvorstadt 71,47.5519754,7.5880892,4051
2245,Bachlettenstrasse 82,47.5480315,7.577211999999999,4054
2246,Gundeldingerstrasse 194,47.54076620000001,7.590355700000001,4053
2249,Realpstrasse 12,47.5494536,7.568514500000001,4054
2250,Markgräflerstrasse 78,47.5699364,7.595660399999999,4057
2251,Arabienstrasse 50,47.5304152,7.589648999999999,4059
2253,Solothurnerstrasse 86,47.54216719999999,7.5884453,4053
2254,Pruntruterstrasse 10,47.5458497,7.580589700000001,4053
2255,Birmannsgasse 7,47.5580128,7.5786728,4055
2256,Eichhornstrasse 21,47.53549109999999,7.600580099999999,4059
2257,Steinengraben 75,47.5527051,7.5869681,4051
2260,General Guisan-Strasse 67,47.5501119,7.566908699999999,4054
2269,Riehenstrasse 23,47.5609021,7.5979599,4058
2276,Markircherstrasse 1,47.5665825,7.564038099999999,4055
2277,St. Galler-Ring 184,47.5520809,7.5674448,4054
2278,St. Jakobs-Strasse 151,47.5456237,7.6029753,4052
2279,Schöllenenstrasse 23,47.5510677,7.5646792,4054
2280,Sonnenweg 13,47.54947380000001,7.6086993,4052
2281,Riehenstrasse 60,47.5617807,7.5999158,4058
2284,Binzenstrasse 10,47.5669165,7.61815,4058
2289,Helvetiaplatz 32,47.55931349999999,7.5665475,4055
2290,Mülhauserstrasse 81,47.567717,7.5787115,4056
2291,Steinbühlallee 139,47.5482768,7.557518199999999,4054
2292,"Gellertstrasse 140, 142, 144, 146, 150, 156, 180, 182, 184",47.5488061,7.6161629,4052
2295,Wollbacherstrasse 41,47.5672919,7.619612999999999,4058
2296,Eggfluhstrasse 6,47.54529230000001,7.5739372,4054
2297,Benkenstrasse 20,47.54897450000001,7.571985600000001,4054
2298,Eggfluhstrasse 13,47.54498599999999,7.574374799999999,4054
2300,Wollbacherstrasse 33,47.5671843,7.6194266,4058
2301,Delsbergerallee 35,47.5407232,7.600347299999999,4053
2304,Breisacherstrasse 39,47.5652081,7.5891542,4057
2305,Steinbühlallee 87,47.5497975,7.558100499999999,4054
2306,Rütimeyerstrasse 45,47.5485272,7.5763498,4054
2307,Bündnerstrasse 74,47.5591029,7.5649431,4055
2308,Thiersteinerallee 66,47.5405059,7.596756800000001,4053
2312,Strassburgerallee 127,47.5602735,7.5680891,4055
2313,"St. Alban-Vorstadt 30, 32",47.55447359999999,7.5964395,4052
2314,Sandgrubenstrasse 65,47.5650301,7.605283399999999,4058
2315,Reservoirstrasse 178,47.5279438,7.59502,4059
2316,Fatiostrasse 16,47.5670775,7.579480599999999,4056
2317,Bärenfelserstrasse 33,47.56745060000001,7.5875106,4057
2318,Florastrasse 1,47.5645843,7.591179599999999,4057
2319,Bärschwilerstrasse 4,47.5423063,7.5955003,4053
2321,Clarastrasse 57,47.5634285,7.598525599999999,4058
2322,Riehenring 75,47.5640401,7.598514099999999,4058
2324,Bruderholzallee 41,47.534301,7.587756,4059
2325,"Julia Gauss-Strasse 11, 13",47.56748049999999,7.565369,4056
2327,Im Wasenboden 16,47.5699431,7.5710658,4056
2328,Röschenzerstrasse 16,47.5409331,7.5875143,4053
2329,Weiherhofstrasse 57,47.5497819,7.558966499999999,4054
2330,Oberwilerstrasse 90,47.54756520000001,7.5760817,4054
2331,Claragrabe,47.5626238,7.594120500000001,
2333,"Sevogelstrasse 100, 100A, 102, 104",47.5485291,7.599661299999999,4052
2334,Tellstrasse 25,47.5432405,7.596366499999999,4053
2335,Sperrstrasse 9,47.5646421,7.5922573,4057
2343,Neuensteinerstrasse 14,47.5402354,7.6006508,4053
2344,Rheingasse 44,47.5596324,7.5924421,4058
2346,Marignanostrasse 74,47.533219,7.584411299999999,4059
2347,Dachsfelderstrasse 23,47.5461997,7.582294799999999,4053
2348,"Markircherstrasse 5, 7",47.5663308,7.563931200000001,4055
2349,Güterstrasse 153,47.5445436,7.5903664,4053
2350,Schiffmühlestrasse,47.5764948,7.579280000000001,4056
2352,Riehenteichstrasse 56,47.5652658,7.603155399999999,4058
2353,Andlauerstrasse 10,47.5689286,7.588030400000001,4057
2355,Amerbachstrasse 109,47.5696178,7.5973481,4057
2356,Lothringerstrasse 110,47.5703737,7.575688500000001,4056
2357,Bechburgerstrasse 3,47.5535656,7.6149963,4052
2358,Elsässerstrasse 138,47.57251309999999,7.576664200000001,4056
2360,Steinbühlallee 3,47.55195519999999,7.558875800000001,4054
2361,Hirzbrunnenschanze 5,47.5670864,7.615331,4058
2362,Kohlenberggasse,47.55313410000001,7.588160299999998,4051
2364,"Grosspeterstrasse 21, 23, 25",47.5453479,7.600796,4052
2365,Winkelriedplatz 8,47.5428373,7.5883559,4053
2366,Klybeckstrasse 252,47.5764021,7.588184200000001,4057
2367,Socinstrasse 47,47.5563139,7.5779908,4051
2368,Oetlingerstrasse 73,47.56786289999999,7.5914293,4057
2370,Blauenstrasse 73,47.5536108,7.572538600000001,4054
2371,Maulbeerstrasse 2,47.5665033,7.5992922,4058
2374,Solothurnerstrasse 50,47.5437981,7.589607200000001,4053
2375,Bergalingerstrasse 16,47.5601193,7.610805999999999,4058
2376,St. Galler-Ring 27,47.5589939,7.567576,4055
2377,Tüllingerstrasse 36,47.5677548,7.6169036,4058
2381,Säntisstrasse 12,47.5520855,7.568265999999999,4054
2382,Pfeffelstrasse 16,47.5594782,7.571528399999999,4055
2383,Friedensgasse 34,47.5626184,7.578047100000001,4056
2384,Clarastrasse 55,47.5633838,7.5983527,4058
2386,St. Johanns-Ring 108,47.5631247,7.575776200000001,4056
2388,Arbedostrasse 5,47.5309228,7.586582899999999,4059
2389,Lerchenstrasse 56,47.537629,7.5891116,4059
2390,Kleinhüningerstrasse 93,47.5770861,7.589267299999999,4057
2391,Marignanostrasse 9,47.5356536,7.586582699999999,4059
2392,Bernerring 20,47.5469879,7.5738063,4054
2394,Bruderholzstrasse 90,47.5414109,7.592509199999999,4053
2399,Nonnenweg 33,47.55811509999999,7.5759095,4055
2402,Chrischonastrasse 52,47.55965620000001,7.603430599999999,4058
2404,Morgartenring 182,47.5499245,7.5655798,4054
2405,Holbeinstrasse 58,47.5518994,7.5835933,4051
2410,Paracelsusstrasse 34,47.5650617,7.6135593,4058
2415,Erlenstrasse 43,47.56864530000001,7.6006683,4058
2416,Thiersteinerrain 90,47.5371523,7.5958969,4059
2417,Sissacherstrasse 55,47.5463064,7.6098183,4052
2418,"Klybeckstrasse 118, 120",47.5678999,7.590685300000001,4057
2420,Fasanenstrasse 80,47.5726168,7.607218199999999,4058
2422,Feldbergstrasse 10,47.5654428,7.5879566,4057
2426,"Rittergasse 19, 19A",47.5557356,7.5942776,4051
2428,Eggfluhstrasse 16,47.5448339,7.573710299999999,4054
2429,Metzerstrasse 15,47.5640754,7.577984400000001,4056
2430,Kannenfeldstrasse 28,47.5631719,7.573889499999999,4056
2432,Im Wasenboden 39,47.57045859999999,7.570456900000001,4056
2433,Wasensträsschen 22,47.5707072,7.5697453,4056
2434,Oberalpstrasse 33,47.54886459999999,7.5642755,4054
2445,Peter Ochs-Strasse 5,47.5319188,7.5952308,4059
2446,Morgartenring 148,47.5513367,7.5654238,4054
2447,Lerchenstrasse 10,47.53946440000001,7.588598799999999,4059
2448,Farnsburgerstrasse 55,47.55451129999999,7.6141226,4052
2449,Klingental 18,47.5625746,7.5914673,4058
2450,In den Schorenmatten 3,47.570173,7.6090217,4058
2452,Allschwilerstrasse 85,47.5571855,7.569218900000001,4055
2454,Lothringerstrasse 41,47.5674029,7.578126,4056
2455,Lothringerstrasse 43,47.56747499999999,7.578046499999999,4056
2457,Am Bachgraben 44,47.5768772,7.566919799999999,4056
2459,Röschenzerstrasse 15,47.5407813,7.5878481,4053
2460,Holeestrasse 65,47.5448816,7.5712663,4054
2461,Wiesenplatz 5,47.5769276,7.592146400000001,4057
2462,Weiherweg 38,47.5538427,7.576177500000001,4054
2463,Feierabendstrasse 43,47.5524883,7.580624500000001,4051
2464,General Guisan-Strasse 74,47.5503461,7.566577199999999,4054
2465,General Guisan-Strasse 48,47.5509025,7.567641300000001,4054
2466,Oberer Batterieweg 90,47.5299581,7.5884393,4059
2467,Utengasse,47.5600285,7.5932773,4058
2468,Delsbergerallee 29,47.5409235,7.600477100000001,4053
2469,Im langen Loh 230,47.54773609999999,7.559796200000001,4054
2472,Im Wasenboden 17,47.5697948,7.570809799999999,4056
2473,Wasensträsschen 8,47.5707072,7.5697453,4056
2474,Breisacherstrasse 95,47.56833779999999,7.588500199999999,4057
2475,Markircherstrasse 8,47.5666099,7.5636262,4055
2477,In den Schorenmatten 24,47.5706321,7.6094414,4058
2492,Tellstrasse 26,47.5429444,7.5958476,4053
2497,Heinrichsgasse 14,47.5565677,7.576251,4055
2499,Drosselstrasse 33,47.5378368,7.588394999999999,4059
2500,Münchensteinerstrasse 268,47.53727929999999,7.6079832,4053
2502,"Bordeaux-Strasse 5, 7",47.5371348,7.6056981,4053
2504,Spitalstrasse,47.5636318,7.5824879,
2507,St. Alban-Ring 226,47.5476682,7.6083788,4052
2508,Gotthardstrasse 80,47.5495499,7.562616599999999,4054
2509,Glaserbergstrasse 50,47.566371,7.568276600000001,4056
2510,Gundeldingerstrasse 470,47.53737109999999,7.6017771,4053
2511,Wollbacherstrasse 25,47.5670318,7.6191869,4058
2515,Scheltenstrasse 5,47.53407130000001,7.593019300000001,4059
2516,Müllheimerstrasse 136,47.56876099999999,7.5924286,4057
2517,"Peter Ochs-Strasse 35, 35 A",47.5305438,7.5944698,4059
2518,Claragraben 137,47.5649209,7.5922581,4057
2520,Oetlingerstrasse 39,47.567623,7.5892094,4057
2521,Schweizergasse 28,47.5498808,7.577738999999999,4054
2522,Leuengasse 37,47.5664185,7.5886878,4057
2523,"Birmannsgasse 12, 12A, 12B",47.5581573,7.578208200000001,4055
2524,In den Ziegelhöfen 128,47.545318,7.558688199999999,4054
2525,Zürcherstrasse 127,47.5551989,7.612456,4052
2526,Delsbergerallee 53,47.53976429999999,7.599743099999999,4053
2528,Blauenstrasse 2,47.5559231,7.5737516,4054
2529,Bläsiring 96,47.5684744,7.5915241,4057
2530,Bläsiring 104,47.5684559,7.5919094,4057
2531,Efringerstrasse 18,47.56816790000001,7.5966175,4057
2534,Steinengraben 81,47.5522196,7.587013799999999,4051
2535,Höhenweg 6,47.5471603,7.5836656,4053
2537,Biascastrasse 34,47.5272833,7.591260200000001,4059
2540,Hochstrasse 66,47.5442726,7.595556499999999,4053
2541,Thannerstrasse 31,47.5542685,7.5735348,4054
2543,Schützenmattstrasse 48,47.5550135,7.579476700000001,4051
2544,Fatiostrasse 33,47.566811,7.5795055,4056
2545,"Dornacherstrasse 393, 395",47.5381988,7.606485299999999,4053
2547,Arabienstrasse 17,47.5322861,7.5895082,4059
2553,Hirzbrunnenschanze 42,47.5667081,7.6162803,4058
2555,Nägeliweg 4,47.5953678,7.646490099999999,4125
2556,Eulerstrasse 20,47.5549423,7.5815524,4051
2559,Spalenring 120,47.5561283,7.575187,4055
2560,St. Alban-Ring 145,47.55071179999999,7.6108155,4052
2561,Hegenheimerstrasse 242,47.56500279999999,7.561071099999999,4055
2562,Bartenheimerstrasse 25,47.5597044,7.570306599999999,4055
2563,Nonnenweg 19,47.55720590000001,7.5765582,4055
2565,"Prattelerstrasse 21, 23",47.5456441,7.6136817,4052
2566,Klybeckstrasse 250,47.57635699999999,7.588303700000001,4057
2568,Missionsstrasse 26,47.559808,7.578170600000001,4055
2569,Hardstrasse 103,47.5493952,7.607105000000001,4052
2570,Unterer Rheinweg 102,47.56694239999999,7.5869351,4057
2571,Steinentorstrasse 18,47.5519715,7.588953999999999,4051
2572,Bruderholzrain 43,47.537381,7.5930023,4059
2573,Pfeffingerstrasse 105,47.54150360000001,7.589508299999999,4053
2574,Auf dem Wolf 28,47.540524,7.615378199999999,4052
2575,Solothurnerstrasse 4,47.5457025,7.5913659,4053
2576,Neuweilerstrasse 107,47.5458413,7.557029000000001,4054
2577,Haltingerstrasse 68,47.565959,7.59499,4057
2578,Spalenring 138,47.5552017,7.575370599999999,4055
2579,Rudolfstrasse 16,47.5550857,7.574803899999999,4054
2580,Steingrubenweg 59,47.5889901,7.6589988,4125
2581,Theodorsgraben 42,47.5589489,7.599096800000001,4058
2584,Schlachthofstrasse 18,47.5771293,7.569270699999999,4056
2585,Bärenfelserstrasse 34,47.5676967,7.5878797,4057
2586,Jungstrasse 12,47.5677542,7.579668700000001,4056
2587,Lothringerstrasse 119,47.5703203,7.5752897,4056
2588,Steinenvorstadt 62,47.551845,7.587485399999999,4051
2589,Kleinhüningerstrasse 149,47.5788541,7.590264400000001,4057
2592,Kleinhüningerstrasse 157,47.57915060000001,7.590380799999998,4057
2593,Gundeldingerstrasse 501,47.5371957,7.603547,4053
2594,Kannenfeldstrasse 9,47.5650737,7.573614000000001,4056
2595,Paradieshofstrasse 155,47.5466487,7.558983400000001,4054
2596,Neuweilerstrasse 10,47.5468236,7.5637261,4054
2597,Maulbeerstrasse 47,47.5675608,7.602019599999999,4058
2598,Reinacherstrasse 116,47.5372582,7.6038792,4053
2599,Bachofenstrasse 6,47.5394772,7.590966399999999,4053
2600,Wielandplatz 4,47.5531648,7.5713533,4054
2601,Riehenstrasse 328,47.57010229999999,7.6168318,4058
2602,Claragraben 150,47.5654961,7.5922277,4057
2603,Utengasse 50,47.5593335,7.5939825,4058
2605,Gundeldingerstrasse 457,47.537521,7.602485499999999,4053
2606,Bruderholzallee 156,47.5321996,7.593797399999999,4059
2608,Heinrichsgasse 18,47.55649469999999,7.576058499999999,4055
2609,Spalenring 136,47.5552917,7.575357499999999,4055
2610,Davidsbodenstrasse 59,47.5667205,7.5753663,4056
2611,Tüllingerstrasse 62,47.56790609999999,7.617967299999998,4058
2615,Auf der Alp 15,47.5257894,7.591785300000001,4059
2616,Beim Buremichelskopf 15,47.5327967,7.586313700000001,4059
2617,Klybeckstrasse 82,47.5667212,7.591054,4057
2618,Aeneas Silvius-Strasse 30,47.5309505,7.5929704,4059
2619,Aeneas Silvius-Strasse 28,47.5310896,7.5929647,4059
2620,St. Johanns-Vorstadt 69,47.5652567,7.5828776,4056
2621,Herrengrabenweg 5,47.5559872,7.572741999999999,4054
2622,Hegenheimerstrasse 31,47.5602678,7.5731514,4055
2623,Müllheimerstrasse 50,47.5660057,7.593162,4057
2625,Westquaistrasse 75,47.5876876,7.589412200000001,4057
2626,Riehenring 19,47.5616716,7.6007658,4058
2627,Riehenring 21,47.5617438,7.6006465,4058
2631,Maulbeerstrasse 19,47.567063,7.600307399999999,4058
2633,Lenzgasse 22,47.5683999,7.571537299999999,4056
2634,Solothurnerstrasse 78,47.5424194,7.588638400000001,4053
2637,Bergalingerstrasse 29,47.5605347,7.610256,4058
2638,Erlenstrasse 34,47.5683173,7.6004001,4058
2639,Friedrichstrasse 25,47.5569113,7.5747372,4055
2640,Näfelserstrasse 39,47.5577408,7.565472100000001,4055
2641,Lerchenstrasse 39,47.5387965,7.590403200000001,4059
2643,"Sägergässlein 2, 4",47.5612801,7.590972,4058
2646,"Lothringerstrasse 98, 98A",47.5696282,7.576336599999999,4056
2647,"St. Alban-Vorstadt 82, 82A",47.5538927,7.599844399999999,4052
2648,Reiterstrasse 7,47.5490428,7.5658169,4054
2650,St. Alban-Vorstadt 82,47.5538927,7.599844399999999,4052
2656,Allschwilerplatz 1,47.5573005,7.5714256,4055
2661,Steinenvorstadt,47.5525891,7.5883964,4051
2662,Hauensteinstrasse 92,47.5342056,7.5934712,4059
2665,Austrasse 109,47.5553445,7.5763541,4051
2668,Hirzbrunnenallee 26,47.566727,7.612634600000001,4058
2669,Rümmingerstrasse 42,47.5650452,7.620811300000001,4058
2670,Riehenstrasse 157,47.5652824,7.6060346,4058
2672,Wanderstrasse 10,47.552969,7.5695327,4054
2673,Passwangstrasse 62,47.5344939,7.5931002,4059
2676,Adlerstrasse 18,47.5473319,7.6096224,4052
2677,Elsässerstrasse 24,47.5689351,7.579862499999999,4056
2679,Schützenmattstrasse 12,47.5571104,7.582186999999998,4051
2680,Hirzbrunnenschanze 56,47.5662992,7.6164011,4058
2681,Wettsteinallee 73,47.5613264,7.6032495,4058
2683,Thumringerstrasse 5,47.5676013,7.6172752,4058
2684,Im Holeeletten 15,47.5468113,7.566794499999999,4054
2685,Näfelserstrasse 45,47.5575425,7.565305599999999,4055
2686,Feierabendstrasse 73,47.5536506,7.5789404,4051
2687,Sustenstrasse 29,47.5450465,7.560294900000001,4054
2688,Birsfelderstrasse 35,47.5557401,7.616278899999999,4052
2694,Bruderholzstrasse 114,47.5407707,7.591839599999999,4053
2695,Lothringerstrasse 107,47.5699082,7.575633799999999,4056
2697,"Hagenaustrasse 40, 40A",47.5731064,7.569077,4056
2698,Dammerkirchstrasse 4,47.5681721,7.568352600000001,4056
2699,"Voltastrasse 27, 29, 31",47.5704924,7.581762100000001,4056
2700,Kaysersbergerstrasse 65,47.5652784,7.561209600000001,4055
2701,Hegenheimerstrasse 160,47.563326,7.5659076,4055
2703,Nidwaldnerstrasse 50,47.55893770000001,7.563651699999999,4055
2704,Steinenvorstadt 14,47.5534607,7.588730900000001,4051
2705,Solothurnerstrasse 18,47.5453755,7.590842599999999,4053
2706,Oppenheim-Strasse 80,47.5455063,7.5900636,4053
2707,Steinenbachgässlein 4,47.5533844,7.5885538,4051
2708,Margarethenstrasse 40,47.54663550000001,7.583712899999999,4053
2709,Jakobsbergerstrasse 79,47.53292,7.601989999999999,
2710,Reservoirstrasse,47.5291208,7.5951483,4059
2711,Zur Gempenfluh,47.5294695,7.6015203,4059
2712,Reservoirstrasse 200,47.5277158,7.594160800000001,4059
2713,Jakobsbergerholzweg 121,47.5326239,7.5992036,4059
2714,"Jakobsbergerstrasse 105,",47.53292,7.601989999999999,
2716,Dornacherstrasse 339,47.5389067,7.6032737,4053
2717,Hauensteinstrasse 116,47.53419299999999,7.594778,4059
2718,Bruderholzallee 55,47.5339132,7.587433299999999,4059
2719,Forellenweg,47.5511411,7.621706,4052
2720,St. Alban-Vorstadt 81,47.5539341,7.6001872,4052
2721,"Sissacherstrasse 10, 12",47.4653663,7.8495674,4460
2722,Zürcherstrasse 180,47.5554999,7.6147285,4052
2723,Grellingerstrasse 50,47.5494046,7.6061839,4052
2724,Zürcherstrasse 70,47.5549675,7.6121962,4052
2725,Hagenbachstrasse 28,47.5473227,7.6013276,4052
2726,"Freiburgerstrasse 26, 36",47.5768389,7.603159000000001,4057
2727,Riehenstrasse,47.566301,7.609150399999999,4058
2728,"Riehenstrasse 351, 375",47.56936080000001,7.6148168,4058
2729,Lange Erlen,47.574329,7.608353999999999,4058
2730,Allmendstrasse,47.5658989,7.6214828,4058
2731,Allmendstrasse 146,47.5648756,7.622541999999999,4058
2732,"Schleifenbergstrasse 12,",47.5618011,7.6052857,4058
2733,"Grenzacherstrasse 511,",47.562744,7.6314769,4058
2734,"Dolderweg 3, 5,",47.5609152,7.594833,4058
2735,Neuhausstrasse  31,47.5836589,7.5958877,4057
2736,"Mülhauserstrasse 111, 113, 115",47.56684689999999,7.5768356,4056
2737,Farnsburgerstrasse 51,47.55464629999999,7.6140433,4052
2738,Holeestrasse 49,47.5447097,7.572209000000001,4054
2743,Delsbergerallee 6,47.5422453,7.6006272,4053
2749,Göschenenstrasse 44,47.5472763,7.560911000000001,4054
2750,Clarahofweg 23,47.562144,7.597365699999999,4058
2752,Austrasse 25,47.5527096,7.5835611,4051
2753,Furkastrasse 55,47.5482911,7.561496500000001,4054
2755,Rümmingerstrasse 15,47.5658065,7.6205647,4058
2756,"Schönaustrasse 56, 58, 60",47.5683091,7.603243999999999,4058
2757,Im Heimatland 6,47.5646458,7.615072800000001,4058
2758,St. Alban-Rheinweg 118,47.554966,7.6045585,4052
2760,Knöringerstrasse 4,47.5634583,7.567206499999998,4055
2765,Oberalpstrasse 46,47.549746,7.564330699999999,4054
2766,"General Guisan-Strasse,",47.549815,7.565890699999999,4054
2770,Baldeggerstrasse 54,47.5527999,7.615830700000001,4052
2771,Palmenstrasse 5,47.5569116,7.574445,4055
2773,Hauensteinstrasse 120,47.5339247,7.595010899999999,4059
2775,Theodorsgraben 36,47.5587153,7.5988968,4058
2776,Beim goldenen Löwe,47.5537694,7.5966288,4052
2777,Steinentorstrasse 8,47.5523155,7.5893124,4051
2778,Sevogelstrasse 64,47.5499503,7.6025635,4052
2780,Im Heimatland 4,47.5646818,7.6150331,4058
2790,Pfeffingerstrasse 62,47.5432932,7.590575399999999,4053
2791,Pfirtergasse 27,47.54890229999999,7.5785559,4054
2793,"Mathilde Paravincini-Strasse 5, 7, 9, 11",47.5485812,7.603993999999999,4052
2795,Oberer Batterieweg 29,47.5323064,7.5877553,4059
2796,"Delsbergerallee 19,",47.5414626,7.600823999999999,4053
2797,Pfirtergasse 28,47.5490017,7.5781975,4054
2801,Im langen Loh 59,47.5546128,7.563159700000001,4054
2802,Weisse Gasse 14,47.5556969,7.5895611,4001
2803,"Falknerstrasse 29,",47.5556671,7.589432,4001
2805,Lothringerstrasse 113,47.5701268,7.575490200000001,4056
2806,Rheingasse 66,47.559128,7.5931418,4058
2811,Fürstensteinerstrasse 14,47.5381762,7.597123300000001,4053
2813,Nufenenstrasse 12,47.5495671,7.563333999999999,4054
2814,Hirzbrunnenallee 27,47.5675265,7.6132352,4058
2815,Peter Ochs-Strasse 40,47.5306899,7.594012299999999,4059
2816,Hochwaldstrasse 11,47.53023229999999,7.6022604,4059
2817,Offenburgerstrasse 49,47.5693856,7.589307399999999,4057
2820,Paradieshofstrasse 128,47.5474404,7.5587727,4054
2821,Elsässerstrasse 129,47.5725949,7.575959999999999,4056
2822,Offenburgerstrasse 32,47.56909900000001,7.588389599999999,4057
2826,"Riehenring 12, 14",47.5615411,7.602242800000001,4058
2829,Marktgasse 8,47.5594827,7.5871276,4051
2830,Florastrasse 17,47.5644457,7.5902958,4057
2832,Vogesenstrasse 102,47.5682824,7.576137399999999,4056
2835,Sustenstrasse 9,47.5456944,7.559937700000001,4054
2836,Sommergasse 42,47.56426870000001,7.5742378,4056
2839,St. Alban-Vorstadt 82A,47.5536124,7.599535700000001,4052
2841,Wanderstrasse 2,47.5530043,7.570130699999999,4054
2843,Brombacherstrasse 4,47.5704298,7.595410199999999,4057
2844,Hirzbrunnenschanze 10,47.5670283,7.615625499999999,4058
2845,Gerbergasse 63,47.5554999,7.588882900000001,4001
2846,Blumenrain 24,47.561147,7.586853899999999,4051
2847,Friedrichstrasse 22,47.5565964,7.574856,4055
2848,Bläsiring 103,47.5687411,7.592584099999999,4057
2850,Wasgenring 137,47.5591708,7.564910899999998,4055
2851,Schaffhauserrheinweg 83,47.5573785,7.6029982,4058
2853,General Guisan-Str. 104,47.5498856,7.5652081,4054
2854,Hebelstrasse 131,47.5641223,7.576376700000001,4056
2856,Erstfeldstrasse 68,47.5480139,7.560819700000001,4054
2857,"Giornicostrasse 102,",47.5280539,7.6000264,4059
2858,Lerchenstrasse 91,47.5368822,7.589361799999999,4059
2859,Birsigstrasse 109,47.550216,7.578081199999999,4054
2860,Gundeldingerrain 111,47.5345764,7.5919052,4059
2861,Unterer Heuberg 10,47.556276,7.5869341,4051
2862,Hammerstrasse 73,47.5632337,7.596266099999998,4057
2863,Weiherhofstrasse 188,47.5462815,7.557508200000001,4054
2865,Laupenring 141,47.5480522,7.5669835,4054
2867,Kleinhüningerstrasse 87,47.5768147,7.589115700000001,4057
2868,Sierenzerstrasse 19,47.56020059999999,7.569978999999999,4055
2870,"Lyon-Strasse 37, 41",47.5335401,7.606470600000001,4053
2874,Allmendstrasse 10,47.5697151,7.617122800000001,4058
2875,Pfeffelstrasse 22,47.55930069999999,7.571321999999999,4055
2876,Gundeldingerstrasse 91,47.5433082,7.5838494,4053
2877,Gotthelfstrasse 22,47.5529963,7.569200700000001,4054
2880,Bruderholzallee 66,47.5330247,7.588686999999999,4059
2882,Flughafenstrasse 51,47.5680869,7.5699684,4056
2883,Feldbergstrasse 128,47.5670939,7.596379599999999,4057
2884,Wettsteinallee 89,47.5611824,7.604569099999999,4058
2885,Peter Rot-Strasse 84,47.56145069999999,7.604379299999999,4058
2887,Palmenstrasse 22,47.5565313,7.5735086,4055
2888,Klybeckstrasse 7,47.5648981,7.5912056,4057
2889,Nufenenstrasse 54,47.5508177,7.5629649,4054
2890,Rennweg 55,47.55068,7.6080124,4052
2891,Steinbühlallee 153,47.5479618,7.5574014,4054
2892,Erstfeldstrasse 61,47.5478067,7.5611513,4054
2894,Rütimeyerstrasse 62,47.5482039,7.575923899999999,4054
2896,Birkenstrasse 24,47.5572706,7.573358399999999,4055
2898,Realpstrasse 61,47.5479362,7.566146300000001,4054
2900,"Auberg 13, 15",47.55231130000001,7.584637,4051
2905,Gotthelfstrasse 84,47.5558926,7.568915499999999,4054
2906,Riehentorstrasse 33,47.55997790000001,7.5963362,4058
2910,Gundeldingerstrasse 445,47.5378012,7.601490300000001,4053
2911,Pfirtergasse 9,47.549612,7.5792486,4054
2912,Breisacherstrasse 59,47.5667422,7.5887153,4057
2913,Markircherstrasse 25,47.56551349999999,7.5629193,4055
2914,Wettsteinallee 40,47.5601785,7.600867600000001,4058
2916,Südquaistrasse 9,47.5865664,7.5933625,4057
2917,Rüdengasse 1,47.5567497,7.589138899999999,4001
2918,Marschalkenstrasse 36,47.5497987,7.5735103,4054
2919,Pfeffingerstrasse 94,47.5419318,7.589434700000001,4053
2922,"Friedrichstrasse 20,",47.5565335,7.574789399999999,4055
2924,Knöringerstrasse 3,47.563278,7.5675515,4055
2926,Weiherhofstrasse 172,47.5466592,7.557602,4054
2927,Lyon-Strasse 26,47.5345469,7.606792500000001,4053
2928,Frankfurt-Strasse 8,47.5351728,7.607246699999999,4053
2931,"Rittergasse 22, 22A, 24",47.5547827,7.5939959,4051
2933,Wasgenring 119,47.5597464,7.5648325,4055
2937,Steinbühlallee 37,47.55119999999999,7.5586084,4054
2940,Gotthelfstrasse 106,47.5571513,7.56873,4054
2943,Augustinergasse 15,47.5575477,7.5909879,4051
2944,"Hiltalingerstrasse 5, 5A, 7",47.58538009999999,7.5933405,4057
2946,Weiherhofstrasse 152,47.5472616,7.557762699999999,4054
2947,Amerbachstrasse 21,47.5694183,7.591832500000001,4057
2948,Rufacherstrasse 30,47.55839880000001,7.571658599999998,4055
2949,Grellingerstrasse 62,47.5492223,7.605695599999999,4052
2950,Kannenfeldstrasse 40,47.5637027,7.573758,4056
2952,Peter Rot-Strasse 98,47.5620444,7.604314699999999,4058
2953,Alemannengasse 15,47.5580851,7.5993732,4058
2954,"Römergasse 19, 21",47.5583822,7.5991216,4058
2955,Theodorsgraben 32,47.5585535,7.598803299999999,4058
2961,Sommergasse 37,47.5639901,7.5740776,4056
2962,Rotbergerstrasse 15,47.5487236,7.577625599999999,4054
2965,Bärschwilerstrasse 24,47.5415784,7.5950333,4053
2966,Im Margarethenletten 5,47.5465862,7.582442,4053
2970,Rennweg 74,47.5500754,7.609392100000001,4052
2971,Birsstrasse 114,47.5509658,7.621532500000001,4052
2973,Binzenstrasse 13,47.5672045,7.6179649,4058
2974,Socinstrasse 16,47.55756299999999,7.578844399999999,4051
2975,Blotzheimerstrasse 11,47.5613111,7.567782999999999,4055
2976,Lehenmattstrasse 329,47.544869,7.6207075,4052
2977,Wasgenring 167,47.5580205,7.565060600000001,4055
2980,Reiterstrasse 46,47.547488,7.564830199999999,4054
2982,Wasserstrasse 15,47.5698291,7.579939700000001,4056
2983,Augustinergasse 19,47.5574216,7.591133699999999,4051
2984,Neubadstrasse 135,47.5470998,7.5661709,4054
2986,Feldbergstrasse 56,47.56619509999999,7.591358899999999,4057
2987,Strassburgerallee 108,47.561038,7.5680909,4055
2988,Haltingerstrasse 9,47.565524,7.591887700000001,4057
2991,Pruntruterstrasse 5,47.5461001,7.5810301,4053
2992,Auf der Alp 9,47.5259595,7.5917524,4059
2995,Barfüsserplatz 12,47.5545321,7.5886795,4051
2997,Birsigstrasse 95,47.5499811,7.5790368,4054
2998,Bergalingerstrasse 3,47.5597059,7.610618700000001,4058
2999,Passwangstrasse 4,47.5371009,7.5939843,4059
3001,Margarethenstrasse 87,47.5446164,7.5825562,4053
3002,Eichenstrasse 55,47.5543449,7.569642399999999,4054
3005,Haltingerstrasse 24,47.5656476,7.593589,4057
3006,"Karpfenweg 15, 17",47.5507715,7.6193008,4052
3008,"Allschwilerstrasse 31, 33",47.5559028,7.5733284,4055
3009,St. Alban-Rheinweg 96,47.5549495,7.603469,4052
3010,St.  Alban- Rheinweg 94,47.5549252,7.603139299999999,4052
3011,St. Alban-Rheinweg 94,47.5549252,7.603139299999999,4052
3023,Göschenenstrasse 67,47.5469887,7.560750899999999,4054
3026,Güterstrasse 138,47.5447321,7.5891816,4053
3027,"St. Alban-Rheinweg 94, 96",47.5549252,7.603139299999999,4052
3029,Reussstrasse 91,47.5498944,7.559987099999999,4054
3030,"Grellingerstrasse 79, 81, 83, 85",47.5483182,7.605507500000001,4052
3032,"Güterstrasse 199, 201, 203, 205",47.5433613,7.5934446,4053
3033,Andreas Heusler-Strasse 16,47.5474855,7.6029146,4052
3035,Göschenenstrasse 75,47.5469302,7.5603497,4054
3036,Voltastrasse 75,47.5706418,7.577151,4056
3037,Voltastrasse 79,47.57066020000001,7.5768587,4056
3038,"Voltastrasse 81,",47.5706693,7.5767126,4056
3039,Voltastrasse 83,47.5706785,7.5765664,4056
3041,Güterstrasse 229,47.5424763,7.596178200000001,4053
3043,Landskronstrasse 46,47.5683099,7.5763094,4056
3046,Schöllenenstrasse 21,47.5510227,7.5646924,4054
3047,Lachenstrasse 9,47.56816810000001,7.569155299999999,4056
3048,Wasgenring 99,47.56067290000001,7.5647018,4055
3049,Wasgenring 47,47.5623608,7.564282399999999,4055
3055,Alemannengasse 67A,47.558017,7.60304,4058
3058,Auf dem Wolf 17,47.54083199999999,7.6139448,4052
3060,"Pilgerstrasse 2, 4, 6",47.5597807,7.5773738,4055
3061,Seltisbergerstrasse 27,47.5288182,7.6002014,4059
3063,Byfangweg 33,47.55155329999999,7.581898,4051
3065,Rufacherstrasse 20,47.558156,7.572290400000001,4055
3068,Gartenstrasse 103,47.5479912,7.5932778,4052
3069,Murbacherstrasse 44,47.56902669999999,7.576268900000001,4056
3070,Thiersteinerrain 132,47.5357057,7.594909899999999,4059
3071,Marignanostrasse 92,47.5325448,7.584104000000001,4059
3072,Thiersteinerrain 154,47.5350612,7.5944137,4059
3075,Seltisbergerstrasse 84,47.5275646,7.5961077,4059
3076,Hegenheimerstrasse 119,47.5619832,7.567269400000001,4055
3085,Im langen Loh 245,47.5480355,7.560239900000001,4054
3086,Wielandplatz 2,47.5532516,7.571818,4054
3087,Im Heimatland 12,47.5645377,7.6151787,4058
3091,Rümmingerstrasse 30,47.5653389,7.62051,4058
3092,Hegenheimerstrasse 137,47.5624152,7.5669678,4055
3093,Haltingerstrasse 23,47.565828,7.593217399999999,4057
3094,Grellingerstrasse 25,47.5503666,7.6070151,4052
3095,Arbedostrasse 8,47.5307885,7.586091199999998,4059
3096,Leonhardsgraben 2,47.5569004,7.583785000000001,4051
3097,Hammerstrasse 135,47.5675076,7.5948834,4057
3098,Bartenheimerstrasse 38,47.5596061,7.5697217,4055
3100,Steinbühlallee 177,47.5473611,7.5571917,4054
3101,Nufenenstrasse 50,47.5507007,7.5630178,4054
3102,Solothurnerstrasse 70,47.542705,7.588903299999999,4053
3103,Schaffhauserrheinweg 95,47.5574494,7.6037291,4058
3105,"St. Galler-Ring 80, 82, 84",47.55673150000001,7.566738600000001,4055
3107,"Neuweilerstrasse 87, 89, 91, 93",47.5459296,7.558596599999999,4054
3109,"Amerbachstrasse 39, 41",47.5694271,7.593022099999999,4057
3110,Greifengasse 11,47.5612259,7.591805399999999,4058
3111,Solothurnerstrasse 81,47.5422569,7.589009499999999,4053
3112,Lenzgasse 4A,47.5677252,7.5717349,4056
3114,Grienstrasse 117,47.5599879,7.5656743,4055
3120,Jurastrasse 57,47.541366,7.591063699999999,4053
3126,"Aeschenplatz 7, 9",47.5517755,7.5955602,4052
3127,Schwarzwaldallee 41,47.5604786,7.6110995,4058
3129,Mostackerstrasse 7,47.5554687,7.5820608,4051
3130,Bäumlihofstrasse 51,47.5635865,7.6137405,4058
3131,"Eichhornstrasse 25, 27",47.535267,7.6004533,4059
3132,Picassoplatz 4,47.5533602,7.5954164,4052
3137,"Güterstrasse 244, 248",47.5419322,7.5970984,4053
3138,Rudolfstrasse 21,47.55494119999999,7.575144099999999,4054
3139,Gerbergasse 54,47.5557251,7.5885913,4001
3140,Gasstrasse 56,47.5694301,7.575127900000001,4056
3141,Matthäusstrasse 8,47.5668557,7.591399900000001,4057
3143,Feierabendstrasse 15,47.5517215,7.582148799999999,4051
3145,Hagentalerstrasse 14,47.5615311,7.572171200000001,4055
3146,Rheinländerstrasse 16,47.5635991,7.577717399999999,4056
3148,Neuhausstrasse 1,47.5827726,7.5928677,4057
3151,Kleinhüningeranlage 21,47.58315839999999,7.5934936,4057
3152,Peter Rot-Strasse 115,47.5627738,7.603652599999999,4058
3153,Blochmonterstrasse 7,47.54700889999999,7.5749379,4054
3154,Dreirosenstrasse,47.5704776,7.587229199999999,4057
3155,Spalenvorstadt 29,47.5574671,7.5821006,4051
3156,"Güterstrasse 91, 93",47.5463212,7.5858152,4053
3158,Grenzacherstrasse 94,47.5586225,7.603518399999999,4058
3159,Largitzenstrasse 86,47.56599139999999,7.5666267,4056
3160,Mittlere Strasse 150,47.56486169999999,7.5747575,4056
3161,Palmenstrasse 28,47.5562925,7.573234399999999,4055
3162,Erstfeldstrasse 52,47.5482193,7.562201699999999,4054
3163,Hasenmattstrasse 6,47.5335015,7.5914259,4059
3165,Mörsbergerstrasse 42,47.5675632,7.593647700000001,4057
3166,Rufacherstrasse 58,47.5593654,7.5694744,4055
3167,St. Alban-Vorstadt 60,47.554174,7.598484600000001,4052
3168,Mülhauserstrasse 123,47.5664707,7.576140799999999,4056
3169,Chrischonastrasse 57,47.55995009999999,7.6034579,4058
3170,Blauenstrasse 35,47.5548263,7.5733768,4054
3171,Hirzbrunnenschanze 6,47.5669565,7.6154924,4058
3176,Oberwilerstrasse 80,47.5481851,7.576654500000001,4054
3177,"Rebgasse 12, 14",47.5610063,7.5935539,4058
3178,Bäumlihofstrasse 177,47.5662943,7.619211,4058
3179,Bernerring 1,47.5462174,7.5750023,4054
3180,Paradieshofstrasse 64,47.549886,7.559508800000001,4054
3182,Furkastrasse 61,47.54841769999999,7.561461399999999,4054
3183,Riehenstrasse 167,47.5657192,7.6068243,4058
3184,Rufacherstrasse 84,47.5600399,7.5678626,4055
3185,Bachlettenstrasse 76,47.548157,7.577571,4054
3188,Unterer Batterieweg 129,47.53814550000001,7.586084899999999,4059
3189,Drosselstrasse 29,47.5379804,7.588568100000001,4059
3190,Alemannengasse 14,47.5578922,7.5992659,4058
3191,Riehentorstrasse 18,47.55922289999999,7.5960018,4058
3196,Giornicostrasse 104,47.528126,7.599960199999999,4059
3199,Riehenring 190,47.5733948,7.598267700000001,4058
3203,"Kohlenberggasse 19, 21, 23",47.55267740000001,7.5877059,4051
3204,Luzernerring 122,47.5661413,7.564502099999999,4056
3205,Hirzbrunnenschanze 48,47.5664601,7.616633599999999,4058
3206,Hirzbrunnenschanze 8,47.5669924,7.615558900000001,4058
3208,Bärenfelserstrasse 47,47.5680343,7.5875667,4057
3212,Spalentorweg 41,47.5555119,7.5792375,4051
3214,Kahlstrasse 16,47.5450802,7.5926261,4053
3215,Ryffstrasse 42,47.5681707,7.5773556,4056
3222,Clarastrasse 56,47.56309539999999,7.5987505,4058
3223,Mittlere Strasse 147,47.564541,7.5746214,4056
3225,Gasstrasse 47,47.5692964,7.5757049,4056
3227,Schützenmattstrasse 31,47.55582090000001,7.581127,4051
3229,Palmenstrasse 26,47.5563949,7.5733563,4055
3230,Morgartenring 2,47.5569406,7.5646798,4054
3231,Edisonstrasse 3,47.5464186,7.583082000000001,4053
3236,Nadelberg 7,47.5586856,7.585733299999999,4051
3237,Bäumlihofstrasse 73,47.5639629,7.614645299999999,4058
3238,Schäublinstrasse 115,47.5322942,7.5831339,4059
3242,Gartenstrasse 1,47.5512962,7.598343099999999,4052
3243,Gartenstrasse 3,47.5511885,7.598196600000001,4052
3244,Gartenstrasse 5,47.5510718,7.598050199999999,4052
3246,Göschenenstrasse 50,47.5472316,7.5606718,4054
3248,Neuweilerstrasse 41,47.5461751,7.5614271,4054
3249,Im Heimatland 3,47.5647813,7.614661300000001,4058
3251,Flughafenstrasse 48,47.5681222,7.570633,4056
3252,Kleinriehenstrasse 68,47.5676633,7.6153803,4058
3253,Hirzbrunnenstrasse 7,47.5681798,7.613731399999999,4058
3255,Tüllingerstrasse 60,47.5679691,7.6178877,4058
3256,Lenzgasse 10,47.5679948,7.5718818,4056
3259,Dorfstrasse 11,47.5822249,7.5921616,4057
3262,Pfeffingerstrasse 69,47.5431848,7.5909204,4053
3267,Im Heimatland 80,47.5649404,7.6164956,4058
3269,Rebgasse 66,47.5591327,7.596200799999999,4058
3273,Blauenstrasse 40,47.5548717,7.572991600000001,4054
3274,"Blotzheimerstrasse 15, 17",47.5613085,7.567453800000001,4055
3275,Schwarzwaldallee 27,47.5600556,7.611337299999999,4058
3277,Nonnenweg 47,47.55870969999999,7.575481599999999,4055
3282,Angensteinerstrasse 35,47.5500203,7.604488799999999,4052
3286,Im Zimmerhof 2,47.554484,7.573840899999999,4054
3287,Allschwilerstrasse 75,47.5572749,7.569924999999999,4055
3288,Lehenmattstrasse 200,47.5497161,7.620948200000001,4052
3289,General Guisan-Str. 51,47.5506234,7.567959399999999,4054
3291,Metzerstrasse 16,47.5644019,7.5778553,4056
3292,Laupenring 129,47.547449,7.567566500000001,4054
3293,"Bruderholzstrasse 172, 172A",47.5325502,7.5954357,4059
3294,St. Jakobs-Strasse 3,47.5509309,7.595844499999999,4052
3295,Blauenstrasse 86,47.5535147,7.572124699999999,4054
3297,Auf dem Hummel 28,47.53071689999999,7.592823699999999,4059
3298,Gemsberg 5,47.55670509999999,7.586401,4051
3299,Austrasse 98,47.55518619999999,7.5781536,4051
3300,Näfelserstrasse 16,47.5587045,7.5659719,4055
3302,"Wiesendamm 20, 22",47.5807497,7.592356799999998,4057
3303,Hardrain 18,47.5457373,7.6174146,4052
3304,Horburgstrasse 80,47.5709425,7.595411700000001,4057
3307,Hirzbrunnenschanze 68,47.5661993,7.616645999999999,4058
3309,Gundeldingerstrasse 430,47.5379475,7.5997641,4053
3310,"Grenzacherstrasse 69, 71",47.5592152,7.601608700000001,4058
3312,Schönaustrasse 10,47.5675795,7.599475000000001,4058
3313,Kleinhüningerstrasse 138,47.5783418,7.590328899999999,4057
3314,St. Alban-Kirchrain 2,47.5536468,7.602535,4052
3319,St. Alban- Rheinweg 96,47.5549495,7.603469,4052
3323,Thumringerstrasse 11,47.5677895,7.6177542,4058
3325,Unterer Batterieweg 25,47.5406771,7.5869243,4053
3328,Holeestrasse 31,47.54452879999999,7.573124999999999,4054
3330,Mülhauserstrasse 50,47.5686955,7.580215799999999,4056
3331,Hardstrasse 143,47.5483489,7.609173999999999,4052
3340,Aeschengraben 26,47.5504494,7.592708,4051
3341,Wollbacherstrasse 4,47.5663582,7.618546699999999,4058
3342,Spalenvorstadt 9,47.5570449,7.583307099999999,4051
3343,Hirzbodenweg 84,47.54862199999999,7.606876700000001,4052
3345,Gerbergässlein 2,47.5564457,7.5877563,4051
3348,Andreas Heusler-Strasse 30,47.5471263,7.602501699999999,4052
3349,Mittlere Strasse 36,47.5615028,7.5783896,4056
3351,Gundeldingerrain 113,47.5344594,7.5920111,4059
3352,Hegenheimerstrasse 108,47.5621447,7.5676418,4055
3353,Hegenheimerstrasse 110,47.56221679999999,7.567522400000001,4055
3354,Muespacherstrasse 55,47.5623066,7.567602299999999,4055
3355,Muespacherstrasse 53,47.5623605,7.567668899999999,4055
3356,"Muespacherstrasse 51,",47.56241439999999,7.5677222,4055
3357,Muespacherstrasse 49,47.5624773,7.567788800000001,4055
3358,Lerchenstrasse 65,47.5377446,7.590094700000001,4059
3360,Wanderstrasse 24,47.55285360000001,7.568203899999999,4054
3361,Im tiefen Boden 36,47.5305234,7.590652800000001,4059
3362,Riehenring 99,47.565525,7.5978276,4058
3363,Tellstrasse 54,47.5430414,7.597282399999999,4053
3364,Münsterberg 4,47.5552416,7.5911471,4051
3365,Rütlistrasse 32,47.5547859,7.5771897,4051
3369,Delsbergerallee 56,47.5404572,7.599479499999999,4053
3370,Schweizergasse 42,47.5500374,7.5769914,4054
3372,Feldbergstrasse 146,47.5672168,7.5970884,4057
3373,Schwarzwaldallee 101,47.5628822,7.6095393,4058
3375,Heuberg 6,47.5565209,7.585165699999998,4051
3376,Drosselstrasse 35,47.53779189999999,7.5883152,4059
3378,Riehenring 25,47.561888,7.600407700000001,4058
3379,Marignanostrasse 21,47.5351683,7.5863025,4059
3380,Amerbachstrasse 78,47.5692159,7.5952738,4057
3381,Leimenstrasse 59,47.552298,7.5809776,4051
3382,Klybeckstrasse 40,47.5646699,7.5916328,4057
3383,Hirzbrunnenallee 35,47.5673193,7.613460399999999,4058
3384,Lehenmattstrasse 189,47.5504312,7.621137399999999,4052
3385,Türkheimerstrasse 60,47.5595841,7.573282499999999,4055
3386,Landskronstrasse 4,47.56939879999999,7.5787425,4056
3387,Neuensteinerstrasse 26,47.5400402,7.601310100000001,4053
3388,Efringerstrasse 96,47.5707591,7.5965639,4057
3390,Gärtnerstrasse 112,47.5794272,7.592632099999999,4057
3391,Utengasse 44,47.5595048,7.5936774,4058
3392,Frobenstrasse 37,47.544574,7.585875100000001,4053
3394,Allschwilerstrasse 69,47.5567417,7.571250399999999,4055
3395,Bachofenstrasse 15,47.53927299999999,7.5905241,4053
3396,Schützenmattstrasse 83,47.5534269,7.577983199999999,4051
3398,Beim Wasserturm 29,47.5265526,7.592957699999999,4059
3400,Im langen Loh 272,47.5465492,7.559581,4054
3405,Klingental 15,47.5616681,7.590056300000001,4058
3411,Feldbergstrasse 12,47.565466,7.5880473,4057
3413,Hauensteinstrasse 136,47.53353629999999,7.596258100000001,4059
3416,"Augustinergasse 1, 3",47.557953,7.5905374,4051
3418,Weiherweg 24,47.5540841,7.577440299999999,4054
3427,"Reinacherstrasse 259, 261",47.5332765,7.6053306,4053
3430,General Guisan-Strasse 51,47.5506234,7.567959399999999,4054
3431,Blauenstrasse 51,47.5542062,7.572950100000001,4054
3432,Grellingerstrasse 87,47.5482203,7.6048297,4052
3434,Blauenstrasse 7,47.55565319999999,7.573905999999999,4054
3435,Jakobsbergerholzweg 4,47.53419239999999,7.6045331,4053
3437,Metzerstrasse 11,47.5640393,7.578157099999999,4056
3438,Mittlere Strasse 143,47.564412,7.574743100000001,4056
3442,Bündnerstrasse 52,47.5591886,7.5661356,4055
3443,Klingentalstrasse 71,47.56477049999999,7.5971343,4057
3444,Eichhornstrasse 15,47.5350329,7.6002334,4059
3446,Lindenberg 21,47.5590439,7.5951167,4058
3448,St. Galler-Ring 197,47.55158549999999,7.5681477,4054
3450,Dornacherstrasse 145,47.5427009,7.591488200000001,4053
3451,Käferholzstrasse 127,47.5651958,7.6200045,4058
3453,Hegenheimerstrasse 64,47.5611072,7.570482799999999,4055
3454,Erlenstrasse 46,47.5685005,7.60107,4058
3458,Marignanostrasse 91,47.5322665,7.584437400000001,4059
3459,Burgfelderstrasse 33,47.5627516,7.571789,4055
3460,"Gartenstrasse 1, 3, 5",47.5512962,7.598343099999999,4052
3463,Fürstensteinerstrasse 50,47.5373999,7.5990055,4053
3470,Gärtnerstrasse,47.57774999999999,7.591799999999999,4057
3473,Allschwilerstrasse 117,47.5570572,7.5668087,4055
3474,Kandererstrasse 36,47.5657577,7.5909964,4057
3475,Fäschengasse 5,47.5302284,7.594933699999999,4059
3476,Steinenring 48,47.5507443,7.5800354,4051
3479,Kleinriehenstrasse 62,47.5675438,7.615177,4058
3480,Hammerstrasse 114,47.5659213,7.5956299,4057
3481,Largitzenstrasse 54,47.5667581,7.567617899999999,4056
3482,Bachofenstrasse 20,47.53968709999999,7.590206499999999,4053
3483,Elsässerstrasse 79,47.5701098,7.5782925,4056
3484,Gemsberg 9,47.5562944,7.5864937,4051
3485,Brunnmattstrasse 11,47.5401607,7.5905476,4053
3486,Weiherhofstrasse 94,47.5487361,7.558217699999999,4054
3487,Fürstensteinerstrasse 32,47.5377524,7.597744799999999,4053
3489,Blauensteinerstrasse 4,47.5442414,7.582370199999999,4053
3492,Thiersteinerallee 52,47.5412427,7.597223899999999,4053
3493,Riehenstrasse 276,47.5680483,7.613104,4058
3494,Sevogelstrasse 9,47.5518921,7.605041600000001,4052
3495,Glaserbergstrasse 69,47.5654814,7.567570099999999,4056
3496,Drosselstrasse 38,47.5373437,7.5871717,4059
3497,Vogesenstrasse 23,47.5658647,7.578427599999999,4056
3498,Lenzgasse 2,47.5675726,7.571428900000001,4056
3503,Horburgstrasse 112,47.5716567,7.5969675,4057
3504,Friedensgasse 56,47.5617129,7.576781999999999,4056
3505,Färberstrasse 3,47.5767837,7.5921859,4057
3506,Giessliweg 70,47.5803023,7.5905611,4057
3507,Ackerstrasse 45,47.5780895,7.5908339,4057
3508,Morgartenring 176,47.5501673,7.5655538,4054
3509,Predigerhofstrasse 77,47.5242177,7.5902821,4059
3512,Klingentalgraben 33,47.5641764,7.590754400000001,4057
3513,Pfeffelstrasse 21,47.5591993,7.5715941,4055
3515,Winkelriedplatz 9,47.5429021,7.5887153,4053
3516,Gasstrasse 3,47.5704013,7.5778392,4056
3518,Breisacherstrasse 11,47.564277,7.589479,4057
3519,Klybeckstrasse 174,47.5704992,7.5905863,4057
3520,Alemannengasse 27,47.55792049999999,7.600492099999999,4058
3521,Hardstrasse 8,47.5517864,7.6015595,4052
3524,Gellertstrasse 41,47.5516515,7.6139405,4052
3525,Kirchgasse 11,47.5591126,7.597875800000001,4058
3529,Freie Strasse 2A,47.5575468,7.5883938,4001
3530,Maiengasse 61,47.5607195,7.577352400000001,4056
3532,St. Jakobs-Strasse 60,47.5478444,7.597044200000001,4052
3533,Unterer Rheinweg 100,47.5668434,7.5869747,4057
3536,"Hirzbodenweg 15, 17",47.550724,7.6086502,4052
3538,Landkronstrasse 95,47.5669532,7.574436899999998,4056
3539,Landskronstrasse 97,47.5668885,7.574328699999999,4056
3540,Am Krayenrain 8,47.5657348,7.575611699999999,4056
3541,Hiltalingerstrasse 1,47.5864143,7.5928962,4057
3544,Hohe Winde-Strasse 96,47.5329056,7.5903865,4059
3545,Chrischonastrasse 56,47.55967099999999,7.6036164,4058
3546,Schlossgasse 15,47.5768869,7.588903299999999,4057
3548,Haltingerstrasse 27,47.56587270000001,7.593430199999999,4057
3549,Schützenmattstrasse 69,47.5540911,7.5790345,4051
3550,Hegenheimerstrasse 24,47.5605346,7.5731996,4055
3551,Nufenenstrasse 23,47.5497654,7.562922599999999,4054
3552,Lehenmattstrasse 160,47.5505982,7.6204863,4052
3553,Lehenmattstrasse 158,47.5507153,7.620380399999999,4052
3554,Reiterstrasse 53,47.5472897,7.565175099999999,4054
3559,"Herrengrabenweg 23, 23A",47.55532220000001,7.572275299999998,4054
3560,Karl Jaspers-Allee 12,47.5473833,7.6114026,4052
3561,Amselstrasse 18,47.5382699,7.587240700000001,4059
3562,Thiersteinerallee 42,47.5415662,7.5974241,4053
3563,Sonnenweg 21,47.5494013,7.6090711,4052
3564,Marschalkenstrasse 35,47.5496454,7.5738553,4054
3565,"Herrengrabenweg 44, 46",47.55475029999999,7.571457199999999,4054
3566,St. Galler-Ring 85,47.5568205,7.5675227,4055
3567,"Benkenstrasse 78,",47.547482,7.5755072,4054
3568,Benkenstrasse 76,47.5473886,7.5752638,4054
3569,Oberwilerstrasse 94,47.5474296,7.5759761,4054
3570,Oberwilerstrasse 98,47.5471538,7.575785199999999,4054
3571,Arlesheimerstrasse 16,47.5388708,7.599872599999999,4053
3572,Farnsburgerstrasse 42,47.5548269,7.613539100000001,4052
3573,Dornacherstrasse 309,47.53970839999999,7.6011508,4053
3574,Wasserstrasse 10,47.5695197,7.5798832,4056
3576,Mühlenberg 4,47.554588,7.5982732,4052
3577,St. Alban-Rheinweg 244,47.5569657,7.614675399999999,4052
3578,Lehenmattstrasse 254,47.5477645,7.620888399999999,4052
3580,Blumenrain 20,47.5610693,7.587118100000001,4051
3582,Nonnenweg 58,47.5590485,7.575658,4055
3583,"Breisacherstrasse 58, 60",47.5667328,7.589073999999999,4057
3585,"Steinenbachgässlein 11, 13",47.5533687,7.5886511,4051
3587,Benkenstrasse 22,47.5489299,7.5720451,4054
3588,Hardstrasse 70,47.5496759,7.605764199999999,4052
3589,Spalenberg 52,47.5568835,7.5849401,4051
3590,Gerbergasse 20,47.5570388,7.5880768,4001
3593,Thiersteinerallee 29,47.5420235,7.5984482,4053
3595,Grellingerstrasse 64,47.549139,7.605584100000001,4052
3596,Bättwilerstrasse 8,47.54964700000001,7.572407300000001,4054
3598,Hardstrasse 11,47.55193879999999,7.6019054,4052
3599,Schaffhauserrheinweg 81,47.5573696,7.6029051,4058
3600,Grenzacherweg 80,47.5586293,7.602536999999999,4058
3602,Bruderholzweg 32,47.5388945,7.591133999999999,4053
3603,Reiterstrasse 26,47.5487106,7.565284699999999,4054
3604,Colmarerstrasse 50,47.56006319999999,7.5711711,4055
3605,Wartenbergstrasse 47,47.547129,7.6069384,4052
3606,Paradieshofstrasse 70,47.54970910000001,7.5594665,4054
3607,Schertlingasse 26,47.55183470000001,7.585498299999999,4051
3608,Flughafenstrasse 35,47.5676005,7.5706848,4056
3609,"St. Johanns-Vorstadt 15, 17",47.5628111,7.5846622,4056
3610,Oberer Batterieweg 64,47.5311813,7.5884427,4059
3611,Im Sesselacker 67,47.5363185,7.600556099999999,4059
3612,Haltingerstrasse 102,47.5664791,7.597298899999999,4057
3613,Schützengraben 31,47.55616670000001,7.5806741,4051
3614,Grellingerstrasse 9,47.5514631,7.6075765,4052
3616,Marschalkenstrasse 33,47.54987,7.5740152,4054
3617,Kluserstrasse 23,47.5495769,7.5743585,4054
3618,General Guisan-Strasse 46,47.5512346,7.568279699999999,4054
3619,Casinostrasse 12,47.5465549,7.599511199999998,4052
3620,Hagentalerstrasse 4,47.5612942,7.5726691,4055
3621,Kanonengasse 19,47.5534074,7.5864857,4051
3622,Oberwilerstrasse 68,47.5485984,7.576961099999998,4054
3623,Efringerstrasse 81,47.5698271,7.5960814,4057
3624,Aescherstrasse 18,47.5488395,7.573821499999999,4054
3625,Aescherstrasse 23,47.5487921,7.5741624,4054
3626,Steinenvorstadt 50,47.5522454,7.5879173,4051
3627,Kluserstrasse 26,47.549411,7.5743462,4054
3629,Pfluggässlein 10,47.5560659,7.589309699999999,4001
3631,Elisabethenstrasse 2,47.5535985,7.5916941,4051
3632,Paradieshofstrasse 80,47.54947240000001,7.5593618,4054
3633,Karpfenweg 26,47.5508708,7.6187204,4052
3634,Bergalingerstrasse 7,47.5598319,7.6105659,4058
3635,Holbeinplatz 4,47.5554436,7.583595099999999,4051
3636,Gellertstrasse 46,47.5511987,7.6100067,4052
3637,Gellertstrasse 32,47.5515774,7.6093703,4052
3638,Hirzbodenweg 7,47.5510834,7.608903700000001,4052
3639,Gellertstrasse 34,47.5514801,7.6097762,4052
3640,Gellertstrasse 40,47.55100179999999,7.6093552,4052
3641,Gellertstrasse 44,47.5510639,7.6099399,4052
3642,Untere Rebgasse 17,47.5621419,7.592236799999999,4058
3643,Laufenstrasse 26,47.5418337,7.599125,4053
3644,Münsterberg  16,47.55555,7.591215,4051
3647,Froburgstrasse 19,47.5556478,7.6120025,4052
3648,Eulerstrasse 23,47.554763,7.581268300000001,4051
3649,Unter der Batterie 3,47.5300646,7.589568399999999,4059
3650,Grellingerstrasse 31,47.550133,7.6068948,4052
3651,Weiherhofstrasse 107,47.5476389,7.5582019,4054
3652,Freie Strasse 82,47.5544623,7.5914279,4051
3654,Rosentalstrasse 31,47.5653002,7.604218500000001,4058
3656,Röttelerstrasse 6,47.5692067,7.6171148,4058
3657,Arbedostrasse 15,47.5300952,7.5867665,4059
3658,Karl Barth-Platz 2,47.5477734,7.609092400000001,4052
3659,Schäublin-Strasse 93,47.533094,7.583680499999999,4059
3660,"Schützengraben 54, 56",47.55728999999999,7.5814212,4051
3662,Gotthelfstrasse 102,47.5569625,7.568788599999999,4054
3663,Oberwilerstrasse 82,47.5481223,7.576547999999999,4054
3665,Chrischonastrasse 53,47.5599323,7.6032851,4058
3666,Jurastrasse 67,47.5410228,7.5907521,4053
3667,"Hebelstrasse 75, 77, 79",47.56201590000001,7.5787596,4056
3668,Freie Strasse 45,47.55641869999999,7.5901877,4001
3669,Jurastrasse 46,47.54150509999999,7.590746500000001,4053
3670,Chrischonastrasse 37,47.55969820000001,7.6020312,4058
3672,Beckenstrasse 9,47.5720204,7.5750415,4056
3673,Schwarzwaldallee 20,47.5603697,7.6117635,4058
3674,Binningerstrasse 5,47.55066410000001,7.586637499999999,4051
3675,Hardstrasse 129,47.548889,7.608843599999999,4052
3677,Friedrichstrasse 9,47.55637189999999,7.574262999999998,4055
3678,Rixheimerstrasse 16,47.5605874,7.568847199999999,4055
3679,Markircherstrasse 60,47.5649481,7.5617354,4055
3680,"Oltingerstrasse 23, 25",47.56699810000001,7.5622451,4055
3681,Lehenmattstrasse 320,47.5446532,7.620559,4052
3682,"Rosentalstrasse 28, 30, 32",47.56495839999999,7.6042839,4058
