,street,latitude,longitude,plz
0,Allschwilerstrasse 13A,47.5552931,7.5741486,4054
1,Wanderstrasse 7,47.5526983,7.570276000000001,4054
2,"Bruderholzallee 172, 172A",47.5325502,7.5954357,4059
3,St. Johanns-Vorstadt 7,47.562592,7.5849299,4056
4,Farnsburgerstrasse 34,47.5551059,7.613420400000001,4052
5,St. Galler-Ring 198,47.5515051,7.567629399999999,4054
6,Thiersteinerallee,47.541435,7.597721600000001,4053
7,Florastrasse 34,47.5643898,7.5890467,4057
8,Theaterstrasse 20,47.5527615,7.5895882,4051
9,"Burgfelderstrasse 205, 211",47.56693300000001,7.5633718,4055
10,Hegenheimerstrasse 71,47.5607294,7.570588099999999,4055
11,Bruderholzstrasse,47.5427031,7.594012299999999,4053
12,Leimgrubenweg 13,47.5366069,7.607325499999999,4053
13,Dornacherstrasse 323,47.539365,7.6022654,4053
14,"Erasmusplatz 10, 11",47.5658059,7.5894568,4057
15,Kandererstrasse 12,47.5654724,7.590067100000001,4057
16,Hammerstrasse 61,47.5623517,7.5967551,4058
17,"Grienstrasse 98, 100",47.5604629,7.565258000000001,4055
18,Schertlingasse 22,47.551806,7.5852457,4051
19,Starenstrasse 30,47.5389255,7.587986299999999,4059
20,In den Ziegelhöfen 137,47.545102,7.558833899999999,4054
21,Drahtzugstrasse 65,47.564122,7.597836699999999,4057
22,Güterstrasse 136,47.5447701,7.5890255,4053
23,Bartenheimerstrasse 8,47.5604504,7.5707203,4055
24,Giornicostrasse 222,47.5269115,7.5935297,4059
25,Schönaustrasse 87,47.5689514,7.604402599999999,4058
26,St. Galler-Ring 144,47.553934,7.567090599999999,4054
27,Burgfelderstrasse 1,47.5618862,7.5735541,4055
28,Sulzerstrasse 10,47.5545115,7.5720953,4054
29,Davidsbodenstrasse 29,47.5656778,7.5767395,4056
30,Lenzgasse 24,47.5684629,7.5714976,4056
31,Wanderstrasse 67,47.5521676,7.565322699999999,4054
32,Bannwartweg 30,47.5595077,7.601700300000001,4058
33,Im Wasenboden 17,47.5697948,7.570809799999999,4056
34,Wasensträsschen 8,47.5707072,7.5697453,4056
35,Breisacherstrasse 95,47.56833779999999,7.588500199999999,4057
36,Markircherstrasse 8,47.5666099,7.5636262,4055
37,In den Schorenmatten 24,47.5706321,7.6094414,4058
38,Tellstrasse 26,47.5429444,7.5958476,4053
39,Heinrichsgasse 14,47.5565677,7.576251,4055
40,Drosselstrasse 33,47.5378368,7.588394999999999,4059
41,Münchensteinerstrasse 268,47.53727929999999,7.6079832,4053
42,"Bordeaux-Strasse 5, 7",47.5371348,7.6056981,4053
43,Spitalstrasse,47.5636318,7.5824879,
45,St. Alban-Ring 226,47.5476682,7.6083788,4052
46,Gotthardstrasse 80,47.5495499,7.562616599999999,4054
47,Glaserbergstrasse 50,47.566371,7.568276600000001,4056
48,Gundeldingerstrasse 470,47.53737109999999,7.6017771,4053
49,Wollbacherstrasse 25,47.5670318,7.6191869,4058
50,Scheltenstrasse 5,47.53407130000001,7.593019300000001,4059
51,Müllheimerstrasse 136,47.56876099999999,7.5924286,4057
52,"Peter Ochs-Strasse 35, 35 A",47.5305438,7.5944698,4059
53,Claragraben 137,47.5649209,7.5922581,4057
54,Oetlingerstrasse 39,47.567623,7.5892094,4057
55,Schweizergasse 28,47.5498808,7.577738999999999,4054
56,Leuengasse 37,47.5664185,7.5886878,4057
57,"Birmannsgasse 12, 12A, 12B",47.5581573,7.578208200000001,4055
58,In den Ziegelhöfen 128,47.545318,7.558688199999999,4054
59,Zürcherstrasse 127,47.5551989,7.612456,4052
60,Delsbergerallee 53,47.53976429999999,7.599743099999999,4053
61,Blauenstrasse 2,47.5559231,7.5737516,4054
62,Bläsiring 96,47.5684744,7.5915241,4057
63,Bläsiring 104,47.5684559,7.5919094,4057
64,Efringerstrasse 18,47.56816790000001,7.5966175,4057
65,Steinengraben 81,47.5522196,7.587013799999999,4051
66,Höhenweg 6,47.5471603,7.5836656,4053
67,Biascastrasse 34,47.5272833,7.591260200000001,4059
68,Hochstrasse 66,47.5442726,7.595556499999999,4053
69,Thannerstrasse 31,47.5542685,7.5735348,4054
70,Schützenmattstrasse 48,47.5550135,7.579476700000001,4051
71,Fatiostrasse 33,47.566811,7.5795055,4056
72,"Dornacherstrasse 393, 395",47.5381988,7.606485299999999,4053
73,Arabienstrasse 17,47.5322861,7.5895082,4059
74,Hirzbrunnenschanze 42,47.5667081,7.6162803,4058
75,Nägeliweg 4,47.5953678,7.646490099999999,4125
76,Eulerstrasse 20,47.5549423,7.5815524,4051
77,Spalenring 120,47.5561283,7.575187,4055
78,St. Alban-Ring 145,47.55071179999999,7.6108155,4052
79,Hegenheimerstrasse 242,47.56500279999999,7.561071099999999,4055
80,Bartenheimerstrasse 25,47.5597044,7.570306599999999,4055
81,Nonnenweg 19,47.55720590000001,7.5765582,4055
82,"Prattelerstrasse 21, 23",47.5456441,7.6136817,4052
83,Klybeckstrasse 250,47.57635699999999,7.588303700000001,4057
84,Missionsstrasse 26,47.559808,7.578170600000001,4055
85,Hardstrasse 103,47.5493952,7.607105000000001,4052
86,Unterer Rheinweg 102,47.56694239999999,7.5869351,4057
87,Steinentorstrasse 18,47.5519715,7.588953999999999,4051
88,Bruderholzrain 43,47.537381,7.5930023,4059
89,Pfeffingerstrasse 105,47.54150360000001,7.589508299999999,4053
90,Auf dem Wolf 28,47.540524,7.615378199999999,4052
91,Solothurnerstrasse 4,47.5457025,7.5913659,4053
92,Neuweilerstrasse 107,47.5458413,7.557029000000001,4054
93,Haltingerstrasse 68,47.565959,7.59499,4057
94,Spalenring 138,47.5552017,7.575370599999999,4055
95,Rudolfstrasse 16,47.5550857,7.574803899999999,4054
96,Steingrubenweg 59,47.5889901,7.6589988,4125
97,Theodorsgraben 42,47.5589489,7.599096800000001,4058
98,Schlachthofstrasse 18,47.5771293,7.569270699999999,4056
99,Bärenfelserstrasse 34,47.5676967,7.5878797,4057
100,Jungstrasse 12,47.5677542,7.579668700000001,4056
101,Lothringerstrasse 119,47.5703203,7.5752897,4056
102,Steinenvorstadt 62,47.551845,7.587485399999999,4051
103,Kleinhüningerstrasse 149,47.5788541,7.590264400000001,4057
104,Kleinhüningerstrasse 157,47.57915060000001,7.590380799999998,4057
105,Gundeldingerstrasse 501,47.5371957,7.603547,4053
106,Kannenfeldstrasse 9,47.5650737,7.573614000000001,4056
107,Paradieshofstrasse 155,47.5466487,7.558983400000001,4054
108,Neuweilerstrasse 10,47.5468236,7.5637261,4054
109,Maulbeerstrasse 47,47.5675608,7.602019599999999,4058
110,Reinacherstrasse 116,47.5372582,7.6038792,4053
111,Bachofenstrasse 6,47.5394772,7.590966399999999,4053
112,Wielandplatz 4,47.5531648,7.5713533,4054
113,Riehenstrasse 328,47.57010229999999,7.6168318,4058
114,Claragraben 150,47.5654961,7.5922277,4057
115,Utengasse 50,47.5593335,7.5939825,4058
116,Gundeldingerstrasse 457,47.537521,7.602485499999999,4053
117,Bruderholzallee 156,47.5321996,7.593797399999999,4059
118,Heinrichsgasse 18,47.55649469999999,7.576058499999999,4055
119,Spalenring 136,47.5552917,7.575357499999999,4055
120,Davidsbodenstrasse 59,47.5667205,7.5753663,4056
121,Tüllingerstrasse 62,47.56790609999999,7.617967299999998,4058
122,Auf der Alp 15,47.5257894,7.591785300000001,4059
123,Beim Buremichelskopf 15,47.5327967,7.586313700000001,4059
124,Klybeckstrasse 82,47.5667212,7.591054,4057
125,Aeneas Silvius-Strasse 30,47.5309505,7.5929704,4059
126,Aeneas Silvius-Strasse 28,47.5310896,7.5929647,4059
127,St. Johanns-Vorstadt 69,47.5652567,7.5828776,4056
128,Herrengrabenweg 5,47.5559872,7.572741999999999,4054
129,Hegenheimerstrasse 31,47.5602678,7.5731514,4055
130,Müllheimerstrasse 50,47.5660057,7.593162,4057
131,Westquaistrasse 75,47.5876876,7.589412200000001,4057
132,Riehenring 19,47.5616716,7.6007658,4058
133,Riehenring 21,47.5617438,7.6006465,4058
134,Maulbeerstrasse 19,47.567063,7.600307399999999,4058
135,Lenzgasse 22,47.5683999,7.571537299999999,4056
136,Solothurnerstrasse 78,47.5424194,7.588638400000001,4053
137,Bergalingerstrasse 29,47.5605347,7.610256,4058
138,Erlenstrasse 34,47.5683173,7.6004001,4058
139,Friedrichstrasse 25,47.5569113,7.5747372,4055
140,Näfelserstrasse 39,47.5577408,7.565472100000001,4055
141,Lerchenstrasse 39,47.5387965,7.590403200000001,4059
142,"Sägergässlein 2, 4",47.5612801,7.590972,4058
143,"Lothringerstrasse 98, 98A",47.5696282,7.576336599999999,4056
144,"St. Alban-Vorstadt 82, 82A",47.5538927,7.599844399999999,4052
145,Reiterstrasse 7,47.5490428,7.5658169,4054
146,St. Alban-Vorstadt 82,47.5538927,7.599844399999999,4052
147,Allschwilerplatz 1,47.5573005,7.5714256,4055
148,Steinenvorstadt,47.5525891,7.5883964,4051
149,Hauensteinstrasse 92,47.5342056,7.5934712,4059
150,Austrasse 109,47.5553445,7.5763541,4051
151,Hirzbrunnenallee 26,47.566727,7.612634600000001,4058
152,Rümmingerstrasse 42,47.5650452,7.620811300000001,4058
153,Riehenstrasse 157,47.5652824,7.6060346,4058
154,Wanderstrasse 10,47.552969,7.5695327,4054
155,Passwangstrasse 62,47.5344939,7.5931002,4059
156,Adlerstrasse 18,47.5473319,7.6096224,4052
157,Elsässerstrasse 24,47.5689351,7.579862499999999,4056
158,Schützenmattstrasse 12,47.5571104,7.582186999999998,4051
159,Hirzbrunnenschanze 56,47.5662992,7.6164011,4058
160,Wettsteinallee 73,47.5613264,7.6032495,4058
161,Thumringerstrasse 5,47.5676013,7.6172752,4058
162,Im Holeeletten 15,47.5468113,7.566794499999999,4054
163,Näfelserstrasse 45,47.5575425,7.565305599999999,4055
164,Feierabendstrasse 73,47.5536506,7.5789404,4051
165,Sustenstrasse 29,47.5450465,7.560294900000001,4054
166,Birsfelderstrasse 35,47.5557401,7.616278899999999,4052
167,Bruderholzstrasse 114,47.5407707,7.591839599999999,4053
168,Lothringerstrasse 107,47.5699082,7.575633799999999,4056
169,"Hagenaustrasse 40, 40A",47.5731064,7.569077,4056
170,Dammerkirchstrasse 4,47.5681721,7.568352600000001,4056
171,"Voltastrasse 27, 29, 31",47.5704924,7.581762100000001,4056
172,Kaysersbergerstrasse 65,47.5652784,7.561209600000001,4055
173,Hegenheimerstrasse 160,47.563326,7.5659076,4055
174,Nidwaldnerstrasse 50,47.55893770000001,7.563651699999999,4055
175,Steinenvorstadt 14,47.5534607,7.588730900000001,4051
176,Solothurnerstrasse 18,47.5453755,7.590842599999999,4053
177,Oppenheim-Strasse 80,47.5455063,7.5900636,4053
178,Steinenbachgässlein 4,47.5533844,7.5885538,4051
179,Margarethenstrasse 40,47.54663550000001,7.583712899999999,4053
180,Jakobsbergerstrasse 79,47.53292,7.601989999999999,
181,Reservoirstrasse,47.5291208,7.5951483,4059
182,Zur Gempenfluh,47.5294695,7.6015203,4059
183,Reservoirstrasse 200,47.5277158,7.594160800000001,4059
184,Jakobsbergerholzweg 121,47.5326239,7.5992036,4059
185,"Jakobsbergerstrasse 105,",47.53292,7.601989999999999,
186,Dornacherstrasse 339,47.5389067,7.6032737,4053
187,Hauensteinstrasse 116,47.53419299999999,7.594778,4059
188,Bruderholzallee 55,47.5339132,7.587433299999999,4059
189,Forellenweg,47.5511411,7.621706,4052
190,St. Alban-Vorstadt 81,47.5539341,7.6001872,4052
191,"Sissacherstrasse 10, 12",47.4653663,7.8495674,4460
192,Zürcherstrasse 180,47.5554999,7.6147285,4052
193,Grellingerstrasse 50,47.5494046,7.6061839,4052
194,Zürcherstrasse 70,47.5549675,7.6121962,4052
195,Hagenbachstrasse 28,47.5473227,7.6013276,4052
196,"Freiburgerstrasse 26, 36",47.5768389,7.603159000000001,4057
197,Riehenstrasse,47.566301,7.609150399999999,4058
198,"Riehenstrasse 351, 375",47.56936080000001,7.6148168,4058
199,Lange Erlen,47.574329,7.608353999999999,4058
200,Allmendstrasse,47.5658989,7.6214828,4058
201,Allmendstrasse 146,47.5648756,7.622541999999999,4058
202,"Schleifenbergstrasse 12,",47.5618011,7.6052857,4058
203,"Grenzacherstrasse 511,",47.562744,7.6314769,4058
204,"Dolderweg 3, 5,",47.5609152,7.594833,4058
205,Neuhausstrasse  31,47.5836589,7.5958877,4057
206,"Mülhauserstrasse 111, 113, 115",47.56684689999999,7.5768356,4056
207,Farnsburgerstrasse 51,47.55464629999999,7.6140433,4052
208,Holeestrasse 49,47.5447097,7.572209000000001,4054
209,Delsbergerallee 6,47.5422453,7.6006272,4053
210,Göschenenstrasse 44,47.5472763,7.560911000000001,4054
211,Clarahofweg 23,47.562144,7.597365699999999,4058
212,Austrasse 25,47.5527096,7.5835611,4051
213,Furkastrasse 55,47.5482911,7.561496500000001,4054
214,Rümmingerstrasse 15,47.5658065,7.6205647,4058
215,"Schönaustrasse 56, 58, 60",47.5683091,7.603243999999999,4058
216,Im Heimatland 6,47.5646458,7.615072800000001,4058
217,St. Alban-Rheinweg 118,47.554966,7.6045585,4052
218,Knöringerstrasse 4,47.5634583,7.567206499999998,4055
219,Oberalpstrasse 46,47.549746,7.564330699999999,4054
220,"General Guisan-Strasse,",47.549815,7.565890699999999,4054
221,Baldeggerstrasse 54,47.5527999,7.615830700000001,4052
222,Palmenstrasse 5,47.5569116,7.574445,4055
223,Hauensteinstrasse 120,47.5339247,7.595010899999999,4059
224,Theodorsgraben 36,47.5587153,7.5988968,4058
225,Beim goldenen Löwe,47.5537694,7.5966288,4052
226,Steinentorstrasse 8,47.5523155,7.5893124,4051
227,Sevogelstrasse 64,47.5499503,7.6025635,4052
228,Im Heimatland 4,47.5646818,7.6150331,4058
229,Pfeffingerstrasse 62,47.5432932,7.590575399999999,4053
230,Pfirtergasse 27,47.54890229999999,7.5785559,4054
231,"Mathilde Paravincini-Strasse 5, 7, 9, 11",47.5485812,7.603993999999999,4052
232,Oberer Batterieweg 29,47.5323064,7.5877553,4059
233,"Delsbergerallee 19,",47.5414626,7.600823999999999,4053
234,Pfirtergasse 28,47.5490017,7.5781975,4054
235,Im langen Loh 59,47.5546128,7.563159700000001,4054
236,Weisse Gasse 14,47.5556969,7.5895611,4001
237,"Falknerstrasse 29,",47.5556671,7.589432,4001
238,Lothringerstrasse 113,47.5701268,7.575490200000001,4056
239,Rheingasse 66,47.559128,7.5931418,4058
240,Fürstensteinerstrasse 14,47.5381762,7.597123300000001,4053
241,Nufenenstrasse 12,47.5495671,7.563333999999999,4054
242,Hirzbrunnenallee 27,47.5675265,7.6132352,4058
243,Peter Ochs-Strasse 40,47.5306899,7.594012299999999,4059
244,Hochwaldstrasse 11,47.53023229999999,7.6022604,4059
245,Offenburgerstrasse 49,47.5693856,7.589307399999999,4057
246,Paradieshofstrasse 128,47.5474404,7.5587727,4054
247,Elsässerstrasse 129,47.5725949,7.575959999999999,4056
248,Offenburgerstrasse 32,47.56909900000001,7.588389599999999,4057
249,"Riehenring 12, 14",47.5615411,7.602242800000001,4058
250,Marktgasse 8,47.5594827,7.5871276,4051
251,Florastrasse 17,47.5644457,7.5902958,4057
252,Vogesenstrasse 102,47.5682824,7.576137399999999,4056
253,Sustenstrasse 9,47.5456944,7.559937700000001,4054
254,Sommergasse 42,47.56426870000001,7.5742378,4056
255,St. Alban-Vorstadt 82A,47.5536124,7.599535700000001,4052
256,Wanderstrasse 2,47.5530043,7.570130699999999,4054
257,Brombacherstrasse 4,47.5704298,7.595410199999999,4057
258,Hirzbrunnenschanze 10,47.5670283,7.615625499999999,4058
259,Gerbergasse 63,47.5554999,7.588882900000001,4001
260,Blumenrain 24,47.561147,7.586853899999999,4051
261,Friedrichstrasse 22,47.5565964,7.574856,4055
262,Bläsiring 103,47.5687411,7.592584099999999,4057
263,Wasgenring 137,47.5591708,7.564910899999998,4055
264,Schaffhauserrheinweg 83,47.5573785,7.6029982,4058
265,General Guisan-Str. 104,47.5498856,7.5652081,4054
266,Hebelstrasse 131,47.5641223,7.576376700000001,4056
267,Erstfeldstrasse 68,47.5480139,7.560819700000001,4054
268,"Giornicostrasse 102,",47.5280539,7.6000264,4059
269,Lerchenstrasse 91,47.5368822,7.589361799999999,4059
270,Birsigstrasse 109,47.550216,7.578081199999999,4054
271,Gundeldingerrain 111,47.5345764,7.5919052,4059
272,Unterer Heuberg 10,47.556276,7.5869341,4051
273,Hammerstrasse 73,47.5632337,7.596266099999998,4057
274,Weiherhofstrasse 188,47.5462815,7.557508200000001,4054
275,Laupenring 141,47.5480522,7.5669835,4054
276,Kleinhüningerstrasse 87,47.5768147,7.589115700000001,4057
277,Sierenzerstrasse 19,47.56020059999999,7.569978999999999,4055
278,"Lyon-Strasse 37, 41",47.5335401,7.606470600000001,4053
279,Allmendstrasse 10,47.5697151,7.617122800000001,4058
280,Pfeffelstrasse 22,47.55930069999999,7.571321999999999,4055
281,Gundeldingerstrasse 91,47.5433082,7.5838494,4053
282,Gotthelfstrasse 22,47.5529963,7.569200700000001,4054
283,Bruderholzallee 66,47.5330247,7.588686999999999,4059
284,Flughafenstrasse 51,47.5680869,7.5699684,4056
285,Feldbergstrasse 128,47.5670939,7.596379599999999,4057
286,Wettsteinallee 89,47.5611824,7.604569099999999,4058
287,Peter Rot-Strasse 84,47.56145069999999,7.604379299999999,4058
288,Palmenstrasse 22,47.5565313,7.5735086,4055
289,Klybeckstrasse 7,47.5648981,7.5912056,4057
290,Nufenenstrasse 54,47.5508177,7.5629649,4054
291,Rennweg 55,47.55068,7.6080124,4052
292,Steinbühlallee 153,47.5479618,7.5574014,4054
293,Erstfeldstrasse 61,47.5478067,7.5611513,4054
294,Rütimeyerstrasse 62,47.5482039,7.575923899999999,4054
295,Birkenstrasse 24,47.5572706,7.573358399999999,4055
296,Realpstrasse 61,47.5479362,7.566146300000001,4054
297,"Auberg 13, 15",47.55231130000001,7.584637,4051
298,Gotthelfstrasse 84,47.5558926,7.568915499999999,4054
299,Riehentorstrasse 33,47.55997790000001,7.5963362,4058
300,Gundeldingerstrasse 445,47.5378012,7.601490300000001,4053
301,Pfirtergasse 9,47.549612,7.5792486,4054
302,Breisacherstrasse 59,47.5667422,7.5887153,4057
303,Markircherstrasse 25,47.56551349999999,7.5629193,4055
304,Wettsteinallee 40,47.5601785,7.600867600000001,4058
305,Südquaistrasse 9,47.5865664,7.5933625,4057
306,Rüdengasse 1,47.5567497,7.589138899999999,4001
307,Marschalkenstrasse 36,47.5497987,7.5735103,4054
308,Pfeffingerstrasse 94,47.5419318,7.589434700000001,4053
309,"Friedrichstrasse 20,",47.5565335,7.574789399999999,4055
310,Knöringerstrasse 3,47.563278,7.5675515,4055
311,Weiherhofstrasse 172,47.5466592,7.557602,4054
312,Lyon-Strasse 26,47.5345469,7.606792500000001,4053
313,Frankfurt-Strasse 8,47.5351728,7.607246699999999,4053
314,"Rittergasse 22, 22A, 24",47.5547827,7.5939959,4051
315,Wasgenring 119,47.5597464,7.5648325,4055
316,Steinbühlallee 37,47.55119999999999,7.5586084,4054
317,Gotthelfstrasse 106,47.5571513,7.56873,4054
318,Augustinergasse 15,47.5575477,7.5909879,4051
319,"Hiltalingerstrasse 5, 5A, 7",47.58538009999999,7.5933405,4057
320,Weiherhofstrasse 152,47.5472616,7.557762699999999,4054
321,Amerbachstrasse 21,47.5694183,7.591832500000001,4057
322,Rufacherstrasse 30,47.55839880000001,7.571658599999998,4055
323,Grellingerstrasse 62,47.5492223,7.605695599999999,4052
324,Kannenfeldstrasse 40,47.5637027,7.573758,4056
325,Peter Rot-Strasse 98,47.5620444,7.604314699999999,4058
326,Alemannengasse 15,47.5580851,7.5993732,4058
327,"Römergasse 19, 21",47.5583822,7.5991216,4058
328,Theodorsgraben 32,47.5585535,7.598803299999999,4058
329,Sommergasse 37,47.5639901,7.5740776,4056
330,Rotbergerstrasse 15,47.5487236,7.577625599999999,4054
331,Bärschwilerstrasse 24,47.5415784,7.5950333,4053
332,Im Margarethenletten 5,47.5465862,7.582442,4053
333,Rennweg 74,47.5500754,7.609392100000001,4052
334,Birsstrasse 114,47.5509658,7.621532500000001,4052
335,Binzenstrasse 13,47.5672045,7.6179649,4058
336,Socinstrasse 16,47.55756299999999,7.578844399999999,4051
337,Blotzheimerstrasse 11,47.5613111,7.567782999999999,4055
338,Lehenmattstrasse 329,47.544869,7.6207075,4052
339,Wasgenring 167,47.5580205,7.565060600000001,4055
340,Reiterstrasse 46,47.547488,7.564830199999999,4054
341,Wasserstrasse 15,47.5698291,7.579939700000001,4056
342,Augustinergasse 19,47.5574216,7.591133699999999,4051
343,Neubadstrasse 135,47.5470998,7.5661709,4054
344,Feldbergstrasse 56,47.56619509999999,7.591358899999999,4057
345,Strassburgerallee 108,47.561038,7.5680909,4055
346,Haltingerstrasse 9,47.565524,7.591887700000001,4057
347,Pruntruterstrasse 5,47.5461001,7.5810301,4053
348,Auf der Alp 9,47.5259595,7.5917524,4059
349,Barfüsserplatz 12,47.5545321,7.5886795,4051
350,Birsigstrasse 95,47.5499811,7.5790368,4054
351,Bergalingerstrasse 3,47.5597059,7.610618700000001,4058
352,Passwangstrasse 4,47.5371009,7.5939843,4059
353,Margarethenstrasse 87,47.5446164,7.5825562,4053
354,Eichenstrasse 55,47.5543449,7.569642399999999,4054
355,Haltingerstrasse 24,47.5656476,7.593589,4057
356,"Karpfenweg 15, 17",47.5507715,7.6193008,4052
357,"Allschwilerstrasse 31, 33",47.5559028,7.5733284,4055
358,St. Alban-Rheinweg 96,47.5549495,7.603469,4052
359,St.  Alban- Rheinweg 94,47.5549252,7.603139299999999,4052
360,St. Alban-Rheinweg 94,47.5549252,7.603139299999999,4052
361,Göschenenstrasse 67,47.5469887,7.560750899999999,4054
362,Güterstrasse 138,47.5447321,7.5891816,4053
363,"St. Alban-Rheinweg 94, 96",47.5549252,7.603139299999999,4052
364,Reussstrasse 91,47.5498944,7.559987099999999,4054
365,"Grellingerstrasse 79, 81, 83, 85",47.5483182,7.605507500000001,4052
366,"Güterstrasse 199, 201, 203, 205",47.5433613,7.5934446,4053
367,Andreas Heusler-Strasse 16,47.5474855,7.6029146,4052
368,Göschenenstrasse 75,47.5469302,7.5603497,4054
369,Voltastrasse 75,47.5706418,7.577151,4056
370,Voltastrasse 79,47.57066020000001,7.5768587,4056
371,"Voltastrasse 81,",47.5706693,7.5767126,4056
372,Voltastrasse 83,47.5706785,7.5765664,4056
373,Güterstrasse 229,47.5424763,7.596178200000001,4053
374,Landskronstrasse 46,47.5683099,7.5763094,4056
375,Schöllenenstrasse 21,47.5510227,7.5646924,4054
376,Lachenstrasse 9,47.56816810000001,7.569155299999999,4056
377,Wasgenring 99,47.56067290000001,7.5647018,4055
378,Wasgenring 47,47.5623608,7.564282399999999,4055
379,Alemannengasse 67A,47.558017,7.60304,4058
380,Auf dem Wolf 17,47.54083199999999,7.6139448,4052
381,"Pilgerstrasse 2, 4, 6",47.5597807,7.5773738,4055
382,Seltisbergerstrasse 27,47.5288182,7.6002014,4059
383,Byfangweg 33,47.55155329999999,7.581898,4051
384,Rufacherstrasse 20,47.558156,7.572290400000001,4055
385,Gartenstrasse 103,47.5479912,7.5932778,4052
386,Murbacherstrasse 44,47.56902669999999,7.576268900000001,4056
387,Thiersteinerrain 132,47.5357057,7.594909899999999,4059
388,Marignanostrasse 92,47.5325448,7.584104000000001,4059
389,Thiersteinerrain 154,47.5350612,7.5944137,4059
390,Seltisbergerstrasse 84,47.5275646,7.5961077,4059
391,Hegenheimerstrasse 119,47.5619832,7.567269400000001,4055
392,Im langen Loh 245,47.5480355,7.560239900000001,4054
393,Wielandplatz 2,47.5532516,7.571818,4054
394,Im Heimatland 12,47.5645377,7.6151787,4058
395,Rümmingerstrasse 30,47.5653389,7.62051,4058
396,Hegenheimerstrasse 137,47.5624152,7.5669678,4055
397,Haltingerstrasse 23,47.565828,7.593217399999999,4057
398,Grellingerstrasse 25,47.5503666,7.6070151,4052
399,Arbedostrasse 8,47.5307885,7.586091199999998,4059
400,Leonhardsgraben 2,47.5569004,7.583785000000001,4051
401,Hammerstrasse 135,47.5675076,7.5948834,4057
402,Bartenheimerstrasse 38,47.5596061,7.5697217,4055
403,Steinbühlallee 177,47.5473611,7.5571917,4054
404,Nufenenstrasse 50,47.5507007,7.5630178,4054
405,Solothurnerstrasse 70,47.542705,7.588903299999999,4053
406,Schaffhauserrheinweg 95,47.5574494,7.6037291,4058
407,"St. Galler-Ring 80, 82, 84",47.55673150000001,7.566738600000001,4055
408,"Neuweilerstrasse 87, 89, 91, 93",47.5459296,7.558596599999999,4054
409,"Amerbachstrasse 39, 41",47.5694271,7.593022099999999,4057
410,Greifengasse 11,47.5612259,7.591805399999999,4058
411,Solothurnerstrasse 81,47.5422569,7.589009499999999,4053
412,Lenzgasse 4A,47.5677252,7.5717349,4056
413,Grienstrasse 117,47.5599879,7.5656743,4055
414,Jurastrasse 57,47.541366,7.591063699999999,4053
416,"Aeschenplatz 7, 9",47.5517755,7.5955602,4052
417,Schwarzwaldallee 41,47.5604786,7.6110995,4058
418,Mostackerstrasse 7,47.5554687,7.5820608,4051
419,Bäumlihofstrasse 51,47.5635865,7.6137405,4058
420,"Eichhornstrasse 25, 27",47.535267,7.6004533,4059
421,Picassoplatz 4,47.5533602,7.5954164,4052
422,"Güterstrasse 244, 248",47.5419322,7.5970984,4053
423,Rudolfstrasse 21,47.55494119999999,7.575144099999999,4054
424,Gerbergasse 54,47.5557251,7.5885913,4001
425,Gasstrasse 56,47.5694301,7.575127900000001,4056
426,Matthäusstrasse 8,47.5668557,7.591399900000001,4057
427,Feierabendstrasse 15,47.5517215,7.582148799999999,4051
428,Hagentalerstrasse 14,47.5615311,7.572171200000001,4055
429,Rheinländerstrasse 16,47.5635991,7.577717399999999,4056
430,Neuhausstrasse 1,47.5827726,7.5928677,4057
431,Kleinhüningeranlage 21,47.58315839999999,7.5934936,4057
432,Peter Rot-Strasse 115,47.5627738,7.603652599999999,4058
433,Blochmonterstrasse 7,47.54700889999999,7.5749379,4054
434,Dreirosenstrasse,47.5704776,7.587229199999999,4057
435,Spalenvorstadt 29,47.5574671,7.5821006,4051
436,"Güterstrasse 91, 93",47.5463212,7.5858152,4053
437,Grenzacherstrasse 94,47.5586225,7.603518399999999,4058
438,Largitzenstrasse 86,47.56599139999999,7.5666267,4056
439,Mittlere Strasse 150,47.56486169999999,7.5747575,4056
440,Palmenstrasse 28,47.5562925,7.573234399999999,4055
441,Erstfeldstrasse 52,47.5482193,7.562201699999999,4054
442,Hasenmattstrasse 6,47.5335015,7.5914259,4059
443,Mörsbergerstrasse 42,47.5675632,7.593647700000001,4057
444,Rufacherstrasse 58,47.5593654,7.5694744,4055
445,St. Alban-Vorstadt 60,47.554174,7.598484600000001,4052
446,Mülhauserstrasse 123,47.5664707,7.576140799999999,4056
447,Chrischonastrasse 57,47.55995009999999,7.6034579,4058
448,Blauenstrasse 35,47.5548263,7.5733768,4054
449,Hirzbrunnenschanze 6,47.5669565,7.6154924,4058
450,Oberwilerstrasse 80,47.5481851,7.576654500000001,4054
451,"Rebgasse 12, 14",47.5610063,7.5935539,4058
452,Bäumlihofstrasse 177,47.5662943,7.619211,4058
453,Bernerring 1,47.5462174,7.5750023,4054
454,Paradieshofstrasse 64,47.549886,7.559508800000001,4054
455,Furkastrasse 61,47.54841769999999,7.561461399999999,4054
456,Riehenstrasse 167,47.5657192,7.6068243,4058
457,Rufacherstrasse 84,47.5600399,7.5678626,4055
458,Bachlettenstrasse 76,47.548157,7.577571,4054
459,Unterer Batterieweg 129,47.53814550000001,7.586084899999999,4059
460,Drosselstrasse 29,47.5379804,7.588568100000001,4059
461,Alemannengasse 14,47.5578922,7.5992659,4058
462,Riehentorstrasse 18,47.55922289999999,7.5960018,4058
463,Giornicostrasse 104,47.528126,7.599960199999999,4059
464,Riehenring 190,47.5733948,7.598267700000001,4058
465,"Kohlenberggasse 19, 21, 23",47.55267740000001,7.5877059,4051
466,Luzernerring 122,47.5661413,7.564502099999999,4056
467,Hirzbrunnenschanze 48,47.5664601,7.616633599999999,4058
468,Hirzbrunnenschanze 8,47.5669924,7.615558900000001,4058
469,Bärenfelserstrasse 47,47.5680343,7.5875667,4057
470,Spalentorweg 41,47.5555119,7.5792375,4051
471,Kahlstrasse 16,47.5450802,7.5926261,4053
472,Ryffstrasse 42,47.5681707,7.5773556,4056
473,Clarastrasse 56,47.56309539999999,7.5987505,4058
474,Mittlere Strasse 147,47.564541,7.5746214,4056
475,Gasstrasse 47,47.5692964,7.5757049,4056
476,Schützenmattstrasse 31,47.55582090000001,7.581127,4051
477,Palmenstrasse 26,47.5563949,7.5733563,4055
478,Morgartenring 2,47.5569406,7.5646798,4054
479,Edisonstrasse 3,47.5464186,7.583082000000001,4053
480,Nadelberg 7,47.5586856,7.585733299999999,4051
481,Bäumlihofstrasse 73,47.5639629,7.614645299999999,4058
482,Schäublinstrasse 115,47.5322942,7.5831339,4059
483,Gartenstrasse 1,47.5512962,7.598343099999999,4052
484,Gartenstrasse 3,47.5511885,7.598196600000001,4052
485,Gartenstrasse 5,47.5510718,7.598050199999999,4052
486,Göschenenstrasse 50,47.5472316,7.5606718,4054
487,Neuweilerstrasse 41,47.5461751,7.5614271,4054
488,Im Heimatland 3,47.5647813,7.614661300000001,4058
489,Flughafenstrasse 48,47.5681222,7.570633,4056
490,Kleinriehenstrasse 68,47.5676633,7.6153803,4058
491,Hirzbrunnenstrasse 7,47.5681798,7.613731399999999,4058
492,Tüllingerstrasse 60,47.5679691,7.6178877,4058
493,Lenzgasse 10,47.5679948,7.5718818,4056
494,Dorfstrasse 11,47.5822249,7.5921616,4057
495,Pfeffingerstrasse 69,47.5431848,7.5909204,4053
496,Krachenrain 12,47.5361521,7.590581599999999,4059
497,Grellingerstrasse 12,47.551392,7.6069784,4052
498,Hirzbrunnenschanze 78,47.5661084,7.6172436,4058
499,Im Heimatland 80,47.5649404,7.6164956,4058
500,Rebgasse 66,47.5591327,7.596200799999999,4058
501,Blauenstrasse 40,47.5548717,7.572991600000001,4054
502,"Blotzheimerstrasse 15, 17",47.5613085,7.567453800000001,4055
503,Schwarzwaldallee 27,47.5600556,7.611337299999999,4058
504,Nonnenweg 47,47.55870969999999,7.575481599999999,4055
505,Angensteinerstrasse 35,47.5500203,7.604488799999999,4052
506,Im Zimmerhof 2,47.554484,7.573840899999999,4054
507,Allschwilerstrasse 75,47.5572749,7.569924999999999,4055
508,Lehenmattstrasse 200,47.5497161,7.620948200000001,4052
509,General Guisan-Str. 51,47.5506234,7.567959399999999,4054
510,Metzerstrasse 16,47.5644019,7.5778553,4056
511,Laupenring 129,47.547449,7.567566500000001,4054
512,"Bruderholzstrasse 172, 172A",47.5325502,7.5954357,4059
513,St. Jakobs-Strasse 3,47.5509309,7.595844499999999,4052
514,Blauenstrasse 86,47.5535147,7.572124699999999,4054
515,Auf dem Hummel 28,47.53071689999999,7.592823699999999,4059
516,Gemsberg 5,47.55670509999999,7.586401,4051
517,Austrasse 98,47.55518619999999,7.5781536,4051
518,Näfelserstrasse 16,47.5587045,7.5659719,4055
519,"Wiesendamm 20, 22",47.5807497,7.592356799999998,4057
520,Hardrain 18,47.5457373,7.6174146,4052
521,Horburgstrasse 80,47.5709425,7.595411700000001,4057
522,Hirzbrunnenschanze 68,47.5661993,7.616645999999999,4058
523,Gundeldingerstrasse 430,47.5379475,7.5997641,4053
524,"Grenzacherstrasse 69, 71",47.5592152,7.601608700000001,4058
525,Schönaustrasse 10,47.5675795,7.599475000000001,4058
526,Kleinhüningerstrasse 138,47.5783418,7.590328899999999,4057
527,St. Alban-Kirchrain 2,47.5536468,7.602535,4052
528,St. Alban- Rheinweg 96,47.5549495,7.603469,4052
529,Thumringerstrasse 11,47.5677895,7.6177542,4058
530,Unterer Batterieweg 25,47.5406771,7.5869243,4053
531,Holeestrasse 31,47.54452879999999,7.573124999999999,4054
532,Mülhauserstrasse 50,47.5686955,7.580215799999999,4056
533,Hardstrasse 143,47.5483489,7.609173999999999,4052
534,Aeschengraben 26,47.5504494,7.592708,4051
535,Wollbacherstrasse 4,47.5663582,7.618546699999999,4058
536,Spalenvorstadt 9,47.5570449,7.583307099999999,4051
537,Hirzbodenweg 84,47.54862199999999,7.606876700000001,4052
538,Gerbergässlein 2,47.5564457,7.5877563,4051
539,Andreas Heusler-Strasse 30,47.5471263,7.602501699999999,4052
540,Mittlere Strasse 36,47.5615028,7.5783896,4056
541,Gundeldingerrain 113,47.5344594,7.5920111,4059
542,Hegenheimerstrasse 108,47.5621447,7.5676418,4055
543,Hegenheimerstrasse 110,47.56221679999999,7.567522400000001,4055
544,Muespacherstrasse 55,47.5623066,7.567602299999999,4055
545,Muespacherstrasse 53,47.5623605,7.567668899999999,4055
546,"Muespacherstrasse 51,",47.56241439999999,7.5677222,4055
547,Muespacherstrasse 49,47.5624773,7.567788800000001,4055
548,Lerchenstrasse 65,47.5377446,7.590094700000001,4059
549,Wanderstrasse 24,47.55285360000001,7.568203899999999,4054
550,Im tiefen Boden 36,47.5305234,7.590652800000001,4059
551,Riehenring 99,47.565525,7.5978276,4058
552,Tellstrasse 54,47.5430414,7.597282399999999,4053
553,Münsterberg 4,47.5552416,7.5911471,4051
554,Rütlistrasse 32,47.5547859,7.5771897,4051
555,Delsbergerallee 56,47.5404572,7.599479499999999,4053
556,Schweizergasse 42,47.5500374,7.5769914,4054
557,Feldbergstrasse 146,47.5672168,7.5970884,4057
558,Schwarzwaldallee 101,47.5628822,7.6095393,4058
559,Heuberg 6,47.5565209,7.585165699999998,4051
560,Drosselstrasse 35,47.53779189999999,7.5883152,4059
561,Riehenring 25,47.561888,7.600407700000001,4058
562,Marignanostrasse 21,47.5351683,7.5863025,4059
563,Amerbachstrasse 78,47.5692159,7.5952738,4057
564,Leimenstrasse 59,47.552298,7.5809776,4051
565,Klybeckstrasse 40,47.5646699,7.5916328,4057
566,Hirzbrunnenallee 35,47.5673193,7.613460399999999,4058
567,Lehenmattstrasse 189,47.5504312,7.621137399999999,4052
568,Türkheimerstrasse 60,47.5595841,7.573282499999999,4055
569,Landskronstrasse 4,47.56939879999999,7.5787425,4056
570,Neuensteinerstrasse 26,47.5400402,7.601310100000001,4053
571,Efringerstrasse 96,47.5707591,7.5965639,4057
572,Gärtnerstrasse 112,47.5794272,7.592632099999999,4057
573,Utengasse 44,47.5595048,7.5936774,4058
574,Frobenstrasse 37,47.544574,7.585875100000001,4053
575,Allschwilerstrasse 69,47.5567417,7.571250399999999,4055
576,Bachofenstrasse 15,47.53927299999999,7.5905241,4053
577,Schützenmattstrasse 83,47.5534269,7.577983199999999,4051
578,Beim Wasserturm 29,47.5265526,7.592957699999999,4059
579,Im langen Loh 272,47.5465492,7.559581,4054
580,Klingental 15,47.5616681,7.590056300000001,4058
581,Feldbergstrasse 12,47.565466,7.5880473,4057
582,Hauensteinstrasse 136,47.53353629999999,7.596258100000001,4059
583,"Augustinergasse 1, 3",47.557953,7.5905374,4051
584,Weiherweg 24,47.5540841,7.577440299999999,4054
585,"Reinacherstrasse 259, 261",47.5332765,7.6053306,4053
586,General Guisan-Strasse 51,47.5506234,7.567959399999999,4054
587,Blauenstrasse 51,47.5542062,7.572950100000001,4054
588,Grellingerstrasse 87,47.5482203,7.6048297,4052
589,Blauenstrasse 7,47.55565319999999,7.573905999999999,4054
590,Jakobsbergerholzweg 4,47.53419239999999,7.6045331,4053
591,Metzerstrasse 11,47.5640393,7.578157099999999,4056
592,Mittlere Strasse 143,47.564412,7.574743100000001,4056
593,Bündnerstrasse 52,47.5591886,7.5661356,4055
594,Klingentalstrasse 71,47.56477049999999,7.5971343,4057
595,Eichhornstrasse 15,47.5350329,7.6002334,4059
596,Lindenberg 21,47.5590439,7.5951167,4058
597,St. Galler-Ring 197,47.55158549999999,7.5681477,4054
598,Dornacherstrasse 145,47.5427009,7.591488200000001,4053
599,Käferholzstrasse 127,47.5651958,7.6200045,4058
600,Hegenheimerstrasse 64,47.5611072,7.570482799999999,4055
601,Erlenstrasse 46,47.5685005,7.60107,4058
602,Marignanostrasse 91,47.5322665,7.584437400000001,4059
603,Burgfelderstrasse 33,47.5627516,7.571789,4055
604,"Gartenstrasse 1, 3, 5",47.5512962,7.598343099999999,4052
605,Fürstensteinerstrasse 50,47.5373999,7.5990055,4053
606,Gärtnerstrasse,47.57774999999999,7.591799999999999,4057
607,Allschwilerstrasse 117,47.5570572,7.5668087,4055
608,Kandererstrasse 36,47.5657577,7.5909964,4057
609,Fäschengasse 5,47.5302284,7.594933699999999,4059
610,Steinenring 48,47.5507443,7.5800354,4051
611,Kleinriehenstrasse 62,47.5675438,7.615177,4058
612,Hammerstrasse 114,47.5659213,7.5956299,4057
613,Largitzenstrasse 54,47.5667581,7.567617899999999,4056
614,Bachofenstrasse 20,47.53968709999999,7.590206499999999,4053
615,Elsässerstrasse 79,47.5701098,7.5782925,4056
616,Gemsberg 9,47.5562944,7.5864937,4051
617,Brunnmattstrasse 11,47.5401607,7.5905476,4053
618,Weiherhofstrasse 94,47.5487361,7.558217699999999,4054
619,Fürstensteinerstrasse 32,47.5377524,7.597744799999999,4053
620,Blauensteinerstrasse 4,47.5442414,7.582370199999999,4053
621,Thiersteinerallee 52,47.5412427,7.597223899999999,4053
622,Riehenstrasse 276,47.5680483,7.613104,4058
623,Sevogelstrasse 9,47.5518921,7.605041600000001,4052
624,Glaserbergstrasse 69,47.5654814,7.567570099999999,4056
625,Drosselstrasse 38,47.5373437,7.5871717,4059
626,Vogesenstrasse 23,47.5658647,7.578427599999999,4056
627,Lenzgasse 2,47.5675726,7.571428900000001,4056
628,Horburgstrasse 112,47.5716567,7.5969675,4057
629,Friedensgasse 56,47.5617129,7.576781999999999,4056
630,Färberstrasse 3,47.5767837,7.5921859,4057
631,Giessliweg 70,47.5803023,7.5905611,4057
632,Ackerstrasse 45,47.5780895,7.5908339,4057
633,Morgartenring 176,47.5501673,7.5655538,4054
634,Predigerhofstrasse 77,47.5242177,7.5902821,4059
635,Klingentalgraben 33,47.5641764,7.590754400000001,4057
636,Pfeffelstrasse 21,47.5591993,7.5715941,4055
637,Winkelriedplatz 9,47.5429021,7.5887153,4053
638,Gasstrasse 3,47.5704013,7.5778392,4056
639,Breisacherstrasse 11,47.564277,7.589479,4057
640,Klybeckstrasse 174,47.5704992,7.5905863,4057
641,Alemannengasse 27,47.55792049999999,7.600492099999999,4058
642,Hardstrasse 8,47.5517864,7.6015595,4052
643,Gellertstrasse 41,47.5516515,7.6139405,4052
644,Kirchgasse 11,47.5591126,7.597875800000001,4058
645,Freie Strasse 2A,47.5575468,7.5883938,4001
646,Maiengasse 61,47.5607195,7.577352400000001,4056
647,St. Jakobs-Strasse 60,47.5478444,7.597044200000001,4052
648,Unterer Rheinweg 100,47.5668434,7.5869747,4057
649,"Hirzbodenweg 15, 17",47.550724,7.6086502,4052
650,Landkronstrasse 95,47.5669532,7.574436899999998,4056
651,Landskronstrasse 97,47.5668885,7.574328699999999,4056
652,Am Krayenrain 8,47.5657348,7.575611699999999,4056
653,Hiltalingerstrasse 1,47.5864143,7.5928962,4057
654,Hohe Winde-Strasse 96,47.5329056,7.5903865,4059
655,Chrischonastrasse 56,47.55967099999999,7.6036164,4058
656,Schlossgasse 15,47.5768869,7.588903299999999,4057
657,Haltingerstrasse 27,47.56587270000001,7.593430199999999,4057
658,Schützenmattstrasse 69,47.5540911,7.5790345,4051
659,Hegenheimerstrasse 24,47.5605346,7.5731996,4055
660,Nufenenstrasse 23,47.5497654,7.562922599999999,4054
661,Lehenmattstrasse 160,47.5505982,7.6204863,4052
662,Lehenmattstrasse 158,47.5507153,7.620380399999999,4052
663,Reiterstrasse 53,47.5472897,7.565175099999999,4054
664,"Herrengrabenweg 23, 23A",47.55532220000001,7.572275299999998,4054
665,Karl Jaspers-Allee 12,47.5473833,7.6114026,4052
666,Amselstrasse 18,47.5382699,7.587240700000001,4059
667,Thiersteinerallee 42,47.5415662,7.5974241,4053
668,Sonnenweg 21,47.5494013,7.6090711,4052
669,Marschalkenstrasse 35,47.5496454,7.5738553,4054
670,"Herrengrabenweg 44, 46",47.55475029999999,7.571457199999999,4054
671,St. Galler-Ring 85,47.5568205,7.5675227,4055
672,"Benkenstrasse 78,",47.547482,7.5755072,4054
673,Benkenstrasse 76,47.5473886,7.5752638,4054
674,Oberwilerstrasse 94,47.5474296,7.5759761,4054
675,Oberwilerstrasse 98,47.5471538,7.575785199999999,4054
676,Arlesheimerstrasse 16,47.5388708,7.599872599999999,4053
677,Farnsburgerstrasse 42,47.5548269,7.613539100000001,4052
678,Dornacherstrasse 309,47.53970839999999,7.6011508,4053
679,Wasserstrasse 10,47.5695197,7.5798832,4056
680,Mühlenberg 4,47.554588,7.5982732,4052
681,St. Alban-Rheinweg 244,47.5569657,7.614675399999999,4052
682,Lehenmattstrasse 254,47.5477645,7.620888399999999,4052
683,Blumenrain 20,47.5610693,7.587118100000001,4051
684,Nonnenweg 58,47.5590485,7.575658,4055
685,"Breisacherstrasse 58, 60",47.5667328,7.589073999999999,4057
686,"Steinenbachgässlein 11, 13",47.5533687,7.5886511,4051
687,Benkenstrasse 22,47.5489299,7.5720451,4054
688,Hardstrasse 70,47.5496759,7.605764199999999,4052
689,Spalenberg 52,47.5568835,7.5849401,4051
690,Gerbergasse 20,47.5570388,7.5880768,4001
691,Thiersteinerallee 29,47.5420235,7.5984482,4053
692,Grellingerstrasse 64,47.549139,7.605584100000001,4052
693,Bättwilerstrasse 8,47.54964700000001,7.572407300000001,4054
694,Hardstrasse 11,47.55193879999999,7.6019054,4052
695,Schaffhauserrheinweg 81,47.5573696,7.6029051,4058
696,Grenzacherweg 80,47.5586293,7.602536999999999,4058
697,Bruderholzweg 32,47.5388945,7.591133999999999,4053
698,Reiterstrasse 26,47.5487106,7.565284699999999,4054
699,Colmarerstrasse 50,47.56006319999999,7.5711711,4055
700,Wartenbergstrasse 47,47.547129,7.6069384,4052
701,Paradieshofstrasse 70,47.54970910000001,7.5594665,4054
702,Schertlingasse 26,47.55183470000001,7.585498299999999,4051
703,Flughafenstrasse 35,47.5676005,7.5706848,4056
704,"St. Johanns-Vorstadt 15, 17",47.5628111,7.5846622,4056
705,Oberer Batterieweg 64,47.5311813,7.5884427,4059
706,Im Sesselacker 67,47.5363185,7.600556099999999,4059
707,Haltingerstrasse 102,47.5664791,7.597298899999999,4057
708,Schützengraben 31,47.55616670000001,7.5806741,4051
709,Grellingerstrasse 9,47.5514631,7.6075765,4052
710,Marschalkenstrasse 33,47.54987,7.5740152,4054
711,Kluserstrasse 23,47.5495769,7.5743585,4054
712,General Guisan-Strasse 46,47.5512346,7.568279699999999,4054
713,Casinostrasse 12,47.5465549,7.599511199999998,4052
714,Hagentalerstrasse 4,47.5612942,7.5726691,4055
715,Kanonengasse 19,47.5534074,7.5864857,4051
716,Oberwilerstrasse 68,47.5485984,7.576961099999998,4054
717,Efringerstrasse 81,47.5698271,7.5960814,4057
718,Aescherstrasse 18,47.5488395,7.573821499999999,4054
719,Aescherstrasse 23,47.5487921,7.5741624,4054
720,Steinenvorstadt 50,47.5522454,7.5879173,4051
721,Kluserstrasse 26,47.549411,7.5743462,4054
722,Pfluggässlein 10,47.5560659,7.589309699999999,4001
723,Elisabethenstrasse 2,47.5535985,7.5916941,4051
724,Paradieshofstrasse 80,47.54947240000001,7.5593618,4054
725,Karpfenweg 26,47.5508708,7.6187204,4052
726,Bergalingerstrasse 7,47.5598319,7.6105659,4058
727,Holbeinplatz 4,47.5554436,7.583595099999999,4051
728,Gellertstrasse 46,47.5511987,7.6100067,4052
729,Gellertstrasse 32,47.5515774,7.6093703,4052
730,Hirzbodenweg 7,47.5510834,7.608903700000001,4052
731,Gellertstrasse 34,47.5514801,7.6097762,4052
732,Gellertstrasse 40,47.55100179999999,7.6093552,4052
733,Gellertstrasse 44,47.5510639,7.6099399,4052
734,Untere Rebgasse 17,47.5621419,7.592236799999999,4058
735,Laufenstrasse 26,47.5418337,7.599125,4053
736,Münsterberg  16,47.55555,7.591215,4051
737,Froburgstrasse 19,47.5556478,7.6120025,4052
738,Eulerstrasse 23,47.554763,7.581268300000001,4051
739,Unter der Batterie 3,47.5300646,7.589568399999999,4059
740,Grellingerstrasse 31,47.550133,7.6068948,4052
741,Weiherhofstrasse 107,47.5476389,7.5582019,4054
742,Freie Strasse 82,47.5544623,7.5914279,4051
743,Rosentalstrasse 31,47.5653002,7.604218500000001,4058
744,Röttelerstrasse 6,47.5692067,7.6171148,4058
745,Arbedostrasse 15,47.5300952,7.5867665,4059
746,Karl Barth-Platz 2,47.5477734,7.609092400000001,4052
747,Schäublin-Strasse 93,47.533094,7.583680499999999,4059
748,"Schützengraben 54, 56",47.55728999999999,7.5814212,4051
749,Gotthelfstrasse 102,47.5569625,7.568788599999999,4054
750,Oberwilerstrasse 82,47.5481223,7.576547999999999,4054
751,Chrischonastrasse 53,47.5599323,7.6032851,4058
752,Jurastrasse 67,47.5410228,7.5907521,4053
753,"Hebelstrasse 75, 77, 79",47.56201590000001,7.5787596,4056
754,Freie Strasse 45,47.55641869999999,7.5901877,4001
755,Jurastrasse 46,47.54150509999999,7.590746500000001,4053
756,Chrischonastrasse 37,47.55969820000001,7.6020312,4058
757,Beckenstrasse 9,47.5720204,7.5750415,4056
758,Schwarzwaldallee 20,47.5603697,7.6117635,4058
759,Binningerstrasse 5,47.55066410000001,7.586637499999999,4051
760,Hardstrasse 129,47.548889,7.608843599999999,4052
761,Friedrichstrasse 9,47.55637189999999,7.574262999999998,4055
762,Rixheimerstrasse 16,47.5605874,7.568847199999999,4055
763,Markircherstrasse 60,47.5649481,7.5617354,4055
764,"Oltingerstrasse 23, 25",47.56699810000001,7.5622451,4055
765,Lehenmattstrasse 320,47.5446532,7.620559,4052
766,"Rosentalstrasse 28, 30, 32",47.56495839999999,7.6042839,4058
767,Rebgasse 52,47.5595022,7.595590700000001,4058
768,Solothurnerstrasse 45,47.5439777,7.590431700000001,4053
769,Dornacherstrasse 38,47.5446846,7.5854757,4053
770,In den Ziegelhöfen 65,47.5456199,7.5623684,4054
771,Sonnenbergstrasse 53,47.5367252,7.5924559,4059
772,Sevogelstrasse 109,47.5482559,7.600072399999999,4052
773,Spalenvorstadt 10,47.5574125,7.583134099999999,4051
774,Blumenrain 14,47.5608621,7.587343400000001,4051
775,Eichenstrasse 8,47.55669289999999,7.5700433,4054
776,Am Krayenrain 6,47.5658123,7.575785299999999,4056
777,Furkastrasse 54,47.5483006,7.561829899999999,4054
778,Lange Gasse 49,47.5518687,7.600603199999999,4052
779,Oberalpstrasse,47.549375,7.564284400000001,4054
780,Realpstrasse 32,47.54903179999999,7.5676899,4054
781,Largitzenstrasse 11,47.56776379999999,7.569436100000001,4056
782,Holbeinstrasse 54,47.5521427,7.5837987,4051
783,Hirzbodenweg 102,47.5481552,7.6062775,4052
784,Tellstrasse 17,47.5432202,7.595936199999999,4053
785,Peter Ochs-Strasse 25,47.5312808,7.5948438,4059
786,Peter Ochs-Strasse 29,47.5312905,7.594325899999999,4059
787,Niklaus von Flüe-Strasse 11,47.5342936,7.597995900000001,4059
788,Clarastrasse 22,47.5624009,7.596400500000001,4058
789,Eulerstrasse 73,47.5569077,7.5777797,4051
790,Wasgenring 49,47.5622473,7.5642936,4055
791,Eichhornstrasse 5,47.5352134,7.5997293,4059
792,Dornacherstrasse 279,47.5403049,7.599040700000001,4053
793,St. Johanns-Ring 134,47.5623618,7.5744322,4056
794,Reinacherstrasse 90,47.5382103,7.6034488,4053
795,Tellstrasse 19,47.543214,7.596034299999999,4053
796,Holeestrasse  71,47.544963,7.5709211,4054
797,St.  Alban-Vorstadt 104,47.5534727,7.601728,4052
798,Feldbergstrasse 40,47.565976,7.5901084,4057
799,Feldbergstrasse 38,47.56596709999999,7.590015299999999,4057
800,Feldbergstrasse  36,47.5659492,7.589935599999999,4057
801,Matthäusstrasse 10,47.5668735,7.591532799999999,4057
802,Matthäusstrasse 14,47.5669051,7.591757299999999,4057
803,Müllheimerstrasse 56,47.566206,7.593045800000001,4057
804,Kandererstrasse 23,47.56573299999999,7.5902273,4057
805,Im Surinam 4,47.567395,7.6109757,4058
806,Unterer Rheinweg 18,47.5614429,7.5903214,4058
807,Delsbergerallee 57,47.5396025,7.599636299999999,4053
808,Markgräflerstrasse 7,47.5701655,7.5911601,4057
809,Markgräflerstrasse 9,47.5701656,7.591267599999999,4057
810,Allschwilerstrasse 120,47.5572988,7.565225600000001,4055
811,Niklaus von Flüe-Strasse 26,47.53453,7.598758300000001,4059
812,"Murtengasse 10, 12",47.5533155,7.5784579,4051
813,Oetlingerstrasse 161,47.5679307,7.5945524,4057
814,Rütimeyerstrasse 72,47.54787100000001,7.576055899999999,4054
815,"Benkenstrasse 48, 50",47.5481437,7.573572500000001,4054
816,Knöringerstrasse 1,47.5633948,7.5676847,4055
817,Bruderholzallee 239,47.5343676,7.6000588,4059
818,Hirzbodenweg 44,47.5499786,7.607943700000001,4052
819,Marschalkenstrasse 55,47.5490889,7.573279700000001,4054
820,"Rastatterstrasse 5, 7, 9",47.5800698,7.589590100000001,4057
821,Rastatterstrasse 15,47.57943150000001,7.589203899999999,4057
822,Rastatterstrasse 17,47.57938619999999,7.589408799999999,4057
823,Rastatterstrasse 19,47.5793319,7.589627299999999,4057
824,Realpstrasse 30,47.5490587,7.567769699999999,4054
825,"Rennweg 20, 22",47.5509898,7.6052236,4052
826,Zähringerstrasse 16,47.56991319999999,7.588243299999999,4057
827,Gerbergasse 45,47.5559138,7.588751299999999,4001
828,Feierabendstrasse 74,47.5538932,7.579127,4051
829,Hirzbodenweg 96,47.548263,7.6063974,4052
830,Luftmattstrasse 7,47.5479716,7.602623799999999,4052
831,Austrasse 87,47.55496489999999,7.577881,4051
832,Pfeffingerstrasse 24,47.5447844,7.591868099999999,4053
833,Nonnenweg 45,47.5586281,7.575538799999999,4055
834,Oberer Batterieweg 84,47.53043479999999,7.588467199999999,4059
835,Erstfeldstrasse 67,47.547762,7.560912099999999,4054
836,Freie Strasse 72,47.5548224,7.5911396,4051
837,Reinacherstrasse 104,47.5375648,7.603295799999999,4053
838,General Guisan-Strasse 14,47.552186,7.570166599999999,4054
839,Salinenstrasse 15,47.546761,7.6092574,4052
840,Reinacherstrasse 128,47.5362145,7.604141599999999,4053
841,Im Sesselacker 50,47.5361574,7.599997799999999,4059
842,Seltisbergerstrasse 90,47.5276194,7.5955103,4059
843,C.F. Meyer- Strasse 60,47.529351,7.591890199999999,4059
844,Furkastrasse 9,47.5469156,7.561813399999999,4054
845,Weiherweg 16,47.5541734,7.577932100000001,4054
846,Weiherweg 14,47.5542002,7.578064999999999,4054
847,Steinbühlallee 29,47.55137980000001,7.5586753,4054
848,Schlettstadterstrasse 32,47.5588475,7.572549899999999,4055
849,Kapellenstrasse 18,47.550185,7.601953099999998,4052
850,St. Galler-Ring 168,47.5529716,7.567194600000001,4054
851,Austrasse 108,47.5553249,7.577695899999999,4051
852,Hauensteinstrasse 114,47.5341234,7.594453700000001,4059
853,Lehenmattstrasse 249,47.5477342,7.621355,4052
854,C.F. Meyer-Strasse 21,47.5312034,7.5922009,4059
855,Burgfelderstrasse 3,47.5618954,7.573354800000001,4055
856,Bläsiring 50,47.5684742,7.590260799999999,4057
857,Bläsiring 48,47.56848799999999,7.590047200000001,4057
858,Klybeckstrasse 83,47.5683501,7.5902613,4057
859,Heuberg 16,47.5562864,7.585709800000001,4051
860,Gellerstrasse 25,47.5518081,7.6114833,4052
861,Gellertstrasse 27A,47.552859,7.6123635,4052
862,Gellertstrasse 27,47.5517083,7.612040899999999,4052
863,Im langen Loh 275,47.5468635,7.560033300000001,4054
864,Schauenburgerstrasse 26,47.5545321,7.609973099999999,4052
865,Gundeldingerrain 159,47.533592,7.594996699999999,4059
866,Gundeldingerrain 165,47.5335498,7.5952606,4059
867,Hardstrasse 102,47.5487289,7.6075944,4052
868,Jungstrasse 32,47.5673392,7.578763699999999,4056
869,Marschalkenstrasse 45,47.5493849,7.5735624,4054
870,Birsigstrasse 133,47.5506407,7.576381800000001,4054
871,"Burgfelderstrasse 11, 25",47.5621874,7.5726935,4055
872,Aeschengraben 13,47.5500441,7.5941888,4051
873,Burgunderstrasse 25,47.5529844,7.5795184,4051
874,Breisacherstrasse 127,47.5693418,7.588456799999999,4057
875,Allschwilerstrasse 96,47.5574322,7.5674843,4055
876,Weiherweg 74,47.553423,7.5735991,4054
877,Hardstrasse 79,47.5501258,7.6056593,4052
878,Unter der Batterie 5,47.530092,7.589249700000001,4059
879,Colmarerstrasse 126,47.5576733,7.5685089,4055
880,Habsburgerstrasse 14,47.5620552,7.571530200000001,4055
881,Wasgenring 131,47.55935969999999,7.5648715,4055
882,Murtengasse 14,47.5531918,7.5786554,4051
883,Sonnenweg 25,47.54936499999999,7.609270200000001,4052
884,Strassburgerallee 19,47.5638965,7.572044399999999,4055
885,Hegenheimerstrasse 36,47.5605745,7.5723018,4055
886,Fatiostrasse 6,47.5672838,7.579933,4056
887,Fatiostrasse 8,47.567239,7.5798265,4056
888,Andlauerstrasse 4,47.5686857,7.5880696,4057
889,Oetlingerstrasse 63,47.5678001,7.5907509,4057
890,Kleinriehenstrasse 76,47.5678107,7.615654699999999,4058
891,Gerbergässlein 22,47.5560763,7.588260099999999,4051
892,St. Johanns-Vorstadt 78,47.5651751,7.5834089,4056
893,Sennheimerstrasse 44,47.5541917,7.57007,4054
894,Eulerstrasse 54,47.5561413,7.579358799999999,4051
895,Hasenmattstrasse 5,47.5331915,7.591795,4059
896,Allschwilerstrasse 17,47.5558317,7.574398899999999,4055
897,Marignanostrasse 83,47.53276899999999,7.5846491,4059
898,Jakobsbergerholzweg 18,47.5339574,7.603908799999999,4053
899,St. Johanns-Ring 130,47.5624394,7.5747039,4056
900,Sommergasse 15,47.5633867,7.5747537,4056
901,Sommergasse 47,47.5643142,7.5737728,4056
902,Blauenstrasse 10,47.5556715,7.5735649,4054
903,Ahornstrasse 51,47.5572899,7.5715983,4055
904,Aeschenvorstadt 21,47.553003,7.593180299999999,4051
905,Predigerhofstrasse 55,47.52497349999999,7.590032,4059
906,Eichenstrasse 27,47.55571080000001,7.5706555,4054
907,In den Ziegelhöfen 140,47.5452735,7.5582365,4054
908,Sustenstrasse 27,47.5451366,7.560149,4054
909,Unterer Batterieweg 15,47.541238,7.587182599999999,4053
910,"Dornacherstrasse 67, 69",47.5443028,7.587236,4053
911,Unterer Batterieweg 17,47.5411661,7.587142500000001,4053
912,Rotbergerstrasse 22,47.5491995,7.5770731,4054
913,Ahornstrasse 18,47.55766819999999,7.5734637,4055
914,Im langen Loh 122,47.55111669999999,7.560866600000001,4054
915,Im langen Loh 124,47.5509908,7.560826499999999,4054
916,Im langen Loh 126,47.55086499999999,7.5607731,4054
917,Reiterstrasse 48,47.54742599999999,7.564808599999999,4054
918,In den Ziegelhöfen 171,47.544843,7.5570135,4054
919,Rheingasse 38,47.5597315,7.592296299999999,4058
920,St. Alban-Ring 235,47.54719670000001,7.6084211,4052
921,Breisacherstrasse 123,47.5689887,7.588452699999999,4057
922,Sonnenweg 2,47.5493579,7.608034799999999,4052
923,Marschalkenstrasse 11,47.5503821,7.574515700000001,4054
924,Rheinländerstrasse 14,47.5636438,7.5778275,4056
925,Beim Wasserturm 34,47.52580709999999,7.592145599999998,4059
926,Unterer Heuberg 13,47.5563565,7.5871449,4051
927,Rennweg 60,47.550392,7.608130999999999,4052
928,St. Jakobs-Strasse 153,47.5455698,7.6030768,4052
929,Gundeldingerrain 51,47.5376704,7.591576799999999,4059
930,Rixheimerstrasse 23,47.560224,7.568973199999999,4055
931,Amerbachstrasse 49,47.5694452,7.593569,4057
932,Engelgasse 85,47.5483928,7.603648,4052
933,Markgräflerstrasse 62,47.5699185,7.594425299999998,4057
934,Markgräflerstrasse 64,47.5699273,7.594611400000001,4057
935,Glaserbergstrasse 44,47.5665017,7.568484199999999,4056
936,Hammerstrasse 174,47.5690183,7.5950871,4057
937,Gotthardstrasse 9,47.5473631,7.563833599999999,4054
938,Zürcherstrasse 99,47.5548782,7.611510699999999,4052
939,Unterer Batterieweg 21,47.5409765,7.5867704,4053
940,Unterer Batterieweg 19,47.5410852,7.587089199999999,4053
941,Röschenzerstrasse 20,47.540714,7.5874301,4053
942,Lange Gasse 6,47.5492822,7.597912,4052
943,Hirzbodenweg 116,47.5478231,7.6058514,4052
944,Realpstrasse 81,47.54763190000001,7.564857099999998,4054
945,St. Alban-Vorstadt 16,47.5545283,7.5958684,4052
946,Rittergasse 27,47.5551517,7.593784400000001,4051
947,"Unterer Rheinweg 48, 50, 52",47.5644947,7.5880047,4057
948,Bruderholzallee 169,47.53279209999999,7.594582599999999,4059
949,St. Alban-Rheinweg 120,47.5549927,7.604757799999999,4052
950,Wanderstrasse 8,47.5529756,7.5696716,4054
951,Rheingasse 84,47.55887500000001,7.593834999999999,4058
952,Solothurnerstrasse 15,47.54534899999999,7.5915076,4053
953,"St. Alban-Rheinweg 122, 124",47.5549835,7.6048641,4052
954,Bleichestrasse 3,47.5658258,7.6000648,4058
955,Ahornstrasse 29,47.5573392,7.5727635,4055
956,Aeneas Silvius-Strasse 21,47.5312299,7.592506500000001,4059
957,Bruderholzallee 24,47.5347083,7.587270699999999,4059
958,Burgfelderstrasse 187,47.5663573,7.564383,4055
959,Pruntruterstrasse 12,47.5457833,7.580602499999999,4053
960,Helfenbergstrasse 7,47.5340761,7.5897286,4059
961,Riehenring 7,47.5612837,7.601668200000001,4058
962,Kleinriehenstrasse 111,47.5691382,7.617547999999999,4058
963,Ahornstrasse 41,47.557301,7.572174,4055
964,Landskronstrasse 38,47.568501,7.5767415,4056
965,Buschweilerweg 26,47.5604959,7.5620175,4055
966,Burgunderstrasse 30,47.5532176,7.5792537,4051
967,Gotthelfstrasse 91,47.5564057,7.568377799999999,4054
968,Scherkesselweg 15,47.5458819,7.6169501,4052
969,Therwilerstrasse 38,47.5497102,7.5761939,4054
970,Glaserbergstrasse 42,47.5665475,7.568548099999999,4056
971,Höhenweg 53,47.5460091,7.5800858,4053
972,Sustenstrasse 11,47.5456404,7.5599509,4054
973,Weissensteinstrasse 2,47.5362479,7.592919299999999,4059
974,Im tiefen Boden 33,47.5304404,7.591083299999999,4059
975,Haltingerstrasse 101,47.5667248,7.5973355,4057
976,Nonnenweg 18,47.5572684,7.576943699999998,4055
977,Byfangweg 12,47.5523153,7.582351099999999,4051
978,Sevogelstrasse 97,47.54850099999999,7.6006173,4052
979,"Klingentalgraben 17, 19",47.5637426,7.589529399999999,4057
980,Sommergasse 29,47.5637543,7.5743408,4056
981,Feierabendstrasse 59,47.5530649,7.579789099999999,4051
982,Passwangstrasse 42,47.5353633,7.593553399999999,4059
983,Socinstrasse 81,47.5555689,7.576554199999999,4051
984,Flughafenstrasse 65,47.5687351,7.5694119,4056
985,"Centralbahnstrasse 13, 15",47.54752879999999,7.5909096,4051
986,Flughafenstrasse 67,47.5688874,7.5694138,4056
987,Steinenring 41,47.5512685,7.580232000000001,4051
988,Leimenstrasse 5,47.55489439999999,7.583588499999999,4051
989,Gundeldingerstrasse 95,47.5431947,7.584032599999999,4053
990,Herrengrabenweg 75,47.5534532,7.570796000000001,4054
991,Realpstrasse 20,47.5493369,7.568261799999999,4054
992,Waldenburgerstrasse 12,47.5551578,7.6087706,4052
993,Lehenmattstrasse 151,47.5517599,7.619547,4052
994,Lehenmattstrasse 153,47.5517147,7.619639899999998,4052
995,Im langen Loh 143,47.5516915,7.561572,4054
996,Passwangstrasse 57,47.5346242,7.5935647,4059
997,Beim Buremichelskopf 2,47.5329578,7.584742599999999,4059
998,Starenstrasse 4,47.5388738,7.586193199999999,4059
999,Utengasse 48,47.5593966,7.593903000000001,4058
1000,Steinenring 6,47.55259119999999,7.577369999999999,4051
1001,Davidsrain 4,47.5655091,7.576547999999999,4056
1002,Davidsrain 6,47.5654415,7.5764361,4056
1003,Davidsrain 8,47.56537360000001,7.5763236,4056
1004,"In den  Ziegelhöfen 177, 179",47.5447625,7.556575,4054
1005,"Redingstrasse 11, 13, 15, 19, 21, 23, 27, 29, 31",47.5475597,7.6196258,4052
1006,Clarastrasse 15,47.562522,7.595782000000001,4058
1007,"Riehenstrasse  62, 64, 62A",47.5619345,7.6001841,4058
1008,Bartenheimerstrasse 57,47.5587792,7.569281199999999,4055
1009,Auf dem Hummel 15,47.5315884,7.593476899999999,4059
1010,"Gellertstrasse 43A, 43B",47.5518933,7.614658700000001,4052
1011,Mittlere Strasse 2,47.5604477,7.579830599999999,4056
1012,Gundeldingerstrasse 429,47.53827099999999,7.599951,4053
1013,Schaffhauserrheinweg 5,47.5572948,7.598493899999999,4058
1014,Morgartenring 167,47.5508414,7.566020399999999,4054
1015,Fatiostrasse 29,47.5669333,7.579799100000001,4056
1016,"Hegenheimerstrasse 275, 277, 285, 287",47.5649053,7.5597155,4055
1017,In den Ziegelhöfen 167,47.5448698,7.557226099999999,4054
1018,Neubadstrasse 136,47.5472714,7.5655337,4054
1019,Hüningerstrasse 12,47.5705641,7.5743999,4056
1020,Strassburgerallee 99,47.561506,7.5693098,4055
1021,Laufenstrasse 19,47.5418983,7.599643200000001,4053
1022,Weissensteinstrasse 29,47.53533969999999,7.592850299999998,4059
1023,Davidsbodenstrasse 13,47.565136,7.5774777,4056
1024,Schlossgasse 10,47.5767527,7.5883712,4057
1025,Wasgenring 159,47.5584754,7.565007,4055
1026,Wasgenring 163,47.5582353,7.565015000000001,4055
1027,Wasserstrasse 6,47.5694606,7.579712799999999,4056
1028,"Arabienstrasse 16,",47.5318368,7.589228100000001,4059
1029,Holeestrasse 79,47.5450625,7.570416600000001,4054
1030,Wasgenring 153,47.5587818,7.5649779,4055
1031,Neuweilerstrasse 36,47.54663610000001,7.5625168,4054
1032,Grellingerstrasse 82,47.5486339,7.604884200000001,4052
1033,St. Johanns-Ring 16,47.565994,7.580135800000001,4056
1034,Lenzgasse 14,47.5682108,7.571802600000001,4056
1035,Theodorsgraben 4,47.5573857,7.5978033,4058
1036,Schaffhauserrhein- weg 1,47.5571136,7.598174900000001,4058
1037,In den Ziegelhöfen 182,47.5452844,7.556323700000001,4054
1038,"Flughafenstrasse 78, 80, 82",47.5698859,7.5697336,4056
1039,"Wasensträsschen 35, 37, 39, 41,",47.570294,7.569643799999999,4056
1040,Wanderstrasse 133,47.5517091,7.5619308,4054
1041,Matthäusstrasse 9,47.5671522,7.5916133,4057
1042,Haltingerstrasse 14,47.5654421,7.5925652,4057
1043,Römergasse 5,47.5574919,7.5990924,4058
1044,Frobenstrasse 50,47.5441429,7.585144000000001,4053
1045,Gotthelfstrasse 36,47.5539588,7.56911,4054
1046,Schützengraben 23,47.55585989999999,7.581536899999999,4051
1047,"Klingentalstrasse 1, 3",47.5633004,7.592299300000001,4057
1048,Neubadstrasse 118,47.54763,7.5665574,4054
1049,Sundgauerstrasse 5,47.56460509999999,7.5629571,4055
1050,Sundgauerstrasse 7,47.56474,7.562890999999999,4055
1051,Sundgauerstrasse 9,47.564875,7.5628381,4055
1052,Mühlenberg 3,47.5547507,7.597702399999999,4052
1053,Mühlenberg 5,47.5547791,7.5978728,4052
1054,Heuberg 12,47.5563472,7.585458099999999,4051
1055,Starenstrasse 23,47.5392411,7.5873762,4059
1056,Drosselstrasse 27,47.5381957,7.589006899999999,4059
1057,Im langen Loh 252,47.5471432,7.559673099999999,4054
1058,Bachlettenstrasse 64,47.5483722,7.5781693,4054
1059,Feldbergstrasse 57,47.5665226,7.5916248,4057
1060,Weiherweg 64,47.5535658,7.574542699999999,4054
1061,"Hüningerstrasse 6, 8",47.5703575,7.5741735,4056
1062,In den Ziegelhöfen 75,47.5455395,7.561850099999999,4054
1063,Salinenstrasse 9,47.5469184,7.6095148,4052
1064,Metzerstrasse 32,47.56473769999999,7.576821300000001,4056
1065,St. Galler-Ring 181,47.5523052,7.567923599999999,4054
1066,Hirschgässlein 38,47.5510799,7.592756899999999,4051
1067,Oetlingerstrasse 157,47.5679401,7.594299899999999,4057
1068,Riedbergstrasse 16,47.5337642,7.590424499999999,4059
1069,Spalenberg 57,47.5567552,7.584781100000001,4051
1070,Oscar Frey-Strasse 24,47.5301126,7.587164899999999,4059
1071,Oscar Frey-Strasse 20,47.53038249999999,7.587152399999999,4059
1072,Hechtweg 30,47.5509418,7.6178971,4052
1073,Falknerstrasse 7,47.5563938,7.589175699999999,4001
1074,Karl Jaspers-Allee 24,47.5471753,7.612172299999999,4052
1075,Breisacherstrasse 33,47.5649429,7.5892151,4057
1076,Feldbergstrasse 148,47.5672347,7.5971948,4057
1077,Riehenstrasse 16,47.5602143,7.5975845,4058
1078,Hirzbrunnenschanze 23,47.5672795,7.615998400000001,4058
1079,"Hirzbrunnenstrasse 22,",47.5675436,7.6138465,4058
1080,Beim goldenen Löwen 13,47.5536366,7.596875400000001,4052
1081,Strassburgerallee 68,47.562709,7.5697293,4055
1082,Oberer Batterieweg 39,47.5318737,7.5885244,4059
1083,Bannwartweg 28,47.5596469,7.601610099999999,4058
1084,Bannwartweg 22,47.5598089,7.601491,4058
1085,Peter Rot-Strasse 102,47.5622243,7.604275399999999,4058
1086,Missionsstrasse 19,47.5590559,7.578835,4055
1087,"Welschmattstrasse 1, 3",47.5634086,7.5632599,4055
1088,Eulerstrasse 27,47.55491749999999,7.581018899999999,4051
1089,Alemannengasse 10,47.5579401,7.5989876,4058
1090,Schaffhauserrheinweg 3,47.5573042,7.5982149,4058
1091,Kleinriehenstrasse 86,47.5681246,7.616174,4058
1092,Engelgasse 102,47.5483001,7.602956300000001,4052
1093,Nonnenweg 8,47.5569318,7.577242399999999,4055
1094,Colmarerstrasse 77,47.55894050000001,7.5704838,4055
1095,Breisacherstrasse 12,47.5642958,7.589856500000001,4057
1096,Benkenstrasse 79,47.5476669,7.5755043,4054
1097,Rennweg 24,47.5509171,7.605741500000001,4052
1098,Marignanostrasse 108,47.5321315,7.5837974,4059
1099,"Unterer Batterieweg 84, 86",47.5395921,7.5868438,4059
1100,Jungstrasse 44,47.5670344,7.5779789,4056
1101,Dittingerstrasse 33,47.5400216,7.5889324,4053
1102,Solothurnerstrasse 25,47.5449332,7.591265300000001,4053
1103,Austrasse 89,47.554992,7.577787999999999,4051
1104,Klybeckstrasse 74,47.5661724,7.5912119,4057
1105,Arabienstrasse 38,47.53101789999999,7.589610899999998,4059
1106,Bündnerstrasse,47.5586593,7.5682912,4055
1107,"Gellertstrasse 5, 7",47.5526693,7.6068231,4052
1108,Wanderstrasse 43,47.552371,7.5671559,4054
1109,Kohlenberggasse 24,47.5526535,7.587397999999999,4051
1110,Kannenfeldstrasse 34A,47.5634778,7.5738105,4056
1111,Schlettstadterstrasse 48,47.55835339999999,7.572043799999999,4055
1112,Birsigstrasse 129,47.55058649999999,7.5766208,4054
1113,"Breisacherstrasse 86, 88",47.5679921,7.588918099999999,4057
1114,Oberwilerstrasse 15,47.550494,7.5792542,4054
1115,Marignanostrasse 112,47.5320061,7.583372199999999,4059
1116,Marignanostrasse,47.53382999999999,7.585059999999999,4059
1117,Benkenstrasse 75,47.547746,7.575324999999999,4054
1118,Benkenstrasse 87,47.54753729999999,7.575380300000001,4054
1119,Pruntruterstrasse 19,47.5456346,7.5811227,4053
1120,Rebgasse 10,47.5611509,7.593469600000001,4058
1121,Luzernerring 115,47.5665179,7.565579400000001,4056
1122,Rheinsprung 20,47.5581697,7.5899135,4051
1123,Aescherstrasse 29,47.5486019,7.574012000000001,4054
1124,Entenweidstrasse 18,47.5664455,7.5739908,4056
1125,Elsässerstrasse 99,47.5713794,7.5771131,4056
1126,"Barfüsserplatz 20, 23",47.5549917,7.5890042,4051
1127,Barfüsserplatz 21,47.5549869,7.589107399999999,4051
1128,Wasgenring 165,47.5581344,7.565047099999999,4055
1129,Im langen Loh 51,47.5548914,7.5633729,4054
1130,Klingelbergstrasse 11,47.5609359,7.5801092,4056
1131,"Klybeckstrasse 248,",47.5762848,7.588489499999999,4057
1132,Rufacherstrasse 6,47.5577795,7.5731134,4055
1133,Lehenmattstrasse 177,47.5507234,7.620925100000001,4052
1134,Buchenstrasse 45,47.5559912,7.5692213,4054
1135,Wanderstrasse 123,47.5518611,7.562847799999998,4054
1136,St. Alban-Anlage 41,47.5531547,7.600673599999999,4052
1137,Bärenfelserstrasse 16,47.5667949,7.5880553,4057
1138,"Gellertstrasse 72, 74",47.5510884,7.6116005,4052
1139,Weidengasse 19,47.55381329999999,7.605564599999999,4052
1140,"Rebgasse 21, 21A",47.560287,7.5950999,4058
1141,Mittlere Strasse 142,47.5646816,7.574969599999999,4056
1142,Schweizergasse 13A,47.5491539,7.5787692,4054
1143,Claragraben 6,47.5596522,7.5977569,4058
1144,Totentanz 13,47.5622492,7.585752800000001,4051
1145,Petersgraben 24,47.559565,7.5843819,4051
1146,Davidsbodenstrasse 41,47.5661577,7.5760855,4056
1147,"Imbergässlein 33,",47.5579571,7.5857705,4051
1148,Imbergässlein 25,47.5579675,7.586077800000001,4051
1149,Imbergässlein 1,47.5579851,7.5865914,4051
1150,Schneidergasse 30,47.5577422,7.5866704,4051
1151,"Spalenberg 2, 4",47.5575354,7.5865769,4051
1152,Socinstrasse 29,47.5570952,7.5789494,4051
1153,Missionsstrasse  39,47.5601828,7.5766057,4055
1154,Homburgerstrasse 31,47.5554306,7.6128236,4052
1155,Homburgerstrasse 29,47.5555026,7.612783999999999,4052
1156,Spalenberg 13,47.557204,7.5865739,4051
1157,Unterer Heuberg 27,47.5560146,7.5872502,4051
1158,Nonnenweg 37,47.5582681,7.5757903,4055
1159,Peterskirchplatz 1,47.5592319,7.585755499999999,4051
1160,Peter Merian- Strasse 18,47.5485561,7.596156300000001,4052
1161,Schönenbuchstrasse 6,47.5577676,7.571297599999999,4055
1162,Riehenring 24,47.5618417,7.601377599999999,4058
1163,Hirzbodenweg 46,47.5498887,7.607876999999999,4052
1164,Austrasse 58,47.5540797,7.581093699999999,4051
1165,Hegenheimerstrasse 85,47.5609371,7.569857799999999,4055
1166,Paradieshofstrasse 138,47.5471886,7.558719000000001,4054
1167,Göschenenstrasse 82,47.5470002,7.5590506,4054
1168,Kapellenstrasse 30,47.5507538,7.602557900000001,4052
1169,Utengasse 60,47.55912619999999,7.5943274,4058
1170,Biascastrasse 18,47.5275983,7.591088399999999,4059
1171,Mülhauserstrasse 63,47.56812739999999,7.579608399999999,4056
1172,St. Jakobs-Strasse 65,47.5475983,7.599447899999999,4052
1173,Birmannsgasse 8,47.55835440000001,7.5788759,4055
1174,Glaserbergstrasse 43,47.566146,7.568488599999999,4056
1175,St. Johanns-Vorstadt 18,47.5629695,7.5851037,4056
1176,Hebelstrasse 92,47.56296,7.578140999999999,4056
1177,In den Ziegelhöfen 28,47.5456842,7.5610933,4054
1178,Klingentalstrasse 7,47.5633868,7.5925328,4057
1179,Thiersteinerrain 151,47.5352312,7.5950224,4059
1180,Colmarerstrasse 96,47.5586889,7.5696265,4055
1181,Im langen Loh 134,47.5503539,7.560597400000001,4054
1182,Bundesstrasse 19,47.5521425,7.576505299999999,4054
1183,"Klingentalstrasse 86, 88",47.5647066,7.597772,4057
1184,Gundeldingerstrasse 428,47.5379837,7.5996314,4053
1185,Clarahofweg 12,47.5614542,7.5964819,4058
1186,Hammerstrasse 65,47.5628286,7.5965439,4057
1187,Wattstrasse 27,47.57013800000001,7.577269299999998,4056
1188,Riehenring 11,47.561401,7.601349700000001,4058
1189,Güterstrasse 187,47.5434621,7.5931677,4053
1190,Elsässerstrasse 44,47.56960429999999,7.579244999999999,4056
1191,Tüllingerstrasse 56,47.5681495,7.617596,4058
1192,Auf dem Hummel 45,47.5302464,7.5933225,4059
1193,Missionsstrasse 12,47.5592262,7.579326999999998,4055
1194,"Jacob Burckhardt-Strasse 84, 86",47.5458198,7.599673699999999,4052
1195,Faidostrasse 10,47.5335051,7.585753400000001,4059
1196,Bernoullistrasse 8,47.559924,7.582345,4056
1197,Spalenberg 25,47.5568819,7.5859085,4051
1198,Spalenberg 23,47.556912,7.5860159,4051
1199,"Pfirtergasse 12,",47.5496974,7.578920399999999,4054
1200,Therwilerstrasse 26,47.5502356,7.5766731,4054
1201,Claragraben 14,47.5598474,7.597372099999999,4058
1202,Therwilerstrasse 24,47.5502986,7.576713100000001,4054
1203,Klingelbergstrasse 87,47.5643154,7.578537700000001,4056
1204,Klingelbergstrasse 85,47.5642429,7.578626000000001,4056
1205,Froburgstrasse 18,47.5556482,7.6116153,4052
1206,Unterer Rheinweg 142,47.5687504,7.5867143,4057
1207,"Sierenzerstrasse 26, 28",47.560164,7.5694706,4055
1208,Dornacherstrasse 54,47.5443871,7.586115400000001,4053
1209,"Laufenstrasse 33,",47.5411502,7.5991097,4053
1210,Delsbergerallee 88,47.5388846,7.598478600000001,4053
1211,Sperrstrasse 57,47.56525999999999,7.5942523,4057
1212,Bläsiring 7,47.5685972,7.586979599999999,4057
1213,Rheingasse 36,47.5597675,7.5922565,4058
1214,Elsässerstrasse 27,47.56815599999999,7.5801479,4056
1215,Elsässerstrasse 29,47.568219,7.580108200000001,4056
1216,Webergasse 21,47.5622511,7.591213999999999,4058
1217,Elsässerstrasse 31,47.568309,7.5800287,4056
1218,St. Alban-Vorstadt 58,47.5542284,7.5981526,4052
1219,Wettsteinallee 190,47.5618833,7.609948,4058
1220,Metzerstrasse 38,47.564836,7.576513100000001,4056
1221,Gasstrasse 53,47.5691509,7.575432899999999,4056
1222,Grenzacherstrasse 4,47.55893469999999,7.5992592,4058
1223,Hasenmattstrasse 8,47.53319,7.5913748,4059
1224,Tellstrasse 46,47.5430061,7.5968041,4053
1225,Wasgenring 74,47.5611233,7.5640518,4055
1226,Wasgenring 76,47.5609254,7.564091200000001,4055
1227,Wasgenring 78,47.5607275,7.5641439,4055
1228,Wiesendamm 48,47.5794169,7.5936422,4057
1229,Breisacherstrasse 133,47.5697165,7.588474099999999,4057
1230,Missionsstrasse 38,47.560272,7.5772039,4055
1231,Ochsengasse 16,47.5619719,7.591545300000001,4058
1232,Metzerstrasse 29,47.5643734,7.577041799999999,4056
1233,"Hammerstrasse 42, 44",47.5614512,7.5976028,4058
1234,Leonhardsgraben 50,47.5555207,7.5866776,4051
1235,Kleinriehenstrasse 56,47.5674284,7.6149805,4058
1236,Kannenfeldstrasse 56,47.5644783,7.5734681,4056
1237,Oberwilerstrasse 60,47.548886,7.5771744,4054
1238,Jurastrasse 29,47.5425214,7.592006599999999,4053
1239,Inselstrasse 49,47.577583,7.589288400000001,4057
1240,Im Wasenboden 43,47.5705417,7.570399699999999,4056
1241,Clarahofweg 9,47.5616956,7.596421,4058
1242,Lehenmattstrasse 208,47.5492843,7.620999899999999,4052
1243,St. Johanns-Vorstadt 67,47.56519369999999,7.5829173,4056
1244,Sierenzerstrasse 47,47.5592923,7.568923699999999,4055
1245,Dornacherstrasse 276,47.539936,7.5991592,4053
1246,Welschmattstrasse 41,47.5617627,7.563256099999999,4055
1247,Welschmattstrasse 39,47.5618797,7.5632298,4055
1248,Klingentalstrasse 79,47.565015,7.5974589,4057
1249,Breisacherstrasse 2,47.563894,7.590058000000001,4057
1250,Beinwilerstrasse 10,47.5418028,7.590253799999999,4053
1251,"Claragraben 82, 84",47.5625959,7.594550399999999,4058
1252,Hochstrasse 51,47.5447864,7.5948252,4053
1253,Steinengraben 67,47.5530834,7.5866841,4051
1254,Wasgenring 107,47.5602502,7.5647673,4055
1255,Schäublinstrasse 17,47.536801,7.585968200000001,4059
1256,"Gellerstrasse 97, 99",47.5496256,7.6170441,4052
1257,Ziegelstrasse 12,47.5659265,7.563518299999999,4055
1258,Engelgasse 114,47.5480156,7.603542000000001,4052
1259,Tellstrasse 32,47.5429709,7.5961664,4053
1260,Missionsstrasse 33,47.5599034,7.577109900000001,4055
1261,Clarastrasse 30,47.5625178,7.5971372,4058
1262,Leuengasse 24,47.5661312,7.588288299999999,4057
1263,Rheingasse 34,47.5597945,7.592216700000001,4058
1264,"Riehenstrasse 163, 165",47.5654593,7.606212200000001,4058
1265,Im Ettingerhof 4,47.5594691,7.5634899,4055
1266,Paracelsusstrasse 50,47.5654856,7.6127767,4058
1267,Peter Rot-Strasse 96,47.5619634,7.6043145,4058
1268,Waldenburgerstrasse 26,47.5546674,7.6090078,4052
1269,Homburgerstrasse 13,47.55597059999999,7.612546399999998,4052
1270,Realpstrasse 67,47.54784890000001,7.565906399999999,4054
1271,Schalerstrasse 10,47.54878069999999,7.574915799999999,4054
1272,Bachlettenstrasse 30,47.5495306,7.579606999999999,4054
1273,Kleinhüningeranlage 35,47.5839889,7.5936353,4057
1274,Gotthelfstrasse 92,47.5563344,7.568878900000001,4054
1275,Feldbergstrasse 28,47.5658778,7.589523399999999,4057
1276,Buchenstrasse 42,47.55629750000001,7.569266,4054
1277,Jägerstrasse 1,47.5676322,7.602378600000001,4058
1278,"Riehenring 83, 85",47.5645983,7.5981171,4058
1279,"Hammerstrasse 178,",47.56920710000001,7.595114300000001,4057
1280,Schwarzwaldallee 63,47.5613247,7.610637199999999,4058
1281,Im langen Loh 238,47.5475204,7.5597426,4054
1282,Beim Wasserturm 16,47.5269305,7.5927995,4059
1283,Arlesheimerstrasse 48,47.5383654,7.601563899999999,4053
1284,Luftmattstrasse 15,47.54771119999999,7.6023175,4052
1285,Markgräflerstrasse 60,47.5699188,7.594226000000001,4057
1286,Unterer Batterieweg 154,47.5368051,7.586360099999999,4059
1287,Bartenheimerstrasse 43,47.5593092,7.569827299999999,4055
1288,Oberalpstrasse 20,47.5483604,7.5647658,4054
1289,St. Alban-Ring 262,47.5466481,7.6070732,4052
1290,Feldbergstrasse 39,47.5662725,7.5903085,4057
1291,Birmannsgasse 17,47.5578194,7.578124799999999,4055
1292,Wartenbergstrasse 9,47.54809969999999,7.608197199999999,4052
1293,Brunnmattstrasse 19,47.5399362,7.5904054,4053
1294,Leimenstrasse 51,47.5527305,7.581472300000001,4051
1295,"Bruderholzrain 3, 5",47.5372786,7.595605099999999,4059
1296,Sevogelstrasse 119,47.5479671,7.5994091,4052
1297,Heuberg 44,47.5557898,7.5872098,4051
1298,Oberwilerstrasse 88,47.54764609999999,7.576095199999999,4054
1299,Peter Ochs-Strasse 39,47.5303639,7.5944826,4059
1300,"Margarethenstrasse 103, 105, 107",47.5441765,7.581970600000001,4053
1301,Imbergässlein 26,47.5580386,7.5858806,4051
1302,Freie Strasse 44,47.5559222,7.5900273,4001
1303,Schaffhauserrheinweg 119,47.5576716,7.6055899,4058
1304,Stachelrain 2,47.5578144,7.6051274,4058
1305,Stachelrain 6,47.5578144,7.6051274,4058
1306,In den Schorenmatten 4,47.5700587,7.609246,4058
1307,Realpstrasse 51,47.5481246,7.5665719,4054
1308,St. Johanns-Vorstadt 31,47.5638419,7.5839989,4056
1309,"Morgartenring 157,",47.5512192,7.5659682,4054
1310,Schützenmattstrasse 43,47.5549471,7.5801291,4051
1311,Speiserstrasse 98,47.5468708,7.611294599999999,4052
1312,Wanderstrasse 45,47.5523438,7.566958199999999,4054
1313,Schützenmattstrasse 50,47.5549013,7.5793413,4051
1314,St.  Alban-Anlage 52,47.5523704,7.601959799999999,4052
1315,St. Galler-Ring 162,47.5532504,7.5671687,4054
1316,Blochmonterstrasse 9,47.5468921,7.5748446,4054
1317,"Tödistrasse 81, 83, 85",47.55141099999999,7.5671423,4054
1318,"Tödistrasse 93, 97",47.5514336,7.5672706,4054
1319,"Tödistrasse 99, 101,",47.55141099999999,7.5671423,4054
1320,Lindenplatz 12,47.5708176,7.6656999,4126
1321,Gotthardstrasse 28,47.5480198,7.5637156,4054
1322,Vogesenstrasse 144,47.569881,7.5743243,4056
1323,Steinenring 8,47.5525192,7.577436199999999,4051
1324,Socinstrasse 5,47.5580837,7.5795898,4051
1325,Lerchenstrasse 78,47.5370365,7.588233400000001,4059
1326,Spalenberg 63,47.5568454,7.5845555,4051
1327,Allschwilerstrasse 89,47.55717139999999,7.5689927,4055
1328,Käferholzstrasse 42,47.5668561,7.617371199999999,4058
1329,"Missionsstrasse 46, 46A",47.5606506,7.5764874,4055
1330,Zur Gempenfluh 64,47.5289879,7.601064999999999,4059
1331,Voltastrasse 85,47.5706966,7.5764335,4056
1332,Schweizergasse 1,47.5489752,7.579314500000001,4054
1333,Mattenstrasse 56,47.5676615,7.600730899999999,4058
1334,Wettsteinallee  188,47.5618296,7.609775099999999,4058
1335,Neuhausstrasse 8,47.5824487,7.5929332,4057
1336,Wettsteinallee 192,47.5619102,7.610054399999998,4058
1337,St. Johanns-Ring 83,47.5635911,7.576867,4056
1338,Giornicostrasse 240,47.52680729999999,7.5907275,4059
1339,Unterer Batterieweg 31,47.5401321,7.586860700000001,4053
1340,Dammerkirchstrasse 28,47.5674872,7.567388900000001,4056
1341,"Leimgrubenweg 96, 98",47.5366751,7.605116400000001,4053
1342,Marignanostrasse 80,47.5329673,7.584291100000001,4059
1343,Hirzbrunnenstrasse 18,47.56763369999999,7.6137272,4058
1344,Reinacherstrasse 267,47.5318211,7.6056502,4053
1345,Römerfeldstrasse 24,47.5689788,7.638502599999999,4125
1346,Bruderholzallee 237,47.534341,7.599779799999999,4059
1347,Thiersteinerrain 160,47.5348585,7.5942685,4059
1348,Wasgenring 68,47.5616232,7.564012399999998,4055
1349,Sevogelstrasse 69,47.5495405,7.602599400000001,4052
1350,Rümmingerstrasse 9,47.5659686,7.6204058,4058
1351,Allmendstrasse 108,47.5668949,7.6204488,4058
1352,Starenstrasse 33,47.5391591,7.5881729,4059
1353,Wintergasse 16,47.56456619999999,7.573614000000001,4056
1354,Neuensteinerstrasse 21,47.5403379,7.601165900000001,4053
1355,Schulgasse 16,47.5835055,7.591688,4057
1356,Reiterstrasse 22,47.5488161,7.565331,4054
1357,Holbeinstrasse 77A,47.5510806,7.58289,4051
1358,Bürenfluhstrasse 5,47.53003289999999,7.599793399999999,4059
1359,Novarastrasse 18,47.533954,7.5863522,4059
1360,Amerbachstrasse 87,47.5695118,7.5961156,4057
1361,Mönchsbergerstrasse 3,47.5378944,7.599152999999999,4053
1362,Wanderstrasse 15,47.55264469999999,7.5699703,4054
1363,Reiterstrasse 33,47.5483434,7.565559999999999,4054
1364,Schweizergasse 48,47.550209,7.5764073,4054
1365,In den Schorenmatten 15,47.570459,7.609120000000001,4058
1366,Hebelstrasse 103,47.5630868,7.577437099999999,4056
1367,Sonnenbergstrasse 43,47.5368706,7.5913141,4059
1368,Eulerstrasse 11,47.55444749999999,7.5818387,4051
1369,Klybeckstrasse 232,47.5754561,7.5895106,4057
1370,Biascastrasse 14,47.527598,7.591340700000001,4059
1371,Tessinstrasse 21,47.55107760000001,7.5638024,4054
1372,Strassburgerallee 106,47.56112780000001,7.568197399999999,4055
1373,Webergasse 31,47.5624213,7.591745899999999,4058
1374,Hardstrasse 54,47.5502171,7.604703099999999,4052
1375,Steinengraben 12,47.5548305,7.584829,4051
1376,Chrischonastrasse 64,47.5596703,7.6041213,4058
1377,Hammerstrasse 198,47.57026820000001,7.5952237,4057
1378,Schweizergasse 36,47.5499811,7.5773343,4054
1379,Hammerstrasse 191,47.5703227,7.594865,4057
1380,Laufenstrasse 80,47.5396142,7.5976839,4053
1381,"Schwarzwaldallee 225, 231",47.5672311,7.605191199999999,4058
1382,Farnsburgerstrasse 16,47.5560059,7.6129183,4052
1383,Inselstrasse 51,47.5775146,7.5894348,4057
1384,Kleinhüningerstrasse 139,47.57868089999999,7.590114799999999,4057
1385,Binzenstrasse 2,47.5667819,7.617910299999999,4058
1386,Waldeckstrasse 3,47.53734300000001,7.601190099999998,4053
1387,Käferholzstrasse 104,47.56539490000001,7.6191946,4058
1388,Steinbühlallee 35,47.5512449,7.5586218,4054
1389,Güterstrasse 169,47.5440081,7.591627900000001,4053
1390,Lindenhofstrasse 26,47.5467939,7.595798,4052
1391,Maulbeerstrasse 43,47.5674992,7.601861099999999,4058
1392,Sommergasse 17,47.5634498,7.5746875,4056
1393,"Rufacherstrasse 7, 9",47.55780439999999,7.572348,4055
1394,St. Jakobs-Strasse,47.5440197,7.608048999999999,4052
1395,Singerstrasse,47.5453717,7.605995300000001,4052
1396,"Lyon-Strasse 16, 18",47.5354056,7.6074103,4053
1397,Hammerstrasse 193,47.5704036,7.594838699999999,4057
1398,Karpfenweg 2,47.5515716,7.619174399999999,4052
1399,Lehenmattstrasse 45,47.5540184,7.612912,4052
1400,Breisacherstrasse 20,47.5648292,7.5896631,4057
1401,Oberwilerstrasse 11,47.5505553,7.5793057,4054
1402,Dornacherstrasse 86,47.5438833,7.587334599999999,4053
1403,Hammerstrasse 60,47.562351,7.5972202,4058
1404,Neubadstrasse 71,47.5491122,7.5705122,4054
1405,Riehenring 73,47.563932,7.5986467,4058
1406,Jungstrasse 41,47.5669169,7.5784038,4056
1407,Hüningerstrasse 46,47.5719922,7.576024899999999,4056
1408,Paradieshofstrasse 125,47.547512,7.5591448,4054
1409,Bruderholzallee 27,47.53485209999999,7.5878755,4059
1410,Auf dem Hummel 5,47.53194810000001,7.5935576,4059
1411,Stachelrain 12,47.5579598,7.605285200000001,4058
1412,Hardstrasse 87,47.5498591,7.606034999999999,4052
1413,"Allemannengasse 57, 59, 61, 63, 65",47.5580356,7.6026016,4058
1414,Altrheinweg,47.5778249,7.5879941,4057
1415,Westquaistrasse,47.5848764,7.587902100000001,4057
1416,Hafenstrasse,47.58605559999999,7.591809899999999,4057
1417,Südquai,47.5852531,7.597167100000001,4057
1418,"Mariasteinstrasse 6,",47.5490006,7.571409399999999,4054
1419,Leuengasse 5,47.5662134,7.587345099999999,4057
1420,Gerbergasse 71,47.5553649,7.5889357,4001
1421,Falknerstrasse 50,47.5553647,7.589121700000001,4001
1422,Falknerstrasse  52,47.5553287,7.589134899999999,4001
1423,Allmendstrasse 4,47.5698952,7.6169905,4058
1424,Hirzbrunnenschanze 57,47.5665765,7.616966199999999,4058
1425,Rheinfelderstrasse 40,47.559346,7.599793500000001,4058
1426,Bischoffweg 80,47.5908481,7.660847800000001,4125
1427,Centralbahnstrasse 9,47.5483919,7.5887109,4051
1428,Friedrichstrasse 19,47.55671359999999,7.5746172,4055
1429,Elsässerstrasse 115,47.5719465,7.5766361,4056
1430,Rennweg 84,47.5499756,7.6099497,4052
1431,Kohlenberg 13,47.5541069,7.5880288,4051
1432,Bärschwilerstrasse 14,47.5419019,7.595233500000001,4053
1433,Murbacherstrasse 33,47.5691578,7.577200400000001,4056
1434,Sennheimerstrasse  19,47.5535247,7.5711948,4054
1435,Steinengraben 51,47.55385099999999,7.586384600000001,4051
1436,Schulstrasse 12,47.5834933,7.5919393,4057
1437,Thiersteinerrain 60,47.5371017,7.5972673,4059
1438,Herrengrabenweg 1,47.5561221,7.5728221,4054
1439,Rütlistrasse 1,47.5550461,7.5776553,4051
1440,Türkheimerstrasse 75,47.5594316,7.572963199999998,4055
1441,Bruderholzallee 26,47.5345555,7.587217099999998,4059
1442,Eulerstrasse 45,47.5556733,7.579636499999999,4051
1443,Fürstensteinerstrasse 36,47.5375811,7.598023200000001,4053
1444,Meret Oppenheim-Strasse,47.54637109999999,7.588009400000001,4053
1445,Gundeldingerstrasse 63,47.5438767,7.5821305,4053
1446,"Davidsbodenstrasse 9, 11",47.5650472,7.577601599999999,4056
1447,Dornacherstrasse  79,47.5441463,7.5877923,4053
1448,Beinwilerstrasse 20,47.5416021,7.590783099999999,4053
1449,Feldbergstrasse 47,47.5664158,7.590774,4057
1450,Grenzacherstrasse 84,47.5586109,7.6028292,4058
1451,Wilhelm His-Strasse 11,47.5641509,7.582502499999999,4056
1452,Birsigstrasse 132,47.5508468,7.5770599,4054
1453,Markircherstrasse 64,47.5647671,7.5615573,4055
1454,Realpstrasse 17,47.5491567,7.568540400000001,4054
1455,Gottfried Keller-Strasse 20,47.5542348,7.565058800000001,4054
1456,Chrischonastrasse 51,47.5599324,7.603205300000001,4058
1457,Laupenring 125,47.547332,7.5676725,4054
1458,Bundesplatz 8,47.5506785,7.5748144,4054
1459,Markircherstrasse 35,47.56511829999999,7.562373600000001,4055
1460,Farnsburgerstrasse 18,47.555943,7.6129449,4052
1461,Hammerstrasse 75,47.5633057,7.596213100000001,4057
1462,Seltisbergerstrasse 31,47.5287285,7.600041699999998,4059
1463,Rufacherstrasse 17,47.5580441,7.571723999999999,4055
1464,Sempacherstrasse 68,47.5426869,7.586469299999999,4053
1466,Schulgasse 12,47.5834933,7.5919393,4057
1467,Haltingerstrasse 65,47.5661677,7.5947731,4057
1468,Schäublinstrasse 85,47.53353449999999,7.583854399999999,4059
1469,Marignanostrasse 68,47.5334078,7.5844915,4059
1470,Dammerkirchstrasse 60,47.566652,7.5663371,4056
1471,Leonhardsgraben 45,47.5559439,7.586253599999999,4051
1472,Mittlere Strasse 152,47.5649157,7.5747045,4056
1473,Vogesenstrasse 61,47.5665586,7.577193599999998,4056
1474,Hechtweg 27,47.5509704,7.618282300000001,4052
1475,"Eimeldingerweg 43, 45",47.5733116,7.596248200000001,4057
1476,Blotzheimerstrasse 14,47.56157959999999,7.5670717,4055
1477,Türkheimerstrasse 34,47.5587828,7.5740644,4055
1478,Spalenvorstadt 38,47.5579063,7.581834499999999,4051
1479,Eulerstrasse 85,47.5575845,7.577411199999999,4051
1480,Tessinstrasse 46,47.5511242,7.5622217,4054
1481,Laufenstrasse 86,47.5392944,7.5974667,4053
1482,Neubadstrasse 117,47.5474495,7.567128200000001,4054
1483,"Elsässerstrasse 105, 107",47.5715504,7.576954099999999,4056
1484,Kasernenstrasse 32,47.5627723,7.591587499999998,4058
1485,Adlerstrasse 44,47.5463645,7.610460999999999,4052
1486,Oberer Batterieweg 93,47.5299126,7.588837600000001,4059
1487,Oetlingerstrasse 181,47.5680926,7.596108899999999,4057
1488,Colmarerstrasse 52,47.5600183,7.5711046,4055
1489,Marignanostrasse 34,47.53476449999999,7.5855576,4059
1490,Jurastrasse 42,47.5417984,7.5909692,4053
1491,Nufenenstrasse 18,47.5496931,7.563281099999999,4054
1492,Sevogelstrasse 81,47.5492243,7.602103499999999,4052
1493,Bruderholzstrasse 49,47.5431888,7.5946528,4053
1494,Kirschblütenweg 21,47.5359922,7.589053900000001,4059
1495,"Margarethenstrasse 29, 31",47.54700889999999,7.5850084,4053
1496,Hegenheimerstrasse 4,47.5610035,7.5746679,4055
1497,Delsbergerallee 49,47.5400608,7.5999299,4053
1498,Colmarerstrasse 12,47.5615809,7.573154700000001,4055
1499,Unterer Batterieweg 64,47.5395828,7.587416999999999,4053
1500,Morgartenring 172,47.5503292,7.5655277,4054
1501,Altrheinweg 44,47.5766723,7.5878792,4057
1502,Rufacherstrasse 54,47.55916819999999,7.569844699999999,4055
1503,Erstfeldstrasse 60,47.5480675,7.5611386,4054
1504,Reichensteinerstrasse 10,47.5448807,7.5843183,4053
1505,Arnold Böcklin-Strasse 15,47.5510967,7.578601499999999,4051
1506,Sevogelstrasse 117,47.5480119,7.5995155,4052
1507,Paracelsusstrasse 44,47.5653233,7.6130685,4058
1508,Weiherhofstrasse 144,47.5474774,7.5578163,4054
1509,Unterer Rheinweg 90,47.5665375,7.5870669,4057
1510,Spiegelgasse 1,47.5601608,7.5871555,4051
1511,Glaserbergstrasse,47.56617310000001,7.5682702,4056
1512,Paradieshofstrasse 89,47.5488696,7.559519799999999,4054
1513,General Guisan-Strasse 56,47.5509668,7.566419199999999,4054
1514,Morgartenring 165,47.5509133,7.5660206,4054
1515,Lenzgasse 34,47.5687459,7.571132,4056
1516,Ryffstrasse 5,47.56868770000001,7.579258899999999,4056
1517,Bechburgerstrasse 10,47.5534537,7.615686999999999,4052
1518,Bechburgerstrasse 12,47.5535091,7.615816199999998,4052
1519,Wiesenschanzweg 30,47.57240119999999,7.5952174,4057
1520,Hohe Winde-Strasse 33,47.53396009999999,7.588649699999999,4059
1521,Oberwilerstrasse 26,47.5504984,7.5787274,4054
1522,Jungstrasse 25,47.5672936,7.5793084,4056
1523,"Lehenmattstrasse 353, 357",47.5434656,7.620807300000001,4052
1524,Bündnerstrasse 65,47.5589092,7.565744599999999,4055
1525,Aescherstrasse 17,47.5489523,7.5743317,4054
1526,Steinengraben 36,47.5535794,7.585622700000001,4051
1527,Steinenring 21,47.5521307,7.5789098,4051
1528,Thiersteinerrain 161,47.5348848,7.594761699999999,4059
1529,Hirzbrunnenschanze 88,47.565911,7.616937399999999,4058
1530,Ahornstrasse 11,47.5571908,7.5741401,4055
1531,"Viaduktstrasse 8, 10, 12, 14, 26, 28, 30",47.5489496,7.587584499999999,4051
1532,Im Wasenboden 54,47.5709183,7.5705038,4056
1533,Schöllenenstrasse 2,47.5506355,7.565103300000001,4054
1534,Elsässerstrasse 77,47.5700468,7.5783588,4056
1535,Müllheimerstrasse 55,47.5660715,7.5926999,4057
1536,Beinwilerstrasse 13,47.5419145,7.590713800000001,4053
1537,Luzernerring 99,47.567533,7.5666183,4056
1538,Mailand-Strasse,47.533832,7.607497,4053
1539,Kapellenstrasse 17,47.5505358,7.601874500000001,4052
1540,Steinbühlallee 175,47.547415,7.557205199999999,4054
1541,Buchenstrasse 3,47.5560067,7.5714666,4054
1542,Steinbühlallee 143,47.5481792,7.557485799999998,4054
1543,Pfeffingerstrasse 74,47.5426888,7.5900572,4053
1544,Gasstrasse 54,47.5694749,7.575207799999999,4056
1545,Austrasse 79,47.5548566,7.578239399999999,4051
1546,An der hohlen Gasse 5,47.5724589,7.610619900000001,4058
1547,"Gundeldingerrain 181, 183, 185, 187, 189, 191",47.5330249,7.595340299999998,4059
1548,Allschwilerstrasse 81,47.5572001,7.569458699999999,4055
1549,Maulbeerstrasse 31,47.56730030000001,7.601052699999999,4058
1550,Peter Rot-Strasse 62,47.56028130000001,7.6045218,4058
1551,Zur Gempenfluh 74,47.5285652,7.6009973,4059
1552,Im langen Loh 199,47.5495339,7.560730199999999,4054
1553,Marignanostrasse 12,47.5356272,7.586117799999999,4059
1554,Birmannsgasse 33,47.5572654,7.5764592,4055
1555,Gundeldingerstrasse 462,47.53745050000001,7.601449299999999,4053
1556,Schöllenenstrasse 9,47.5507528,7.564758199999999,4054
1557,Hegenheimerstrasse 220,47.564395,7.562830899999999,4055
1558,"Drahtzugstrasse 34,",47.5634852,7.5965326,4057
1559,Peter Rot-Strasse 64,47.5603533,7.604508799999999,4058
1560,Elsässerstrasse 260,47.5767901,7.572546199999999,4056
1561,Amerbachstrasse 17,47.5694313,7.591663699999999,4057
1562,Gotthelfstrasse 49,47.5534016,7.5686968,4054
1563,Lerchenstrasse 28,47.5388517,7.589433799999999,4059
1564,Rheingasse 40,47.5597044,7.5923361,4058
1565,Kleinhüningerstrasse 135,47.5784601,7.589952899999999,4057
1566,Pfeffingerstrasse 96,47.5418646,7.5893736,4053
1567,Riehenring 143,47.5677382,7.597262699999999,4058
1568,Elsässerstrasse 83,47.57025609999999,7.5781539,4056
1569,Elsässerstrasse 59,47.5694656,7.578920999999999,4056
1570,Elsässerstrasse 65,47.5697888,7.578607399999999,4056
1571,Rührbergerstrasse 4,47.5601393,7.603192699999999,4058
1572,Bellingerweg 25,47.57311929999999,7.596209999999999,4057
1573,Bellingerweg 19,47.5731233,7.5959531,4057
1574,Gotthelfstrasse 24,47.5530683,7.569214100000001,4054
1575,Dachsfelderstrasse 20,47.5459817,7.581959299999999,4053
1576,"Messeplatz 21, 22, 25",47.5627438,7.5993872,4058
1577,Kluserstrasse 29,47.5495724,7.5747318,4054
1578,Elsässerstrasse 8,47.5682639,7.5805198,4056
1579,Oberer Batterieweg 91,47.52996659999999,7.5888377,4059
1580,Blauenstrasse 57,47.5539922,7.5728375,4054
1581,Marschalkenstrasse 15,47.550322,7.574458099999999,4054
1582,Feierabendstrasse 69,47.5535291,7.579132500000001,4051
1583,Spalenring 89,47.5579178,7.5753776,4055
1584,Eimeldingerweg 17,47.5721029,7.596318699999999,4057
1585,Thiersteinerallee 58,47.5410361,7.597077199999999,4053
1586,Rheinfelderstrasse 10,47.5602375,7.5988585,4058
1587,Spalenring 141,47.5550452,7.5762348,4055
1588,Rümmingerstrasse 40,47.5651047,7.620748400000001,4058
1589,Schöllenenstrasse 30,47.5512472,7.5649586,4054
1590,Dammerkirchstrasse 36,47.5672986,7.567149300000001,4056
1591,Im langen Loh 239,47.54823930000001,7.560288799999999,4054
1592,General Guisan-Strasse 111,47.549228,7.564152599999999,4054
1593,Lerchenstrasse 113,47.5362004,7.588018499999999,4059
1594,Gundeldingerstrasse 486,47.5371522,7.602510899999999,4053
1595,Blotzheimerstrasse 28,47.5620117,7.565861,4055
1596,Pruntruterstrasse 14,47.5457071,7.5805932,4053
1597,St. Johanns-Ring 125,47.56240589999999,7.575189699999998,4056
1598,Peter Ochs-Strasse 59,47.5291896,7.5936766,4059
1599,Dornacherstrasse 329,47.5392295,7.6027165,4053
1600,Morgartenring 150,47.5512647,7.5654236,4054
1601,Andreas Heusler-Strasse 34,47.5470365,7.602408400000001,4052
1602,Solothurnerstrasse 39,47.5443901,7.590777699999999,4053
1603,Tellstrasse 5,47.5431687,7.5951228,4053
1604,Hirzbrunnenallee 33,47.5673554,7.6133941,4058
1605,Ahornstrasse 7,47.5570912,7.574657999999999,4055
1606,Feldbergstrasse 121,47.5672612,7.5958972,4057
1607,Arabienstrasse 51,47.5303247,7.590126799999999,4059
1608,Horburgstrasse 6,47.5705435,7.591064899999999,4057
1609,Rotbergerstrasse 4,47.54860739999999,7.578538600000001,4054
1610,Sempacherstrasse 57,47.5427864,7.587214800000001,4053
1611,Webergasse 23,47.5622869,7.5913602,4058
1612,In den Klostermatten,47.551559,7.617368399999999,4052
1613,Im Wasenboden 48,47.5707713,7.570588700000001,4056
1614,Mönchsbergerstrasse 4,47.5381016,7.598888,4053
1615,Steinenvorstadt 42,47.5523981,7.588050599999999,4051
1616,Steinenbachgässlein 39,47.5524434,7.5878248,4051
1617,Steinenbachgässlein 41,47.5524164,7.587798200000001,4051
1618,Giornicostrasse 217,47.5266148,7.5934625,4059
1619,Landskronstrasse 30,47.5687955,7.5773877,4056
1620,Jungstrasse 7,47.5676882,7.580199800000001,4056
1621,Reinacherstrasse 108,47.5375642,7.603720800000001,4053
1623,Auf der Al,47.5258539,7.5916519,4059
1624,Beim Wasserturm,47.52753,7.593142299999998,4059
1625,Sarnerstrasse 4,47.5594969,7.5658303,4055
1626,Vogesenstrasse 50,47.5664854,7.578256499999999,4056
1627,Mülhauserstrasse 119,47.5666033,7.576364,4056
1628,Landskronstrasse 52,47.5679492,7.57557,4056
1629,Elsässerstrasse 39,47.5684809,7.579711399999999,4056
1630,Neuhausstrasse 7,47.5826819,7.593412499999999,4057
1631,Colmarerstrasse 44,47.5602333,7.571360799999999,4055
1632,Gotthelfstrasse 96,47.55648189999999,7.568878600000001,4054
1633,Nonnenweg 51,47.5588442,7.5753799,4055
1634,Rümmingerstrasse 8,47.5658614,7.6199802,4058
1635,Oberwilerstrasse 50,47.5493556,7.577609799999999,4054
1636,Hauensteinstrasse 132,47.5336363,7.595944200000001,4059
1637,"Fasanenstrasse 106, 110",47.5729056,7.609212200000001,4058
1638,Claragraben 139,47.5649929,7.592231699999999,4057
1639,Thumringerstrasse 16,47.5674657,7.6177664,4058
1640,Solothurnerstrasse 85,47.54211,7.588883399999999,4053
1641,St.  Johanns-Vorstadt,47.5644679,7.583703499999999,4056
1642,Frobenstrasse 20,47.5451699,7.5858785,4053
1643,Missionsstrasse 13A,47.558428,7.5798178,4055
1644,Vogesenstrasse 116,47.56880899999999,7.575538300000001,4056
1645,Arnold Böcklin-Strasse 37,47.551216,7.576622400000001,4051
1646,Malzgasse 11,47.5536258,7.598164100000001,4052
1647,"Gellertstrasse 160, 162, 164, 166",47.546896,7.6184014,4052
1648,Lindenhofstrasse,47.5463623,7.596775799999999,4052
1649,Schauenburgerstrasse 33,47.554752,7.6102728,4052
1650,Holbeinstrasse 1,47.5551098,7.584404600000001,4051
1651,Spalentorweg 51,47.5551885,7.578971,4051
1652,"Kraftstrasse 1, 3, 9",47.5722421,7.5776868,4056
1653,Aeschenvorstadt 68,47.5515629,7.5941965,4051
1654,Byfangweg 36,47.551247,7.581140899999999,4051
1655,Seltisbergerstrasse 19,47.5290875,7.600534199999999,4059
1656,Pfeffelstrasse 37,47.5586693,7.5710215,4055
1657,Maiengasse 55,47.5609014,7.577605600000001,4056
1658,Spalentorweg 48,47.5556286,7.5789679,4051
1659,Margarethenstrasse 50,47.5462987,7.583340099999999,4053
1660,Bäumlihofstrasse 139,47.5656397,7.6179198,4058
1661,Bäumlihofstrasse 137,47.5656038,7.6178532,4058
1662,Peter Ochs-Strasse 53,47.5293396,7.593736000000001,4059
1663,Schweizergasse 17,47.5493341,7.578464100000001,4054
1664,Auf dem Wolf 11,47.5405807,7.6136252,4052
1665,Sierenzerstrasse 41,47.5596085,7.569296599999999,4055
1666,Römergasse,47.5579684,7.5995437,4058
1667,Uferstrasse 70,47.5794012,7.586800999999999,4057
1668,Peter Rot-Strasse 58,47.5601284,7.6045479,4058
1669,Jurastrasse 43,47.54176080000001,7.5913937,4053
1670,Grellingerstrasse 36,47.5501605,7.606522899999999,4052
1671,Rosengartenweg 6,47.5591357,7.603491600000001,4058
1672,Gerbergasse 80,47.55503239999999,7.5887355,4001
1673,"Margarethenstrasse 47, 49",47.5462688,7.584124799999999,4053
1674,Paradieshofstrasse 74,47.5496072,7.5594152,4054
1675,Benkenstrasse 8,47.54937839999999,7.571396999999999,4054
1676,Oberer Batterieweg 88,47.530102,7.588439699999999,4059
1677,Marignanostrasse 26,47.53505209999999,7.585744399999999,4059
1678,Sempacherstrasse 9,47.5445615,7.5886821,4053
1679,Strassburgerallee 82,47.5622154,7.5693374,4055
1680,Realpstrasse 71,47.5477643,7.565627200000001,4054
1681,Landskronstasse 26,47.5689097,7.5776391,4056
1682,Immengasse 4,47.5667886,7.580423300000001,4056
1683,Sommergasse 31,47.563828,7.574263199999999,4056
1684,Hermann Suter-Strasse 2,47.545825,7.5797434,4053
1685,Gotthardstrasse 67,47.5492444,7.5623635,4054
1686,Belchenstrasse 9,47.5540013,7.5741419,4054
1687,Eggfluhstrasse 12,47.5450406,7.573790499999999,4054
1688,Bärschwilerstrasse 16,47.541839,7.5951935,4053
1689,Delsbergerallee 46,47.54080760000001,7.599706400000001,4053
1690,Aeschenvorstadt 57,47.5522614,7.5942165,4051
1691,Glaserbergstrasse 37,47.5662537,7.568621800000001,4056
1692,Rennweg 40,47.5506908,7.606777,4052
1693,Schäferweg 49,47.5843888,7.594852999999999,4057
1694,"Schönaustr. 20, 22",47.5676961,7.6001414,4058
1695,Klybeckstrasse 230,47.5754021,7.589563600000001,4057
1696,Hardstrasse 112,47.5485305,7.608018899999998,4052
1697,Hardstrasse 114,47.5484944,7.608098399999999,4052
1698,Hardstrasse 116,47.54844929999999,7.608178000000001,4052
1699,Wartenbergstrasse 10,47.54830560000001,7.608031400000001,4052
1700,Mülhauserstrasse 28,47.56942249999999,7.581453600000001,4056
1701,Brombacherstrasse 31,47.5702423,7.5968809,4057
1702,Seltisbergerstrasse 13,47.5293301,7.6006942,4059
1703,Jurastrasse 55,47.54143879999999,7.5911442,4053
1704,"Schönaustr. 31, 33, 35",47.56781609999999,7.599422100000001,4058
1705,Homburgerstrasse 9,47.5561055,7.612503599999999,4052
1706,Amerbachstrasse 23,47.5694244,7.591941200000001,4057
1707,Weiherhofstrasse 156,47.5470188,7.557709099999999,4054
1708,Friedrich Oser-Strasse 1,47.53124589999999,7.5871548,4059
1709,Im Lohnhof 7,47.5544579,7.587857,4051
1710,Im Spitzacker 19,47.5277682,7.598498500000001,4059
1711,Grellingerstrasse 24,47.5506099,7.6067369,4052
1712,Grellingerstrasse 26,47.550538,7.606696799999999,4052
1713,Gundeldingerrain 105,47.53499069999999,7.591507999999999,4059
1714,Feierabendstrasse 52,47.553141,7.580228000000001,4051
1715,Furkastrasse 69,47.5489127,7.561326500000001,4054
1716,Gellertstrasse 84,47.5506992,7.6132466,4052
1717,Henric Petri-Strasse 15,47.55197829999999,7.592765500000001,4051
1718,Lothringerstrasse 116,47.5706169,7.5754366,4056
1719,Metzerstrasse 19,47.5641386,7.5778252,4056
1720,"Gasstrasse 67, 69, 71",47.5683426,7.574500599999999,4056
1721,Hüningerstrasse 25,47.57140709999999,7.574816800000001,4056
1722,Flughafenstrasse 100,47.5701033,7.5693873,4056
1723,Schweizergasse 12,47.5493247,7.579038100000001,4054
1724,In den Ziegelhöfen 99,47.54537209999999,7.5605997,4054
1725,Seltisbergerstrasse 21,47.5289888,7.6004143,4059
1726,Spalenberg 35,47.5567845,7.585668799999999,4051
1727,Baumgartenweg 8,47.5422897,7.5944775,4053
1728,Nufenenstrasse 51,47.5507011,7.5626059,4054
1729,St. Alban-Anlage 47,47.5529562,7.601151199999999,4052
1730,Eptingerstrasse 15,47.5549156,7.608278299999999,4052
1731,Luzernerring 140,47.56530559999999,7.5637273,4056
1732,Binzenstrasse 23,47.567375,7.618231199999999,4058
1733,Ahornstrasse 40,47.5575868,7.5713604,4055
1734,Sperrstrasse 89,47.56586009999999,7.596087799999999,4057
1735,Austrasse 30,47.5531566,7.583197999999999,4051
1736,Kleinhüningerstrasse 175,47.5798701,7.590765200000001,4057
1737,Murbacherstrasse 42,47.5690599,7.576376199999999,4056
1738,Lehenmattstrasse 251,47.547521,7.621312699999999,4052
1739,Arlesheimerstrasse 5,47.5392246,7.5998078,4053
1740,Im langen Loh 243,47.5481044,7.5602753,4054
1741,Strassburgerallee 78,47.5623765,7.569489300000001,4055
1742,Urs Graf-Strasse 12,47.5485756,7.610469600000001,4052
1743,Arnold Böcklin-Strasse 38,47.5516113,7.577008699999999,4051
1744,Im langen Loh 198,47.5488152,7.559997899999999,4054
1745,Bärenfelserstrasse 49,47.5681159,7.5874602,4057
1746,Oberwilerstrasse 78,47.5482739,7.5767033,4054
1747,Marschalkenstrasse 73,47.5480568,7.572143199999999,4054
1748,Leimenstrasse 7,47.55481409999999,7.583526900000001,4051
1749,"Fasanenstrasse 119, 121",47.5730716,7.609917500000001,4058
1750,Schneidergasse 14,47.55829079999999,7.586672000000001,4051
1751,Mittlere Strasse 134,47.5643934,7.5752612,4056
1752,Sustenstrasse 5,47.5458268,7.5599193,4054
1753,Bergalingerstrasse 27,47.5604709,7.610262400000001,4058
1754,Lenzgasse 12,47.5680578,7.5718952,4056
1755,Sperrstrasse 5,47.5645526,7.5919248,4057
1756,Gotthelfstrasse 82,47.55582070000001,7.5689153,4054
1757,Binzenstrasse 43,47.56777870000001,7.618897,4058
1758,Delsbergerallee 31,47.54086969999999,7.6004463,4053
1759,Flughafenstrasse 31,47.5675104,7.5708042,4056
1760,Bläsiring 155,47.5689283,7.595635400000001,4057
1761,"Auf dem Wolf 31, 31A",47.541693,7.614537599999999,4052
1762,Luftmattstrasse 31,47.5472981,7.601838,4052
1763,Ahornstrasse 37,47.55729170000001,7.5724131,4055
1764,Clarastrasse 11,47.56235359999999,7.5953068,4058
1765,St. Galler-Ring 19,47.5592577,7.5676481,4055
1766,Hirzbrunnenschanze 43,47.5668559,7.616595,4058
1767,Hirzbrunnenschanze 30,47.5666234,7.615730499999999,4058
1768,Falkensteinerstrasse 66,47.5380994,7.600468499999999,4053
1769,Nasenweg 4,47.5533547,7.6176261,4052
1770,In den Ziegelhöfen 175,47.5448073,7.556761,4054
1771,Passwangstrasse 2,47.5373658,7.594426400000001,4059
1772,Jungstrasse 1,47.5678138,7.5804925,4056
1773,"St. Alban-Vorstadt 69, 71",47.5542739,7.599088399999999,4052
1774,Erlenstrasse 25,47.5682802,7.5997888,4058
1775,Riehenring 180,47.5698916,7.597629100000001,4057
1776,Rütimeyerplatz 5,47.5488428,7.5756599,4054
1777,Oberalpstrasse 64,47.5502228,7.564119299999999,4054
1778,Oberwilerstrasse 54,47.5492543,7.577507399999999,4054
1779,Müllheimerstrasse 38,47.5653461,7.5938092,4057
1780,Untere Rheingasse 10,47.561208,7.591118,4058
1781,"Elsässerstrasse 123, 125",47.5722256,7.576410900000001,4056
1782,St. Alban-Vorstadt 33,47.5546708,7.5969051,4052
1783,Schaffhauserrheinweg 1,47.5571136,7.598174900000001,4058
1784,Haltingerstrasse 57,47.5660604,7.594281199999999,4057
1785,Wollbacherstrasse 22,47.566735,7.619185900000001,4058
1786,Andreas Heusler-Strasse 38,47.5469557,7.6023152,4052
1787,Birsigstrasse 28,47.5506944,7.584047099999999,4054
1788,Jakobsbergerholzweg 8,47.5341008,7.6042944,4053
1789,Freie Strasse 74,47.5547233,7.5912456,4051
1790,Burgfelderstrasse 4,47.562489,7.573342999999999,4055
1791,"Austrasse 71, 73",47.5542879,7.5799783,4051
1792,Austrasse 75,47.5544413,7.579566900000001,4051
1793,Austrasse 83,47.55491070000001,7.5780668,4051
1794,Colmarerstrasse 128,47.5575924,7.568427400000001,4055
1795,Schützenmattstrasse 44,47.5551757,7.579667599999999,4051
1796,Hardstrasse 104,47.5487018,7.607674,4052
1797,Fasanenstrasse 88G,47.572756,7.607493199999999,4058
1798,Fasanenstrasse 88A,47.572756,7.607493199999999,4058
1799,Fasanenstrasse 88B,47.572756,7.607493199999999,4058
1800,Fasanenstrasse 88D,47.572756,7.607493199999999,4058
1801,Fasanenstrasse 88,47.572756,7.607493199999999,4058
1802,Speiserstrasse 101,47.5466904,7.611652699999999,4052
1803,Bartenheimerstrasse 51,47.5589319,7.569427799999999,4055
1804,"Bachlettenstrasse 37, 39",47.5488377,7.5799506,4054
1805,Hochstrasse 72,47.5441404,7.595983899999999,4053
1806,Schlossgasse 12,47.57672549999999,7.5884775,4057
1807,Breisacherstrasse 16,47.5646614,7.589714199999999,4057
1808,Elisabethenstrasse 36,47.5510793,7.5908262,4051
1809,St. Alban-Vorstadt 50,47.5542919,7.597794099999999,4052
1810,Birmannsgasse 42,47.5573954,7.5760405,4055
1811,Peter Merian-Weg 12,47.5455972,7.5964356,4052
1812,Bartenheimerstrasse 26,47.5599385,7.570107800000001,4055
1813,Falkensteinerstrasse 12,47.540193,7.601842899999999,4053
1814,Claragraben 151,47.5656498,7.591941200000001,4057
1815,Leimenstrasse 49,47.5528298,7.5815734,4051
1816,Im Spitzacker 44,47.5282099,7.5977828,4059
1817,Marignanostrasse 31,47.5348447,7.586115599999999,4059
1818,"Hochbergerstrasse 15, 17",47.5756609,7.5977555,4057
1819,Mittlere Strasse 105,47.5633584,7.575923,4056
1820,Hohe Winde-Strasse 38,47.5339247,7.5882247,4059
1821,Näfelserstrasse 35,47.5579028,7.5656276,4055
1822,Rümmingerstrasse 19,47.5656984,7.620670700000001,4058
1823,Riehenstrasse 127,47.5643288,7.604321799999999,4058
1824,Gundeldingerrain 157,47.5335381,7.594930100000001,4059
1825,Oetlingerstrasse 171,47.5680117,7.5955077,4057
1826,Furkastrasse 64,47.54857639999999,7.561746299999999,4054
1827,Birkenstrasse 31,47.55690389999999,7.573382,4055
1828,Thumringerstrasse 66,47.5681743,7.6189781,4058
1829,Meisengasse 4,47.5694255,7.5876179,4057
1830,Elsässerstrasse 113,47.5718745,7.576689099999999,4056
1831,Fürstensteinerstrasse 42,47.5374996,7.5984878,4053
1832,Gerbergasse 14,47.55703159999999,7.587847200000001,4001
1833,Bruderholzallee 37,47.5344701,7.5878314,4059
1834,Hammerstrasse 147,47.5680744,7.594738899999999,4057
1835,Zürcherstrasse 89,47.5546207,7.6107996,4052
1836,Kluserstrasse 12,47.5499557,7.573277899999999,4054
1837,Sevogelstrasse 58,47.5501836,7.602909599999999,4052
1838,Friedensgasse 14,47.5631893,7.578943300000001,4056
1839,Faidostrasse 11,47.5336308,7.5858025,4059
1840,Uferstrasse 40,47.5766018,7.586789199999999,4057
1841,Hardstrasse 63,47.550747,7.605169699999998,4052
1843,Waldeckstrasse 5,47.5372712,7.6011423,4053
1844,Gotthardstrasse 65,47.5491994,7.5623899,4054
1845,Eulerstrasse 80,47.5575462,7.5778346,4051
1846,Aeschengraben 14,47.5508622,7.593413199999999,4051
1847,Grellingerstrasse 93,47.5480228,7.604563399999999,4052
1848,"Kraftstrasse 1, 3",47.5722421,7.5776868,4056
1849,Lichtstrasse 3,47.5719728,7.577234199999999,4056
1850,Innere Margarethenstr. 12,47.5501905,7.586553599999999,4051
1851,Turnerstrasse 21,47.5611414,7.6004719,4058
1852,Realpstrasse 35,47.5487529,7.5677291,4054
1853,Färberstrasse 17,47.5764879,7.592742599999999,4057
1854,Birmannsgasse 45,47.5570897,7.5759866,4055
1855,Obwaldnerstrasse 9,47.5600617,7.5662575,4055
1856,Bechburgerstrasse 2,47.5533229,7.615063899999999,4052
1857,Im Spitzacker 5,47.5278843,7.5991495,4059
1858,Gundeldingerrain 133,47.53388229999999,7.5934965,4059
1859,Rheinweilerweg 19,47.5723728,7.595952499999998,4057
1860,Drahtzugstrasse 12,47.562939,7.594763700000001,4057
1861,Riehenstrasse 318,47.5696807,7.6160596,4058
1862,Clarastrasse 4,47.5619667,7.595491699999998,4058
1863,Zur Gempenfluh 76,47.5285022,7.601050300000001,4059
1864,Tüllingerstrasse 46,47.5680059,7.6173563,4058
1865,Thiersteinerallee 68,47.540434,7.596703499999999,4053
1866,"Münchensteinerstrasse 83, 85, 87",47.5403191,7.6065268,4052
1867,Spitalstrasse 40,47.5639082,7.582408900000001,4056
1868,Lothringerstrasse 30,47.56695209999999,7.579054999999999,4056
1869,Rufacherstrasse 10,47.5579118,7.5728,4055
1870,Weiherweg 32,47.55397680000001,7.576921899999999,4054
1871,Amselstrasse 49,47.5381367,7.588790400000001,4059
1872,Theodorsgraben 40,47.558859,7.5990035,4058
1873,Scheltenstrasse 6,47.5340994,7.5926256,4059
1874,Spitalstrasse 26,47.5631876,7.583283900000001,4056
1875,Flughafenstrasse 52,47.5682154,7.5705032,4056
1876,Schorenweg 36,47.5719828,7.6112974,4058
1878,Entenweidstrasse 74,47.5688942,7.5738344,4056
1879,"Missionsstrasse 8, 8A, 10",47.5589727,7.5798601,4055
1880,"Eulerstrasse 77, 81, 83",47.5572676,7.5776345,4051
1881,Metzerstrasse 3,47.5637865,7.5789404,4056
1882,Holbeinstrasse 85,47.550842,7.582224399999999,4051
1883,Jacob Burckhardt-Strasse 52,47.5464727,7.600427499999999,4052
1884,Sarnerstrasse 2,47.5594853,7.565719700000001,4055
1885,Kleinriehenstrasse 17,47.5660706,7.6125527,4058
1886,Schwarzwaldallee 77,47.5617388,7.610372799999999,4058
1887,Göschenenstrasse 65,47.5469976,7.560817399999999,4054
1888,"Göschenenstrasse 51, 53",47.5470869,7.561428599999999,4054
1889,Schweizergasse 39,47.5497858,7.576844599999999,4054
1890,Flughafenstrasse,47.5713586,7.5687423,4056
1891,"Hebelstrasse 2, 10, 20, 30, 32, 34, 36",47.5602072,7.584439799999999,4056
1892,Schützenmattstrasse 52,47.5546312,7.5787038,4051
1893,Oetlingerstrasse 146,47.5677044,7.593659100000001,4057
1894,Untere Rebgasse 29,47.5627089,7.5918796,4058
1895,Bristenweg 10,47.5499939,7.567838300000001,4054
1896,St. Jakobs-Strasse 159,47.5454056,7.603369900000001,4052
1897,Strassburgerallee 56,47.5632762,7.5703592,4055
1898,Meisengasse 8,47.56967,7.5876165,4057
1899,Sevogelstrasse 62,47.5500311,7.602670000000001,4052
1900,Webergasse 22,47.5620858,7.591577399999999,4058
1901,Webergasse 20,47.5620708,7.591545600000001,4058
1902,Feldbergstrasse 110,47.5669402,7.595453099999999,4057
1903,Giessliweg 68,47.58032040000001,7.590468100000001,4057
1904,Karpfenweg 16,47.5512392,7.6189342,4052
1905,Feldbergstrasse 34,47.5659403,7.5898425,4057
1906,Laupenring 154,47.5487427,7.567113399999999,4054
1907,Hebelstrasse 129,47.5640683,7.576429699999998,4056
1908,Kannenfeldstrasse 59,47.5645057,7.572898799999999,4056
1909,"Burgweg 32, 34",47.5574366,7.6008332,4058
1910,Tüllingerstrasse 44,47.5679379,7.6171992,4058
1911,Malzgasse 19,47.5532845,7.597884100000001,4052
1912,Colmarerstrasse 8,47.5617515,7.573394299999999,4055
1913,Amerbachstrasse 63,47.5694238,7.5945036,4057
1914,St. Alban-Vorstadt 20,47.55451009999999,7.5960543,4052
1915,Gempenstrasse 74,47.5429946,7.585450300000001,4053
1916,Reiterstrasse 51,47.5473925,7.56521,4054
1917,Bachlettenstrasse 66,47.5483323,7.578075199999999,4054
1918,Furkastrasse 79,47.5492397,7.561302,4054
1919,Benkenstrasse 46,47.548288,7.5732408,4054
1920,Hirzbrunnenschanze 58,47.5662627,7.616327300000001,4058
1921,Metzerstrasse 55,47.5648431,7.5753155,4056
1922,Weiherhofstrasse 101,47.5477827,7.5582421,4054
1923,"Socinstrasse 44, 46",47.5560814,7.5768077,4051
1924,Steinenring 49,47.5510271,7.5807502,4051
1925,Im Holeeletten 9,47.54698210000001,7.566874599999999,4054
1926,Herrengrabenweg 12,47.5558439,7.5722899,4054
1927,Entenweidstrasse,47.5678822,7.573847100000001,4056
1928,Vogesenplatz 17,47.5700531,7.5729767,4056
1929,Birsigstrasse 97,47.5500307,7.578879799999999,4054
1930,Holbeinstrasse 94,47.55094589999999,7.581738400000001,4051
1931,Dammerkirchstrasse 30,47.5674423,7.567335699999999,4056
1932,Breisacherstrasse 18,47.5647534,7.5896797,4057
1933,Spalengraben 7,47.55805369999999,7.5821008,4051
1934,Gellertstrasse 47,47.5515965,7.614671,4052
1935,Weiherhofstrasse 72,47.5492755,7.558418100000001,4054
1936,Missionsstrasse 80,47.5616419,7.574789199999999,4055
1937,Pfeffelstrasse 4,47.5598464,7.571967799999999,4055
1938,Neubadstrasse 124,47.5474596,7.566105299999999,4054
1939,Homburgerstrasse 5,47.5562226,7.6124409,4052
1940,Neubadstrasse 157,47.5461597,7.564915399999999,4054
1941,Blauenstrasse 41,47.5546646,7.573243499999999,4054
1942,Spalenring 105,47.5568106,7.5756722,4055
1943,Hebelstrasse 25,47.5607882,7.5817095,4056
1944,Bündnerstrasse 20,47.5585542,7.5694667,4055
1945,Müllheimerstrasse 149,47.5697531,7.592111,4057
1946,Steinbühlallee 141,47.5482242,7.557499200000001,4054
1947,Klingelbergstrasse 19,47.5611909,7.5802165,4056
1948,"Oetlingerstrasse 47, 49",47.5677057,7.589757699999999,4057
1949,"Hardstrasse 24, 26",47.551128,7.6028992,4052
1950,Müllheimerstrasse 161,47.5703443,7.592114199999999,4057
1951,Müllheimerstrasse 163,47.5704072,7.5921144,4057
1952,Luzernerring 124,47.5660514,7.5644488,4056
1953,Schöllenenstrasse 8,47.5507704,7.565077,4054
1954,Oberwilerstrasse 86,47.5477271,7.5760954,4054
1955,Hardstrasse 86,47.5491799,7.6067456,4052
1956,Mittlere Strasse 122,47.5642223,7.5754601,4056
1957,Gempenstrasse 31,47.5444645,7.5871048,4053
1958,Markircherstrasse 10,47.566565,7.563572899999999,4055
1959,Davidsrain 14,47.5651841,7.575967500000001,4056
1960,Gotthardstrasse 5,47.5472551,7.563966199999999,4054
1961,Gundeldingerstrasse 153,47.5419408,7.5879665,4053
1962,Weiherhofstrasse 45,47.5500607,7.5590682,4054
1963,Bechburgerstrasse 5,47.5536014,7.6151293,4052
1964,Burgfelderstrasse 144,47.5656623,7.566693600000001,4055
1965,Feldbergstrasse 144,47.5671989,7.5970087,4057
1966,Käferholzstrasse 124,47.5649443,7.619764499999999,4058
1967,Herrengrabenweg 10,47.5558888,7.5723432,4054
1968,Davidsrain 19,47.56511159999999,7.5764324,4056
1969,Paradieshofstrasse 120,47.5476472,7.558813,4054
1970,Helvetiaplatz 36,47.5591625,7.5664544,4055
1971,"Spiegelgasse 2, 4",47.5604925,7.5869203,4051
1972,Vogesenstrasse 90,47.5678814,7.576585799999999,4056
1973,Göschenenstrasse 63,47.54700649999999,7.5608971,4054
1974,Hechtliacker 44,47.5360646,7.6020693,4053
1975,Schwarzwaldallee 73,47.5616218,7.6104654,4058
1976,Delsbergerallee 10,47.5421016,7.6005338,4053
1977,Lehenmattstrasse 214,47.5489696,7.620985500000001,4052
1978,Dornacherstrasse,47.5412247,7.5953937,4053
1979,Dornacherstrasse 404,47.5375232,7.6073285,4053
1980,Hohe Winde-Strasse 62,47.5335504,7.588649500000001,4059
1981,Im langen Loh 194,47.5489231,7.560038,4054
1982,Hirzbrunnenallee 24,47.566772,7.6125816,4058
1983,Unterer Rheinweg 148,47.5689752,7.5867415,4057
1984,Münsterberg 10,47.5553913,7.591181199999999,4051
1985,Schlettstadterstrasse 31,47.5586762,7.5728683,4055
1986,Lehenmattstrasse 154,47.5509315,7.620155299999999,4052
1987,Im tiefen Boden 31,47.5305573,7.5910969,4059
1988,Lindenhofstrasse 8,47.5470109,7.594995000000001,4052
1989,Hammerstrasse 176,47.5691096,7.595118499999999,4057
1990,Erlenstrasse 16,47.5680417,7.599226499999999,4058
1991,Palmenstrasse 19,47.5564985,7.5739125,4055
1992,Im Sesselacker 32,47.5363384,7.5991882,4059
1993,"Schwarzwaldalle 225, 231",47.5672311,7.605191199999999,4058
1994,Mattenstrasse 26,47.566553,7.602361999999999,4058
1995,Mattenstrasse 28,47.5663378,7.601869700000001,4058
1996,Südquaistrasse 14,47.5859324,7.5938044,4057
1997,Rebgasse 23,47.5602133,7.5952075,4058
1998,Gundeldingerstrasse 75,47.5436499,7.582748199999999,4053
1999,"Luzernerring 92, 94, 96, 98",47.5686229,7.5669553,4056
2000,"Davidsbodenstrasse 24, 26",47.5656231,7.577390500000001,4056
2001,Holbeinstrasse 6,47.5548404,7.5841249,4051
2002,Erlenstrasse 57,47.5689283,7.6015562,4058
2003,Froburgstrasse 3,47.556109,7.611777600000001,4052
2004,Grenzacherstrasse 91,47.5589203,7.602796100000001,4058
2005,Centralbahnstrasse 21,47.5471497,7.5919413,4051
2006,Bäumlihofstrasse 147,47.5657741,7.618225899999999,4058
2007,Im langen Loh 276,47.5464593,7.5595675,4054
2008,Im langen Loh 216,47.5481318,7.559876800000001,4054
2009,Marignanostrasse 20,47.5353846,7.5859578,4059
2010,Rufacherstrasse 49,47.558691,7.5702218,4055
2011,Strassburgerallee 79,47.5620164,7.569820600000001,4055
2012,Davidsbodenstrasse 30,47.56585099999999,7.577008699999999,4056
2013,Gasstrasse 49,47.5692316,7.575619100000001,4056
2014,Klosterberg 15,47.5519814,7.590347699999999,4051
2015,Beckenstrasse 12,47.5721735,7.5750807,4056
2016,Eulerstrasse 82,47.55769129999999,7.5777526,4051
2017,Im langen Loh 170,47.54956139999999,7.560278599999999,4054
2018,Seltisbergerstrasse 47,47.52850480000001,7.599164699999999,4059
2019,Homburgerstrasse 52,47.5543881,7.6128081,4052
2020,Petersplatz 4,47.55816110000001,7.582539199999999,4051
2021,Augustinergasse 7,47.5577458,7.5908158,4051
2022,Kandererstrasse 15,47.5656615,7.5898683,4057
2023,Mostackerstrasse 16,47.5552933,7.5815487,4051
2024,Tüllingerstrasse 34,47.5677279,7.6168637,4058
2025,St. Johanns-Vorstadt 48,47.5642208,7.5841637,4056
2026,Falknerstrasse,47.5559917,7.589011699999999,
2027,Thiersteinerrain 159,47.5349408,7.594800299999999,4059
2028,Sennheimerstrasse 61,47.5541387,7.5690972,4054
2029,Breisacherstrasse 118,47.56881749999999,7.5888392,4057
2030,Bättwilerstrasse 5,47.5498716,7.572607100000001,4054
2031,St. Alban-Ring 182,47.54936439999999,7.6096953,4052
2032,Birsstrasse 84,47.5518754,7.6204508,4052
2033,Turnerstrasse 22,47.5610339,7.600152700000001,4058
2034,Realpstrasse 18,47.5493728,7.5683416,4054
2035,Käferholzstrasse 66,47.5663681,7.618015199999999,4058
2036,Angensteinerstrasse 48,47.5500643,7.6049805,4052
2037,Hegenheimerstrasse 133,47.5622805,7.566791800000001,4055
2038,Jacob Burckhardt-Strasse 21,47.54804300000001,7.601258,4052
2039,Kannenfeldstrasse 55,47.5643602,7.572882599999999,4056
2040,Riehenstrasse 10,47.5600575,7.5973196,4058
2041,Rufacherstrasse 36,47.5585792,7.571180699999999,4055
2042,Bruderholzweg 20,47.5396966,7.591100699999999,4053
2043,Socinstrasse 22,47.5573024,7.5786577,4051
2044,Claramattweg 1,47.5630912,7.595242499999999,4057
2045,"Claramattweg 3, 3A",47.5629382,7.595335099999999,4057
2046,Erlenmattpark,47.5709643,7.6008197,4058
2047,Reichensteinerstrasse 40,47.54364109999999,7.583285799999999,4053
2048,Laupenring 168,47.5490957,7.566799999999999,4054
2049,Missionsstrasse 11,47.558335,7.5800289,4055
2050,Nauenstrasse 67,47.5466908,7.595085799999999,4052
2051,Efringerstrasse 12,47.56779299999999,7.5966383,4057
2052,Falkensteinerstrasse 52,47.5388272,7.600962099999999,4053
2053,Wilhelm Klein-Strasse 27,47.5712386,7.565896099999999,4056
2054,Seltisbergerstrasse 35,47.5286299,7.5997891,4059
2055,St. Alban-Anlage 58,47.5524305,7.602439999999999,4052
2056,"Glaserbergstrasse 19, 21 und 23",47.56699,7.5697132,4056
2057,"Glaserbergstrasse 25, 27 und 29",47.5666577,7.5692606,4056
2058,Bergalingerstrasse 32,47.5605482,7.6105987,4058
2059,Bäumlihofstrasse 88,47.56415,7.6158286,4058
2060,Güterstrasse 219,47.5426362,7.595614100000001,4053
2061,Hermann Suter-Strasse 10,47.5452673,7.5798083,4053
2062,Ackerstrasse 38,47.5779915,7.5901558,4057
2063,Ackerstrasse 44,47.5778739,7.590660499999999,4057
2064,"Erlenmattstrasse 5, 7",47.5690119,7.599764899999999,4058
2065,Morgartenring 152,47.55119269999999,7.565436699999999,4054
2066,Lachenstrasse 5,47.5681776,7.569357399999999,4056
2067,"Solothurnerstrasse 72, 74",47.5427292,7.588501699999999,4053
2068,Im langen Loh 223,47.5488776,7.560476299999999,4054
2069,Utengasse 20,47.56040549999999,7.5926702,4058
2070,Kasernenstrasse 34,47.5628171,7.591693899999999,4058
2071,Sängergasse 17,47.5557226,7.571776,4054
2072,Schäublin-Strasse 57,47.53508919999999,7.584828099999999,4059
2073,Eptingerstrasse 17,47.5548436,7.608317899999999,4052
2074,Hagenaustrasse 16,47.5726099,7.568524399999999,4056
2075,Lysbüchelstrasse 160,47.5760555,7.5698551,4056
2076,Dittingerstrasse 11,47.5404978,7.589627099999999,4053
2077,Schafgässlein 8,47.5603968,7.5924576,4058
2078,"Mattenstrasse 53, 55",47.5673969,7.6004869,4058
2079,"Falkensteinerstrasse 15, 17",47.5397341,7.602040700000001,4053
2080,Steinbühlallee 25,47.5514697,7.558715299999998,4054
2081,Speiserstrasse 99,47.54673529999999,7.611679399999999,4052
2082,Hegenheimerstrasse 259,47.5647247,7.560406100000001,4055
2083,Markgräflerstrasse 76,47.5699305,7.5955125,4057
2084,Peterskirchplatz 12,47.559534,7.585329300000001,4051
2085,Fürstensteinerstrasse 85,47.53713339999999,7.601315800000001,4053
2086,Sternenbergerstrasse 1,47.5383541,7.598438,4053
2087,Aescherstrasse 8,47.5491594,7.574079900000001,4054
2088,Thumringerstrasse 4,47.5672414,7.617367000000001,4058
2089,Webergasse 9,47.5618742,7.5906415,4058
2090,Froburgstrasse 43,47.5545498,7.6123956,4052
2091,Klingelbergstrasse 17,47.5610869,7.580169,4056
2092,"Spalenring 90, 92, 94",47.5576038,7.5747656,4055
2093,Froburgstrasse 16,47.5557562,7.611562500000001,4052
2094,Rütimeyerstrasse 46,47.5487619,7.575672900000001,4054
2095,Grellingerstrasse 33,47.5501144,7.6073331,4052
2096,Talweg 51,47.5704527,7.6442757,4125
2097,Grosspeterstrasse 51,47.5453387,7.602357,4052
2098,"In den Schorenmatten 200, 202",47.5710536,7.608178499999999,4058
2099,Fasanenstrasse 110,47.5729102,7.609333899999999,4058
2100,Friedensgasse 11,47.5631026,7.579257500000001,4056
2101,Käferholzstrasse 120,47.5650165,7.6196584,4058
2102,Landskronstrasse 95,47.5669532,7.574436899999998,4056
2103,Kembserweg 8,47.56102689999999,7.572072400000001,4055
2104,Kembserweg 16,47.5611778,7.5717319,4055
2105,Jacob Burckhardt-Strasse 12,47.5483081,7.6008401,4052
2106,Neuweilerstrasse 90,47.5462631,7.558905099999999,4054
2107,Fürstensteinerstrasse 57,47.537599,7.599364599999999,4053
2108,Starenstrasse 2,47.5389102,7.585914400000001,4059
2109,Sustenstrasse 21,47.5452805,7.560096199999998,4054
2110,Häsingerstrasse 34,47.5625755,7.568426799999999,4055
2111,Adlerstrasse 35,47.5463713,7.610966,4052
2112,Adlerstrasse,47.5473106,7.60988,4052
2113,"Holeestrasse 117, 119",47.5454515,7.568345399999999,4054
2114,Mörsbergerstrasse 30,47.5671432,7.593800799999999,4057
2115,Leuengasse 7,47.5662278,7.587425400000001,4057
2116,Arabienstrasse 7,47.5324493,7.588526000000001,4059
2117,Erlenstrasse 96,47.56944660000001,7.604058599999999,4058
2118,Leimenstrasse 32,47.554196,7.581545699999999,4051
2119,Schützenmattstrasse 46,47.5551001,7.5795787,4051
2120,Hirzbrunnenallee 8,47.56690769999999,7.6120638,4058
2121,Erlenstrasse 23,47.5726721,7.5999487,4058
2122,Klingelbergstrasse 89,47.56439870000001,7.5784504,4056
2123,Wasgenring 155,47.558685,7.564976199999999,4055
2124,Schäublinstrasse 109,47.53250999999999,7.583227399999999,4059
2125,Wettsteinplatz 4,47.5596699,7.5979961,4058
2126,Bärenfelserstrasse 17,47.5667796,7.587678899999999,4057
2127,"Bärenfelserstrasse 18, 20",47.566959,7.587998300000001,4057
2128,Giornicostrasse 88,47.52859309999999,7.6003733,4059
2129,"In den Schorenmatten 268, 270, 272, 274, 276, 278, 280, 282, 284, 286, 288",47.5710536,7.608178499999999,4058
2130,"In den Schorenmatten 244, 246, 248, 250, 252, 254, 256, 258, 260, 262, 264, 266,",47.5710536,7.608178499999999,4058
2131,"In den Schorenmatten 204, 206, 208, 210, 212, 214, 216, 218, 220, 222, 224, 226",47.5710536,7.608178499999999,4058
2132,Edisonstrasse 5,47.5464588,7.582994100000001,4053
2133,An der hohlen Gase 10,47.5723606,7.6101943,4058
2134,Largitzenstrasse 67,47.5662077,7.5673998,4056
2135,"St. Johanns-Ring 44,",47.5645975,7.577613700000001,4056
2136,"Erlenstrasse 39, 41",47.5685507,7.6002895,4058
2137,Bartenheimerstrasse 55,47.5588241,7.5693212,4055
2138,Fasanenstrasse 106,47.5729056,7.609212200000001,4058
2139,Burgunderstrasse 44,47.5526668,7.5783637,4051
2140,Hammerstrasse 14,47.5601029,7.5982234,4058
2141,Pfirtergasse 7,47.5496749,7.5792886,4054
2142,Paracelsusstrasse 59,47.566251,7.611388900000001,4058
2143,Marignanostrasse 66,47.5334887,7.584531499999999,4059
2144,Solothurnerstrasse 93,47.54175069999999,7.5885354,4053
2145,Bellinzonastrasse 6,47.5344665,7.586513,4059
2146,Reinacherstrasse,47.5362591,7.6044879,4053
2147,Dornacherstrasse 275,47.54037719999999,7.5987753,4053
2148,Hegenheimerstrasse 175,47.5634697,7.564920999999999,4055
2149,Dittingerstrasse 8,47.5406679,7.589295799999999,4053
2150,Lyon-Strasse 10,47.5359761,7.607788900000001,4053
2151,Wollbacherstrasse 52,47.5672552,7.620104599999999,4058
2152,Viaduktstrasse 33,47.5489215,7.5849164,4051
2153,Schalerstrasse 40,47.5475141,7.5736506,4054
2154,Pfeffingerstrasse 61,47.5434543,7.591160299999999,4053
2155,Gellertstrasse 30,47.5516137,7.609157799999999,4052
2156,Paradiesstrasse 31,47.5798063,7.6442188,4125
2157,Wasgenring 121,47.55967450000001,7.564845599999999,4055
2158,Sevogelstrasse 83,47.5489171,7.601776600000001,4052
2159,Immengasse 14,47.5665644,7.5799311,4056
2160,Furkastrasse 43,47.5478871,7.561629699999998,4054
2161,In den Ziegelhöfen 172,47.5450666,7.556522699999999,4054
2162,Gundeldingerstrasse 61,47.5439093,7.5820317,4053
2163,Grienstrasse 116,47.5594632,7.565440199999999,4055
2164,Im langen Loh 263,47.5473401,7.560114100000001,4054
2165,Lehenmattstrasse 252,47.5478637,7.6207559,4052
2166,Starenstrasse 11,47.5391451,7.586106,4059
2167,Angensteinerstrasse 7,47.5491308,7.6032783,4052
2168,Güterstrasse 278,47.5412578,7.5993624,4053
2169,Davidsbodenstrasse 56,47.5667852,7.575759,4056
2170,Eichenstrasse 44,47.55492960000001,7.5695774,4054
2171,Angensteinerstrasse 13,47.5492476,7.6034248,4052
2172,"Rennweg 15, 17,19",47.551422,7.604866299999999,4052
2173,Jägerstrasse 19,47.5685142,7.6019162,4058
2174,Rebgasse 25,47.5602434,7.5954189,4058
2175,Birsstrasse 80,47.5519565,7.6203182,4052
2176,Schertlingasse 4,47.5517736,7.5840899,4051
2177,Paradieshofstrasse 71,47.5494001,7.559733499999999,4054
2178,Oberwilerstrasse 110,47.5466576,7.575401899999999,4054
2179,Neubadstrasse 132,47.5473341,7.565706499999999,4054
2180,Drosselstrasse 50,47.5370949,7.5868415,4059
2181,Reinacherstrasse 88,47.5383292,7.603377799999999,4053
2182,Schliengerweg 22,47.5720351,7.595834099999998,4057
2183,"Innere Margarethenstrasse 24, 24A",47.5495584,7.5862094,4051
2184,Höhenweg 65,47.5452769,7.5793302,4053
2185,Güterstrasse 163,47.5443061,7.591022199999999,4053
2186,Pfarrgasse 11,47.5828077,7.5915956,4057
2187,Emanuel Büchel-Strasse 12,47.5501987,7.6132147,4052
2188,Angensteinerstrasse 31,47.5499118,7.6043169,4052
2189,Mostackerstrasse 18,47.5552214,7.581455499999999,4051
2190,Socinstrasse 23,47.5573274,7.5791079,4051
2191,Rittergasse 29,47.5551154,7.594023399999999,4051
2192,Lothringerstrasse 95,47.5693642,7.576168399999999,4056
2193,Eimeldingerweg 23,47.57239080000001,7.596341,4057
2194,Birsstrasse 104,47.5513076,7.6211928,4052
2195,Bläsiring 43,47.5686313,7.588414900000001,4057
2196,Hirzbrunnenschanze 53,47.5666576,7.616860099999999,4058
2197,Kapellenstrasse 28,47.5506704,7.602471100000001,4052
2198,Steinenvorstadt 58,47.551904,7.5876108,4051
2199,Stachelrain 16,47.5580325,7.605259299999999,4058
2200,Birsstrasse 46,47.5527324,7.6187931,4052
2201,Niklaus von Flüe-Strasse 33,47.5351659,7.5988088,4059
2202,Birmannsgasse 22,47.5577808,7.577184099999999,4055
2203,Knöringerstrasse 6,47.5633415,7.5670999,4055
2204,"Weiherhofstrasse 34, 34 A, 36",47.55066,7.558912800000001,4054
2205,Schillerstrasse 30,47.5432671,7.596645499999998,4053
2206,Riehenring 147,47.567999,7.597290099999999,4058
2207,Luzernerring 120,47.5662311,7.5646219,4056
2208,Steinenvorstadt 25,47.5531794,7.588982699999999,4051
2209,Centralbahnplatz 6,47.5482372,7.589212400000001,4051
2210,Hohe Winde-Strasse 5,47.5349221,7.5889313,4059
2211,Türkheimerstrasse 16,47.5582606,7.574474999999999,4055
2212,Sennheimerstrasse 35,47.553845,7.570319199999999,4054
2213,Amselstrasse 5,47.5382599,7.5863113,4059
2214,Sevogelstrasse 60,47.5501097,7.602791399999999,4052
2215,Hochstrasse 74,47.5441042,7.596116599999999,4053
2216,Hochstrasse 76,47.5440681,7.5962494,4053
2217,Holbeinstrasse 49,47.5527261,7.5847302,4051
2218,Spitalstrasse 33,47.5634318,7.5821817,4056
2219,Bürenfluhstrasse 4,47.5301232,7.599501500000001,4059
2220,Kleinriehenstrasse 31,47.5663849,7.6128727,4058
2221,Schützengraben 21,47.55582769999999,7.5819585,4051
2222,Feldbergstrasse 43,47.5663172,7.5905479,4057
2223,Im Sesselacker 23,47.5367523,7.5988862,4059
2224,Therwilerstrasse 28,47.5501548,7.576606399999999,4054
2225,Morgartenring 169,47.55076039999999,7.5660335,4054
2226,Lenzgasse 29,47.5685807,7.570740400000001,4056
2227,Lenzgasse 31,47.5686978,7.570581199999999,4056
2228,Kleinriehenstrasse 15,47.5659898,7.6124461,4058
2229,Schlachthofstrasse,47.5769774,7.569077,4056
2230,Spalenring 71,47.5585386,7.5751798,4055
2231,Birmannsgasse 46,47.55731480000001,7.575787900000001,4055
2232,Reinacherstrasse 132,47.53604360000001,7.604167599999998,4053
2233,Baumgartenweg 4,47.5424279,7.5945907,4053
2234,Giessliweg 72,47.5802752,7.590654000000001,4057
2235,Neuhausstrasse 47,47.5824887,7.5966553,4057
2236,Spalenring 142,47.5550723,7.575593,4055
2237,Falkensteinerstrasse 6,47.54041549999999,7.6019939,4053
2238,Breisacherstrasse 38,47.5656442,7.5893633,4057
2239,Erstfeldstrasse 57,47.5478335,7.5613241,4054
2240,Hammerstrasse 131,47.5673007,7.5949359,4057
2241,Marktgasse 3,47.55967510000001,7.5878007,4051
2242,Schalerstrasse 8,47.5488346,7.574969100000001,4054
2243,Emil Angst-Strasse 2,47.5300749,7.6019315,4059
2244,Leonhardsgraben 9,47.556616,7.584533,4051
2245,St. Johanns-Ring 38,47.5647951,7.577840200000001,4056
2246,Holeestrasse 7,47.5442393,7.5745722,4054
2247,C.F. Meyer-Strasse 54,47.5297737,7.5919047,4059
2248,Grellingerstrasse 80,47.5487057,7.604964099999999,4052
2249,Spalentorweg 4,47.5574889,7.5805979,4051
2250,Laupenring 169,47.5489524,7.5662417,4054
2251,Kannenfeldstrasse 26,47.5630909,7.573915899999999,4056
2252,"Kannenfeldstrasse 24, 24A",47.5630099,7.573942199999999,4056
2253,Erlenstrasse 14,47.5680237,7.599131699999999,4058
2254,St. Alban-Ring 194,47.5490409,7.6095083,4052
2255,Auf der Alp 3,47.5264605,7.5916896,4059
2256,Hegenheimerstrasse 131,47.5622085,7.5668713,4055
2257,Leonhardsgraben 34,47.55609949999999,7.5850306,4051
2258,Luftmattstrasse 18,47.5478556,7.601959300000001,4052
2259,Giessliweg 56,47.5804797,7.5897869,4057
2260,Bäumlihofstrasse 80,47.5639955,7.615497599999999,4058
2261,Maulbeerstrasse 161,47.5697102,7.608730599999999,4058
2262,Bachlettenstrasse 56,47.5486461,7.5789485,4054
2263,Müllheimerstrasse 89,47.567907,7.5920939,4057
2264,Sempacherstrasse 17,47.5442936,7.588372499999999,4053
2265,Wanderstrasse 12,47.5529421,7.5694131,4054
2266,Röttelerstrasse 9,47.56923020000001,7.6166029,4058
2267,Hammerstrasse 139,47.5675976,7.5948039,4057
2268,Fürstensteinerstrasse 30,47.5377885,7.597665200000001,4053
2269,Steinbühlallee 23,47.5515146,7.558728700000001,4054
2270,Immengasse 3,47.5665134,7.5805352,4056
2271,Wasgenring 129,47.5594316,7.5648716,4055
2272,Wollbacherstrasse 16,47.56658239999999,7.6189594,4058
2273,In den Ziegelhöfen 153,47.5448966,7.5573988,4054
2274,Nufenenstrasse 34,47.5502598,7.5631894,4054
2275,Mythenstrasse 17,47.5555114,7.5639457,4054
2276,Riehenstrasse 235,47.5673319,7.6110552,4058
2277,"Lange Gasse 76, 78",47.5512035,7.6003754,4052
2278,Angensteinerstrasse 23,47.5496426,7.603930800000001,4052
2279,Augustinergasse 5,47.55779080000001,7.590776000000001,4051
2280,Kleinriehenstrasse 103,47.56891479999999,7.6170271,4058
2281,Thiersteinerrain 141,47.5355613,7.595281299999999,4059
2282,Colmarerstrasse 88,47.5590841,7.5700526,4055
2283,Hammerstrasse 10,47.559921,7.598305900000001,4058
2284,General Guisan-Strasse 40,47.551441,7.568692100000001,4054
2285,Neubadstrasse 76,47.5488146,7.5688584,4054
2286,"Fasanenstrasse 68, 70",47.5726902,7.6062084,4058
2287,Fasanenstrasse 76,47.5726173,7.606899200000001,4058
2288,Küchengasse 13,47.5484029,7.5892851,4051
2289,Blauenstrasse 67,47.553766,7.5726403,4054
2290,Feldbergstrasse 23,47.5659017,7.5886183,4057
2291,Mülhauserstrasse 67,47.568022,7.579403399999999,4056
2292,Birmannsgasse 49,47.5569911,7.575707299999999,4055
2293,Maulbeerstrasse 33,47.56730109999999,7.601208199999999,4058
2294,Im langen Loh 186,47.5491478,7.5601182,4054
2295,Birsigstrasse 44,47.55042539999999,7.5833556,4054
2296,Holeestrasse 135,47.5458581,7.5666727,4054
2297,Hegenheimerstrasse 169,47.5633343,7.5653991,4055
2298,Isteinerstrasse 90,47.5671688,7.5993075,4058
2299,Mattenstrasse,47.5660144,7.602016799999999,4058
2300,Feldbergstrasse 125,47.56729,7.5961717,4057
2301,Zürcherstrasse 85,47.5545579,7.610615900000001,4052
2302,Mülhauserstrasse 101,47.5672418,7.5775276,4056
2303,Grienstrasse 41,47.5630289,7.5650263,4055
2304,Rudolfstrasse 22,47.55483359999999,7.574825,4054
2305,Jungstrasse 21,47.5673743,7.5794947,4056
2306,Rufacherstrasse 75,47.5595848,7.568201500000001,4055
2307,"Spalenvorstadt 20, 22,24,26,28",47.55759219999999,7.5825371,4051
2308,Spalengraben 3,47.5580714,7.5822603,4051
2309,"Bruderholzrain 30, 30A, 30B, 30C, 32",47.5378299,7.593667699999998,4059
2310,Bristenweg 26,47.5496261,7.566987300000001,4054
2311,Feierabendstrasse 56,47.5532666,7.580044699999999,4051
2312,Novarastrasse 3,47.5347562,7.584973300000001,4059
2313,Flughafenstrasse 46,47.5680771,7.570685999999999,4056
2314,Bäumlihofstrasse 41,47.5633725,7.6131646,4058
2315,Paradieshofstrasse 116,47.5477461,7.558826499999999,4054
2316,Solothurnerstrasse 48,47.5438626,7.589901,4053
2317,Steinengraben 40,47.5534481,7.5857031,4051
2318,In den Schorenmatten 19,47.5705724,7.609152,4058
2319,Erlenmattstrasse 21,47.5701756,7.600647799999999,4058
2320,"Erlenmattstrasse 21d, 21e,",47.5701756,7.600647799999999,4058
2321,"Erlenmattstrasse 21a, 21b, 21c,",47.5701756,7.600647799999999,4058
2322,"Mittlere Strasse 131,",47.5640969,7.575074499999999,4056
2323,Stöberstrasse 1,47.5595396,7.5728705,4055
2324,Grellingerstrasse 38,47.5500796,7.606482799999999,4052
2325,"Sempacherstrasse 47, 49",47.5430722,7.5874574,4053
2326,Greifengasse 1,47.5609226,7.590783800000001,4058
2327,Göschenenstrasse 85,47.54687320000001,7.5593426,4054
2328,"Auf dem Wolf 10, 18, 32",47.54059789999999,7.6140901,4052
2329,Birsstrasse 256,47.5451907,7.6219024,4052
2330,"Erlenmattstrasse 23, 23a, 25, 25a, 27, 27",47.5701876,7.600867600000001,4058
2331,"Erlenmattstrasse 21f, 21g",47.5701756,7.600647799999999,4058
2332,Laufenstrasse 22,47.5419864,7.599244999999999,4053
2333,Laufenstrasse 20,47.5421124,7.599218800000001,4053
2334,Arnold Böcklin-Strasse 42,47.5516116,7.5767696,4051
2335,"Erlenmattstrasse 23, 23a, 25, 25a, 27, 27a,",47.5701876,7.600867600000001,4058
2336,Hermann Albrecht-Strasse 2,47.5685776,7.6139961,4058
2337,Paradieshofstrasse 150,47.54674809999999,7.558611699999999,4054
2338,Hirzbodenweg 86,47.5485682,7.606796800000001,4052
2339,Röschenzerstrasse 6,47.54125699999999,7.5877386,4053
2340,Solothurnerstrasse 19,47.5451674,7.5914615,4053
2341,Parkweg 35,47.54828209999999,7.5925689,4051
2342,Münsterberg 1,47.555304,7.5909597,4051
2343,Rümelinsplatz 14,47.5570939,7.587253199999999,4001
2344,Clarastrasse 12,47.5621637,7.59613,4058
2345,Im Wasenboden 41,47.57050479999999,7.5704303,4056
2346,Wasensträsschen 24,47.5707072,7.5697453,4056
2347,Im langen Loh 264,47.54675599999999,7.5596346,4054
2348,Schliengerweg 18,47.5719279,7.595835800000001,4057
2349,Sierenzerstrasse 21,47.5601442,7.5699139,4055
2350,Laupenring 159,47.5487094,7.5664404,4054
2351,Totentanz 4,47.561853,7.5861371,4051
2352,Mittlere Strasse 40,47.5616584,7.578211599999999,4056
2353,St. Johanns-Ring 131,47.5622622,7.57499,4056
2354,Rheinländerstrasse 15,47.5634996,7.578169,4056
2355,Rheinländerstrasse 17,47.5634548,7.5780626,4056
2356,Sperrstrasse 105,47.5661016,7.597111699999998,4057
2357,Schöllenenstrasse 31,47.5512476,7.564626499999999,4054
2358,Faidostrasse 9,47.5338197,7.5859136,4059
2359,Gasstrasse 8,47.57042190000001,7.577090699999999,4056
2360,Schönaustrasse 86,47.5687364,7.6047293,4058
2361,An der hohlen Gasse 4,47.5726033,7.6103413,4058
2362,Arabienstrasse 2,47.5321261,7.588100099999999,4059
2363,Weiherhofstrasse 180,47.54647929999999,7.557548400000001,4054
2364,Schönaustrasse 84,47.5687,7.6045673,4058
2365,Im langen Loh 169,47.5504565,7.5610292,4054
2366,"Metzerstrasse 8, 10",47.5642819,7.5782906,4056
2367,Marignanostrasse 29,47.5349256,7.586155699999999,4059
2368,Dornacherstrasse 146,47.54238729999999,7.591111299999999,4053
2369,Nasenweg 2,47.55338159999999,7.6177192,4052
2370,Spalentorweg 46,47.555701,7.579025499999999,4051
2371,Neubadstrasse 140,47.54719069999999,7.5653077,4054
2372,Weiherhofstrasse 79,47.5492392,7.5587502,4054
2373,Maiengasse 63,47.5606497,7.577258,4056
2374,Paracelsusstrasse,47.5653158,7.612778499999999,4058
2375,Paracelsusstrasse 32,47.5650076,7.6136522,4058
2376,Paracelsusstrasse 20,47.564701,7.614235799999999,4058
2377,Paracelsusstrasse 38,47.565161,7.613373599999999,4058
2378,Paracelsusstrasse 30,47.56496250000001,7.6137583,4058
2379,Paracelsusstrasse 36,47.5651159,7.613466499999999,4058
2380,Paracelsusstrasse 40,47.5652151,7.613267500000001,4058
2381,Paracelsusstrasse 42,47.5652692,7.6131746,4058
2382,Paracelsusstrasse 46,47.5653684,7.6129757,4058
2383,Paracelsusstrasse 48,47.5654225,7.6128828,4058
2384,Paracelsusstrasse 52,47.5655397,7.6126839,4058
2385,Gotthelfstrasse 35,47.5529879,7.568749,4054
2386,Steinbühlallee 15,47.5516944,7.5587822,4054
2387,Schäublin-Strasse 101,47.5329053,7.5835472,4059
2388,Im Holeeletten 26,47.5466499,7.566355799999999,4054
2389,"Solothurnerstrasse 20, 22",47.5447813,7.5906575,4053
2390,Im langen Loh 210,47.5482757,7.5599037,4054
2391,Gundeldingerstrasse 67,47.5438053,7.582310499999998,4053
2392,Ackerstrasse 39,47.5781529,7.590528399999999,4057
2393,Austrasse 52,47.5539297,7.5814647,4051
2394,Birsigstrasse 134,47.5508829,7.5769404,4054
2395,Auf der Alp 7,47.5261922,7.591728599999999,4059
2396,Birsigstrasse 98,47.55014329999999,7.5794283,4054
2397,Eulerstrasse 70,47.5571681,7.5781392,4051
2398,Bruderholzstrasse 70,47.5422103,7.593281899999999,4053
2399,Landskronstrasse 42,47.5683988,7.576517099999998,4056
2400,Pfeffelstrasse 36,47.5588584,7.570822700000001,4055
2401,Paracelsusstrasse 56,47.5656299,7.612511400000001,4058
2402,Paracelsusstrasse 54,47.5655848,7.612590999999999,4058
2403,Im langen Loh 220,47.5480329,7.5598367,4054
2404,Realpstrasse 9,47.5492644,7.568739899999999,4054
2405,Gotthardstrasse 45,47.5484344,7.562853099999999,4054
2406,Brunnmattstrasse 17,47.5399968,7.590430500000001,4053
2407,Hammerstrasse 130,47.5665984,7.595491999999998,4057
2408,Im Sesselacker 46,47.5362298,7.599679300000001,4059
2409,Davidsbodenstrasse 33,47.56578589999999,7.576593600000001,4056
2410,Birsigstrasse 26,47.5507482,7.5841536,4054
2411,Im Heimatland 58,47.5649592,7.6159509,4058
2412,Mattenstrasse 12,47.5644815,7.6037704,4058
2413,Elsässerstrasse 63,47.56967119999999,7.578719599999999,4056
2414,Kirschblütenweg 9,47.5365229,7.589015499999999,4059
2415,Arnold Böcklin-Strasse 11,47.5510821,7.5787454,4051
2416,St. Johanns-Vorstadt 3,47.562376,7.585048899999999,4056
2417,Schanzenstrasse 6,47.56414090000001,7.583339599999999,4056
2418,Hauensteinstrasse 88,47.53419179999999,7.593099499999999,4059
2419,Flughafenstrasse 44,47.5680321,7.5707523,4056
2420,Leimenstrasse 54,47.5530002,7.581237000000001,4051
2421,Riehenstrasse 90,47.56311789999999,7.602659099999999,4058
2422,Austrasse 76,47.5545124,7.580231299999999,4051
2423,"Clarastrasse 32, 34",47.5626103,7.5973608,4058
2424,Aeschengraben 12,47.55093369999999,7.593551300000001,4051
2425,Käferholzstrasse 132,47.5648002,7.619949999999999,4058
2426,Feldbergstrasse 31,47.56624619999999,7.589816799999999,4057
2427,Eisengasse 9,47.55926789999999,7.588322399999999,4051
2428,C.F.Meyer-Strasse 21,47.5312034,7.5922009,4059
2429,Oberalpstrasse 15,47.5481182,7.564260399999999,4054
2430,Lukas Legrand-Strasse 21,47.5687177,7.616494899999999,4058
2431,Sulzerstrasse 13,47.5541442,7.5721263,4054
2432,Auberg 8,47.5526,7.5848494,4051
2433,Fürstensteinerstrasse 105,47.5368374,7.602536499999999,4053
2434,Sternenbergerstrasse 5,47.5381205,7.5983452,4053
2435,Weissensteinstrasse 3,47.5361396,7.5932378,4059
2436,Offenburgerstrasse 59,47.5694019,7.590000099999999,4057
2437,Marignanostrasse 106,47.5321764,7.583837399999999,4059
2438,Bergalingerstrasse 44,47.5608842,7.6104714,4058
2439,Thumringerstrasse 10,47.5673401,7.6175401,4058
2440,Gundeldingerstrasse 374,47.53872459999999,7.597136700000001,4053
2441,"Dornacherstrasse 240, 246",47.54083050000001,7.596146799999999,4053
2442,Käferholzstrasse 115,47.56542109999999,7.6197262,4058
2443,Steinengraben 71,47.5528403,7.5868694,4051
2444,Leimenstrasse 27,47.5542123,7.582940799999999,4051
2445,Sängergasse 26,47.5553057,7.570999899999999,4054
2446,Passwangstrasse 47,47.53498769999999,7.5937524,4059
2447,Thiersteinerrain 59,47.5370594,7.5976443,4059
2448,Stöberstrasse 23,47.5587354,7.571951599999999,4055
2449,Stöberstrasse 21,47.5587761,7.572005,4055
2450,Bruderholzallee 40,47.5341154,7.586751099999999,4059
2451,Paradieshofstrasse 170,47.5462715,7.558517699999999,4054
2452,Jacob Burckhardt-Strasse 19,47.5481084,7.6012826,4052
2453,"Mathilde Paravicini- Strasse 5, 7, 9, 11",47.5485812,7.603993999999999,4052
2454,Jacob Burckhardt-Strasse 17,47.5481623,7.601296,4052
2455,Bruderholzallee 23,47.5349677,7.587872499999999,4059
2456,Hohe Winde-Strasse 52,47.5335469,7.5881797,4059
2457,Unterer Batterieweg 35,47.5399789,7.5871392,4053
2458,Schanzenstrasse 10,47.5639882,7.5831399,4056
2459,Schanzenstrasse 8,47.5640601,7.583233099999999,4056
2460,Binningerstrasse 14,47.5497475,7.584347099999999,4051
2461,Benkenstrasse 38,47.5484808,7.5727785,4054
2462,Laufenstrasse 15,47.54202160000001,7.5997897,4053
2463,Spalenberg 50,47.5568845,7.5850955,4051
2464,Käferholzstrasse 41,47.5669712,7.617631899999999,4058
2465,Bärenfelserstrasse 3,47.5663117,7.587797099999999,4057
2466,Giornicostrasse 236,47.5268223,7.591143699999999,4059
2467,Isteinerstrasse 94A,47.5673211,7.599759799999999,4058
2468,Gundeldingerrain 160,47.5329821,7.5945743,4059
2469,Sulzerstrasse 19,47.5538385,7.571912399999999,4054
2470,Röttelerstrasse 3,47.569059,7.6168283,4058
2471,"Lautengartenstrasse 11, 13, 15",47.55313570000001,7.5962375,4052
2472,Blochmonterstrasse 5,47.5471257,7.575044399999999,4054
2473,"Gundeldingerstrasse 365, 367",47.5391748,7.5967662,4053
2474,Laufenstrasse 67,47.5396495,7.5981489,4053
2475,Spalenring 72,47.5585215,7.574449,4055
2476,Lerchenstrasse 37,47.5388695,7.5903677,4059
2477,Spalentorweg 32,47.5563658,7.579625099999999,4051
2478,Delsbergerallee 70,47.53966639999999,7.5989591,4053
2479,Steinenring 42,47.55083459999999,7.579716799999999,4051
2480,"Burgweg 7, 15",47.5581365,7.601180299999999,4058
2481,Münchensteinerstrasse 210,47.5388289,7.606102099999998,4053
2482,Wintergasse 12,47.564665,7.5738003,4056
2483,Lyon-Strasse 40,47.5335055,7.6059117,4053
2484,Lyon-Strasse,47.5347466,7.607137400000001,4053
2485,Amerbachstrasse 10,47.5691764,7.5911141,4057
2486,"Maulbeerstrasse 20, 22, 24, 26, 28",47.56675389999999,7.6001966,4058
2487,Mattenstrasse 43,47.5667886,7.601073700000001,4058
2488,Klybeckstrasse 254,47.5765132,7.5880122,4057
2489,St. Johanns-Ring 106,47.5631876,7.575856099999999,4056
2490,Thannerstrasse 63,47.5550448,7.5710391,4054
2491,Sarnerstrasse 21,47.5611414,7.6004719,4058
2492,Auf dem Hummel 18,47.5314451,7.593025000000001,4059
2493,Nadelberg 19,47.5580527,7.585698,4051
2494,Arabienstrasse 37,47.5309634,7.590009100000001,4059
2495,Angensteinerstrasse 12,47.54892359999999,7.6035434,4052
2496,Rudolfstrasse 19,47.5550146,7.5751668,4054
2497,Schertlingasse 20,47.5518082,7.585126299999999,4051
2498,"Amerbachstrasse 62, 64, 66",47.5691456,7.5940377,4057
2499,Breisacherstrasse 29,47.5648079,7.589267899999999,4057
2500,Friedrich Oser-Strasse 9,47.5312742,7.5860659,4059
2501,Birsigstrasse 90,47.549989,7.5798208,4054
2502,Pfeffelstrasse 35,47.5587412,7.5711014,4055
2503,Leimgrubenweg 16,47.5369045,7.605936700000001,4053
2504,Burgfelderstrasse 14,47.5627414,7.572825399999999,4055
2505,Herrengrabenweg 48,47.5546759,7.5712375,4054
2506,General Guisan-Strasse 141,47.5487656,7.562419899999999,4054
2507,General Guisan-Strasse 169,47.5485085,7.560834099999999,4054
2508,Hebelstrasse 67,47.5618529,7.578935299999999,4056
2509,Unterer Batterieweg 73,47.5392856,7.587695099999999,4059
2510,Alemannengasse 77,47.55817829999999,7.603465699999999,4058
2511,Unterer Rheinweg 56,47.5650348,7.5876341,4057
2512,Gotthardstrasse 31,47.5479034,7.563276900000001,4054
2513,Peter Rot-Strasse 16,47.5583202,7.604887799999999,4058
2514,Im langen Loh 268,47.5466481,7.559607799999999,4054
2515,Schulgasse 9,47.5833073,7.592079,4057
2516,Holeestrasse 77,47.5450443,7.570576,4054
2517,Neuweilerstrasse  30,47.5466718,7.5627162,4054
2518,Heuberg  8,47.5564778,7.5852454,4051
2519,"Hüningerstrasse 25, 31, 33",47.57140709999999,7.574816800000001,4056
2520,Reusstrasse,47.5499567,7.562204800000001,4054
2521,Unterer Heuberg 11,47.5564016,7.5870387,4051
2522,Delsbergerallee 90,47.5388127,7.5984253,4053
2523,Dammerkirchstrasse 48,47.5669484,7.5666966,4056
2524,Spalentorweg 34,47.5563081,7.579578499999999,4051
2525,Weiherhofstrasse 131,47.5468926,7.558014300000001,4054
