,street,latitude,longitude,plz
6,Furkastrasse 60,47.5484626,7.5617772,4054
7,Käferholzstrasse 74,47.56614279999999,7.618280299999999,4058
8,Laupenring 167,47.5489074,7.566281499999999,4054
9,Sevogelstrasse 5,47.5520512,7.605120599999999,4052
10,Laufenstrasse 24,47.5419236,7.5991784,4053
11,Andreas Heusler-Strasse 32,47.5470814,7.6024484,4052
12,Im tiefen Boden 67,47.5288601,7.591302600000001,4059
13,Rennweg 86,47.5499485,7.6100426,4052
14,Spalentorweg 37,47.5557406,7.579411500000001,4051
15,"Unterer Batterieweg 39, 41",47.5399155,7.587497699999999,4053
16,Alemannengasse 21,47.5579853,7.5999973,4058
17,Karpfenweg 32,47.550754,7.618640300000001,4052
18,Paradieshofstrasse 73,47.5493102,7.559693500000001,4054
19,Bechburgerstrasse 1,47.553482,7.614844799999999,4052
20,"Erlkönigweg 1, 3, 5",47.5706242,7.6002561,4058
21,Tangentenweg,47.5706374,7.598535499999999,4058
22,An der hohlen Gasse 14,47.5721786,7.6102611,4058
23,Austrasse 43,47.5532867,7.5822873,4051
24,Giornicostrasse 214,47.5272077,7.593982100000001,4059
25,Steinbühlallee 147,47.5480803,7.557458999999999,4054
26,Riedbergstrasse 10,47.5342904,7.5905232,4059
27,Rütimeyerstrasse 66,47.548069,7.5759767,4054
28,Benkenstrasse 85,47.54753729999999,7.575380300000001,4054
29,Gotthardstrasse 82,47.5496129,7.5625901,4054
30,Rastatterstrasse 39,47.5792503,7.589968899999999,4057
32,Oetlingerstrasse 182,47.5678388,7.596080300000001,4057
33,Fürstensteinerstrasse 87,47.5370996,7.601514700000001,4053
34,Hochbergerstrasse 118,47.5814497,7.593475300000001,4057
35,Morgartenring 170,47.5504012,7.565514500000001,4054
36,Scheltenstrasse 30,47.5331098,7.5923791,4059
37,Margarethenstrasse 78,47.5451075,7.5820701,4053
38,Engelgasse 88,47.548555,7.602263600000001,4052
39,Kartausgasse 7,47.558904,7.5962025,4058
40,Jägerstrasse 7,47.5675974,7.601567899999999,4058
41,Claragraben 76,47.5622559,7.594640699999999,4058
42,Steinenbachgässlein 15,47.5532698,7.588610999999999,4051
43,"Klingentalstrasse 53, 53A",47.5643945,7.5958576,4057
44,In den Klostermatten 34,47.5512143,7.617565799999999,4052
45,In den Klostermatten 36,47.55111549999999,7.617499,4052
46,Efringerstrasse 97,47.5707048,7.596201499999998,4057
47,Sennheimerstrasse 40,47.5541164,7.570271899999999,4054
48,Rotbergerstrasse 33,47.549082,7.576320899999999,4054
49,Feldbergstrasse 45,47.5663342,7.590663299999999,4057
50,Sissacherstrasse 53,47.5463155,7.6097254,4052
51,Reinacherstrasse 24,47.54101379999999,7.6021564,4053
52,Spalenvorstadt 41,47.557722,7.5817763,4051
53,Sängergasse 22,47.5554614,7.571142000000001,4054
54,"Türkheimerstrasse 14,",47.5582066,7.5745811,4055
55,Rufacherstrasse 26,47.5583176,7.571844400000001,4055
56,Hegenheimerstrasse 19,47.5603479,7.5738823,4055
57,Andreas Heusler-Strasse 24,47.547279,7.602674800000001,4052
58,Lenzgasse 44,47.5689763,7.5708344,4056
59,Wasgenring 125,47.5595486,7.5648586,4055
60,Byfangweg 2,47.5527824,7.5828837,4051
61,Riedbergstrasse 18,47.5335441,7.590374999999999,4059
62,Leimenstrasse 20,47.55471600000001,7.5829023,4051
63,Riehenring 107,47.565858,7.5976425,4058
64,Nufenenstrasse 8,47.5494682,7.5633869,4054
65,"Peter Merian-Strasse 80, 82, 84, 86, 88, 90",47.5464364,7.594064599999999,4052
66,Arnold Böcklin-Strasse 35,47.5512248,7.576768599999999,4051
67,"Davidsbodenstrasse 15, 15A",47.5652051,7.577384800000001,4056
68,Pfeffingerstrasse 87,47.5422415,7.590120799999999,4053
69,Bruderholzallee  206,47.533733,7.5993337,4059
70,Weiherhofstrasse 84,47.5489878,7.558297899999999,4054
72,Gartenstrasse 78,47.5494214,7.594764000000001,4052
73,Pfirtergasse 32,47.548795,7.5780774,4054
74,Lange Gasse 41,47.55155449999999,7.6002037,4052
75,Wasserstrasse 19,47.5698917,7.5801658,4056
76,Helvetiaplatz 26,47.5595179,7.566641600000001,4055
77,Hebelstrasse 91,47.5626994,7.577954300000001,4056
78,"Blauenstrasse 17, 19, 21",47.5553178,7.573703500000001,4054
79,Neuweilerstrasse 26,47.5466799,7.5628619,4054
80,Oetlingerstrasse 65,47.5678146,7.590916299999999,4057
81,Bundesstrasse 15,47.5523401,7.5767183,4054
82,Steinenring 45,47.5511673,7.580458799999999,4051
83,Thiersteinerrain 136,47.5356069,7.594816600000001,4059
84,Reservoirstrasse 193,47.5276308,7.5937576,4059
85,Sennheimerstrasse 14,47.553587,7.571806,4054
86,Reinacherstrasse 131,47.5352679,7.6049981,4053
87,Blauenstrasse 80,47.55366739999999,7.5722314,4054
88,Margarethenstrasse 52,47.54623669999999,7.5832717,4053
89,Colmarerstrasse 43,47.5600445,7.571769000000001,4055
90,Dittingerstrasse 7,47.5406207,7.5897067,4053
91,Sevogelstrasse 101,47.548414,7.6004451,4052
92,Neuweilerstrasse 11,47.5464371,7.563579,4054
93,Landskronstrasse 24,47.5689593,7.577744699999999,4056
94,Realpstrasse 54,47.5481972,7.566000799999999,4054
95,"Zum Bischofstein 2, 4",47.5602055,7.605558999999999,4058
96,Largitzenstrasse 88,47.5659369,7.5665586,4056
97,"Schaffhauserrheinweg 97, 99",47.5574761,7.603941799999999,4058
98,Steinbühlallee 19,47.5516045,7.5587555,4054
99,Käferholzstrasse 34,47.5671701,7.616994699999999,4058
100,Aeschengraben 10,47.5510501,7.593710599999999,4051
101,St. Johanns-Ring 100,47.5635377,7.576361899999999,4056
102,Sperrstrasse 110,47.5659572,7.5974302,4057
103,Im Sesselacker 34,47.5363113,7.5992811,4059
104,Neubadstrasse 81,47.5487506,7.569801399999999,4054
105,Amselstrasse 30,47.5381329,7.5881982,4059
106,Färbergasse 15,47.5765347,7.592660599999999,4057
107,Dornacherstrasse 141,47.5427837,7.591262999999999,4053
108,Steinentorstrasse 30,47.5515129,7.588067799999998,4051
109,Baumgartenweg 14,47.542083,7.594344099999999,4053
110,Hegenheimerstrasse 90,47.5614372,7.569476799999999,4055
111,Weiherhofstrasse 40,47.5500397,7.558698799999998,4054
112,Rührbergerstrasse 7,47.56013979999999,7.602873799999998,4058
113,"Erlkönigweg 9, 11, 13, 15, 17, 19",47.5715637,7.600311699999999,4058
114,In den Schorenmatten 18,47.5704565,7.6093816,4058
115,Rheinfelderstrasse 25,47.5599465,7.599591399999999,4058
116,Burgfelderstrasse 189,47.5664114,7.564303399999999,4055
117,"Anwilerstrasse 10,12",47.5291469,7.5965904,4059
118,Weiherhofstrasse 92,47.54879,7.5582444,4054
119,Oberalpstrasse 12,47.5481357,7.564672299999999,4054
120,Gartenstrasse,47.54896,7.59449,4052
121,Rütimeyerstrasse 12,47.5503276,7.574999499999999,4054
122,Hirzbrunnenschanze 51,47.56669369999999,7.6168204,4058
123,Oberer Batterieweg 70,47.5309114,7.588481799999999,4059
124,Hauensteinstrasse 138,47.5334912,7.5963908,4059
125,Uhlandstrasse 6,47.5437023,7.5968678,4053
126,Helvetiaplatz 12,47.5599352,7.566855199999999,4055
127,Bundesstrasse 17,47.5522144,7.5765985,4054
128,Dufourstrasse 50,47.5520974,7.5950111,4052
129,Markgräflerstrasse 41,47.5702531,7.593097299999999,4057
130,Rosshofgasse 15,47.5570163,7.5846091,4051
131,Spalenberg 14,47.5572659,7.586350299999999,4051
132,Passwangstrasse 28,47.5359499,7.593848100000001,4059
133,Käferholzstrasse 141,47.56494060000001,7.620348,4058
134,Hagenaustrasse 40A,47.5732591,7.569250200000001,4056
135,Freiburgerstrasse 36,47.5768389,7.603159000000001,4057
136,Fasanenstrasse 137,47.5726362,7.612414599999999,4058
137,Kaltbrunnenstrasse 45A,47.54606099999999,7.5719575,4054
138,Hegenheimerstrasse 66,47.5612333,7.5703236,4055
139,Gellertstrasse 38,47.5512263,7.6095684,4052
140,Hirzbrunnenschanze 33,47.56706320000001,7.616303299999999,4058
141,Hirzbrunnenschanze 82,47.5660277,7.6171238,4058
142,Birmannsgasse 47,47.5570359,7.575853599999999,4055
143,Auf dem Hummel 21,47.5313277,7.593423,4059
144,Winkelriedplatz,47.5434454,7.587873099999999,4053
145,Winkelriedplatz 6,47.5430533,7.5882502,4053
146,Friedensgasse 59,47.5614506,7.5768615,4056
147,Mühlenberg,47.5547233,7.598457600000001,4052
148,Palmenstrasse 23,47.5563728,7.5737926,4055
149,Gundeldingerstrasse 109,47.5427766,7.585246399999999,4053
150,Murbacherstrasse 20,47.569652,7.577626899999999,4056
151,Grellingerstrasse 30,47.5503852,7.6066299,4052
152,Thiersteinerallee 93,47.5393637,7.596726899999998,4053
153,Riehenring 182,47.5698916,7.597629100000001,4057
154,Dornacherstrasse 288,47.539535,7.600218,4053
155,Edisonstrasse 1,47.54637690000001,7.5831732,4053
158,Byfangweg 34,47.55133540000001,7.5812252,4051
159,Alemannengasse 112,47.5580503,7.6055517,4058
160,Rennweg 80,47.5500119,7.6097372,4052
161,Passwangstrasse 31,47.5358685,7.594219799999999,4059
162,Erasmusplatz 16,47.5660227,7.5887265,4057
163,Feldbergstrasse 102,47.5667974,7.594682000000001,4057
164,Schweizergasse 43,47.5499163,7.5763874,4054
165,Starenstrasse 45,47.5388683,7.589085499999999,4059
166,Falkensteinerstrasse 4,47.5404806,7.602029699999998,4053
167,"Wanderstrasse 129, 131, 131A",47.5517617,7.562205899999999,4054
168,Turnerstrasse 11,47.5614476,7.6001805,4058
169,"Gellertstrasse 45, 45A",47.5511294,7.614284199999998,4052
170,Novarastrasse 16A,47.5340081,7.5862993,4059
171,Froburgstrasse 22,47.55550419999999,7.6116813,4052
172,Magnolienpark,47.5527573,7.6104196,4052
173,Claragraben 158,47.5660132,7.592190500000001,4057
174,Schwarzwaldallee 62,47.5611938,7.6112709,4058
175,Benkenstrasse 30,47.5486849,7.5724063,4054
176,Mariasteinstrasse 10,47.5489019,7.571223100000001,4054
177,Bruderholzallee 160,47.5322442,7.5940631,4059
178,St. Alban-Tal 40A,47.5544838,7.602112399999999,4052
179,Bäumleingasse 10,47.5547561,7.592009099999999,4051
180,St. Galler-Ring 182,47.55216189999999,7.567418499999999,4054
181,Neuweilerstrasse 15,47.5464085,7.5631385,4054
182,Hegenheimerstrasse 111,47.5617629,7.5676423,4055
183,St. Jakobs-Strasse 157,47.5454794,7.6032405,4052
184,Rümmingerstrasse 25,47.5655723,7.6207898,4058
185,Gotthardstrasse 107,47.5504863,7.561649,4054
186,Beinwilerstrasse 4,47.5418908,7.5900268,4053
187,Kirschblütenweg 2,47.53659469999999,7.588370899999998,4059
188,Schöllenenstrasse 12,47.5508604,7.5650507,4054
189,Palmenstrasse 6,47.5570471,7.5739404,4055
190,Weiherhofstrasse 146,47.5474234,7.5578029,4054
191,Unterer Batterieweg 179,47.53602129999999,7.587367299999999,4059
192,Sommergasse 19,47.56351280000001,7.574607899999999,4056
193,Prattelerstrasse 1,47.5465337,7.6142159,4052
194,Prattelerstrasse 3,47.5463807,7.6142553,4052
195,Mülhauserstrasse 71,47.5679545,7.579224,4056
196,Schützenmattstrasse 40,47.5553135,7.579829699999999,4051
197,Klybeckstrasse 62,47.5657225,7.5913568,4057
198,Missionsstrasse 50,47.5608038,7.576222,4055
199,Birsigstrasse 91,47.5498005,7.579554599999999,4054
200,Giornicostrasse 116,47.5282165,7.599548899999999,4059
201,Realpstrasse 72,47.5478567,7.564831,4054
202,Feldbergstrasse 16,47.5655287,7.588246799999999,4057
203,Holbeinstrasse 82,47.5511461,7.582414399999998,4051
204,Mostackerstrasse 14,47.5553561,7.5816153,4051
205,Leonhardsstrasse 3,47.5549255,7.586913899999999,4051
206,Güterstrasse 216,47.5424328,7.595326600000001,4053
207,Sempacherstrasse 11,47.54447070000001,7.58862,4053
208,Feldbergstrasse 59,47.56658540000001,7.591717999999999,4057
209,Hochwaldstrasse 5,47.52961639999999,7.601783999999999,4059
210,Schweizergasse 35,47.5497042,7.5771359,4054
211,Morgartenring 136,47.5518854,7.565345400000001,4054
212,Kannenfeldstrasse 42,47.5637657,7.5737315,4056
213,General Guisan-Strasse 22,47.5519974,7.569796099999999,4054
214,Bellinzonastrasse 4,47.5343464,7.5864745,4059
215,Immengasse 20,47.5664209,7.5795852,4056
216,"Jurastrasse 48, 50",47.54139259999999,7.590647,4053
217,Spalenring 79,47.5582507,7.575272099999999,4055
218,Röschenzerstrasse 19,47.5406412,7.587775099999999,4053
219,Kleinriehenstrasse 33,47.5664297,7.612926000000001,4058
220,Oberalpstrasse 62,47.5501689,7.5641457,4054
221,Voltastrasse 99,47.5708058,7.575383999999999,4056
222,"Grienstrasse 108,",47.5600262,7.5653158,4055
223,Arbedostrasse 12,47.5305098,7.5860771,4059
224,Bündnerstrasse 54,47.559189,7.5660251,4055
225,Lehenmattstrasse 216,47.5489223,7.6210434,4052
226,Im langen Loh 174,47.54945350000001,7.560238500000001,4054
227,Erlenmattweg,47.5702346,7.6017324,4058
228,Wollbacherstrasse 31,47.5671574,7.6193733,4058
229,Sierenzerstrasse 54,47.5591669,7.568391999999999,4055
230,Kannenfeldstrasse 23,47.5632294,7.5732516,4056
231,Wiesendamm 30,47.5798457,7.593301100000001,4057
232,Lerchenstrasse 32,47.5388065,7.5895931,4059
233,Peter Rot-Strasse 66,47.5604342,7.604495699999999,4058
234,Sonnenweg 12,47.5492401,7.608579000000001,4052
235,Hirzbodenweg 85,47.5482351,7.6070083,4052
237,Im Wasenboden 35,47.5702898,7.570531999999999,4056
238,Reinacherstrasse 114,47.5373302,7.603826299999999,4053
239,Hohe Winde-Strasse 108,47.5328405,7.591979899999999,4059
240,Casinostrasse 14,47.5466961,7.5997876,4052
241,Hochwaldstrasse 15,47.5305324,7.602756200000001,4059
242,Habsburgerstrasse 42,47.5611341,7.570615699999999,4055
243,Mörsbergerstrasse 38,47.56740509999999,7.593736199999999,4057
244,Peter Rot-Strasse 73,47.5605252,7.603778499999999,4058
245,Oberalpstrasse 13,47.5480642,7.564233799999998,4054
246,Efringerstrasse 103,47.5709993,7.596245199999999,4057
247,Neubadstrasse 137,47.5470639,7.5660645,4054
248,Neubadstrasse 107,47.54773609999999,7.5673466,4054
249,Im langen Loh 242,47.5474214,7.559742399999999,4054
250,Bruderholzweg 40,47.5384989,7.5909735,4053
251,Blauenstrasse 16,47.55551730000001,7.573459600000001,4054
252,Jungstrasse 22,47.5675545,7.579202800000001,4056
253,Neuweilerstrasse 99,47.5457147,7.557692899999999,4054
254,Bruderholzallee 35,47.5345232,7.5878439,4059
256,Schwarzwaldallee 31,47.5601816,7.611271299999999,4058
257,Bruderholzallee 53,47.5338356,7.5875737,4059
258,Prag-Strasse 12,47.53766359999999,7.604967899999999,4053
259,Rudolfstrasse 28,47.5545998,7.574811100000001,4054
260,Strassburgerallee 73,47.562259,7.570007299999999,4055
262,Oberwilerstrasse 106,47.54685310000001,7.5755253,4054
263,Maulbeerstrasse 41,47.5674533,7.601700300000001,4058
264,Thumringerstrasse 58,47.5680487,7.618751799999999,4058
265,Beim Letziturm 12,47.5544077,7.605035000000001,4052
266,"Matthäusstrasse 5, 5A",47.56710760000001,7.591334100000001,4057
267,Morgartenring 173,47.5505964,7.5660613,4054
268,Freie Strasse 84,47.55442619999999,7.5915105,4051
269,Seltisbergerstrasse 23,47.52889889999999,7.600334399999999,4059
270,Casinostrasse 16,47.5467908,7.599905299999999,4052
271,Pfirtergasse 18,47.5494508,7.5787168,4054
272,Stöberstrasse 29,47.5585965,7.5718052,4055
273,Brombacherstrasse 18,47.5702402,7.5960077,4057
274,St. Johanns-Vorstadt 72,47.564977,7.583567800000001,4056
275,Obwaldnerstrasse 5,47.56005769999999,7.5666914,4055
276,In den Ziegelhöfen 133,47.5451377,7.559046500000001,4054
277,Tellplatz 1,47.5431537,7.594001899999999,4053
278,Utengasse 22,47.5602796,7.5926699,4058
279,Furkastrasse 8,47.5467871,7.5623133,4054
280,Bäumlihofstrasse 83,47.5645011,7.615564000000001,4058
281,Bachlettenstrasse 68,47.548297,7.5779741,4054
282,Rixheimerstrasse 8,47.5609431,7.569175400000001,4055
283,Arnold Böcklin-Strasse 29,47.5512331,7.577379700000001,4051
284,Mattenstrasse 52,47.5674994,7.600876599999999,4058
285,Kannenfeldplatz 9,47.5650737,7.573614000000001,4056
286,Bürenfluhstrasse 3,47.5301138,7.5998335,4059
287,St. Alban-Vorstadt 61,47.5543695,7.5984058,4052
288,Strassburgerallee 95,47.561657,7.5694344,4055
289,Efringerstrasse 5,47.5674727,7.5963524,4057
290,Andreas Heusler-Strasse 6,47.5477459,7.603220899999999,4052
291,Kahlstrasse 14,47.5478299,7.5727481,4054
292,Nufenenstrasse 40,47.5504342,7.563116099999999,4054
293,Weiherhofstrasse 121,47.5472972,7.558108199999999,4054
294,Homburgerstrasse 55,47.5542338,7.613205,4052
295,Paradieshofstrasse 69,47.549445,7.559746899999999,4054
296,Feldbergstrasse 76,47.5664848,7.592993399999999,4057
297,Klybeckstrasse 101,47.5691777,7.590144,4057
298,"Arabienstrasse 35, 35A",47.5309811,7.590261499999999,4059
299,Rebgasse 50,47.5595832,7.5955644,4058
300,Austrasse 90,47.5549639,7.578771100000001,4051
301,Laufenstrasse 47,47.5406756,7.5987924,4053
302,Reinacherstrasse 92,47.5380841,7.6034997,4053
303,Laupenring 156,47.5488076,7.5670517,4054
304,Dornacherstrasse 177,47.54217190000001,7.5928026,4053
305,Reservoirstrasse 205,47.5277853,7.592509799999999,4059
306,Lachenstrasse 19,47.568176,7.568696299999999,4056
307,Biascastrasse 20,47.5275895,7.5909689,4059
308,Hagenaustrasse 2,47.5731559,7.5684619,4056
309,Riehenring 109,47.565966,7.597576399999999,4058
310,Gasstrasse 57,47.5690612,7.57522,4056
311,Gundeldingerstrasse 420,47.53808309999999,7.5992598,4053
312,Sierenzerstrasse 17,47.560258,7.570044999999999,4055
313,Brantgasse 8,47.5642754,7.597465100000001,4057
315,Hermann Albrecht-Strasse 14,47.5682172,7.614446699999998,4058
316,Gotthardstrasse 101,47.5503153,7.5617549,4054
317,Lachenstrasse 13,47.5681677,7.568966499999998,4056
318,Marschalkenstrasse 54,47.5491372,7.572823199999998,4054
319,Blauenstrasse 5,47.5556981,7.573923700000001,4054
320,Im langen Loh 208,47.5483296,7.559903800000001,4054
321,Weiherhofstrasse 108,47.5484214,7.558097399999999,4054
322,Kannenfeldstrasse 15,47.5629497,7.5732957,4056
323,Inselstrasse 50,47.5772822,7.5892234,4057
324,Blauenstrasse 56,47.5542926,7.5726448,4054
325,Friedhofgasse,47.5838984,7.5923742,4057
326,Peterskirchplatz 13,47.55952600000001,7.585394999999999,4051
327,Lerchenstrasse 85,47.5373229,7.589336500000001,4059
328,Murbacherstrasse 4,47.5696232,7.577844,4056
329,Gasstras- se 11,47.5700662,7.5771495,4056
330,Murbacherstrasse 48,47.5689473,7.576091900000001,4056
331,Lenzgasse 46,47.5690214,7.5707681,4056
332,Näfelserstrasse 37,47.55781270000001,7.565549699999999,4055
333,Predigerhofstrasse 23,47.5272571,7.5906626,4059
334,Adlerstrasse 11,47.5472682,7.610180100000001,4052
335,Oetlingerstrasse 64,47.5675405,7.590405199999999,4057
336,Gotthardstrasse 108,47.5505668,7.562061,4054
337,Bernerring 60,47.5480739,7.571712599999999,4054
338,"Schäferweg 16, 18, 20",47.58284159999999,7.5950612,4057
339,Andreas Heusler-Strasse 36,47.5469916,7.602355200000001,4052
340,Falkensteinerstrasse 59,47.5383503,7.6011201,4053
341,Schillerstrasse 17,47.5437719,7.5957969,4053
342,Knöringerstrasse 2,47.563584,7.5673264,4055
343,Im langen Loh 167,47.5505027,7.5610464,4054
344,Pfeffelstrasse 9,47.5595496,7.5720202,4055
345,Claragraben 21,47.5597524,7.5968271,4058
346,Starenstrasse 18,47.5388544,7.587335299999999,4059
347,Hirzbrunnenallee 23,47.5675986,7.6131424,4058
348,Elisabethenstrasse 10,47.553257,7.591546999999999,4051
349,Paradieshofstrasse 158,47.5465412,7.5585847,4054
350,Gundeldingerstrasse 85,47.5434186,7.583461,4053
351,Gerbergasse 48,47.5559004,7.588458399999999,4001
352,Realpstrasse 29,47.5488606,7.567941899999999,4054
353,Obwaldnerstrasse 8,47.5602728,7.566843899999999,4055
354,General Guisan-Strasse 115,47.54910109999999,7.5638519,4054
355,Benkenstrasse 65,47.5479804,7.5748075,4054
356,Binningerstrasse 11,47.5504601,7.586359600000001,4051
357,Markircherstrasse 28,47.5661068,7.5631068,4055
358,St. Galler-Ring 69,47.55737970000001,7.5673429,4055
359,Kleinriehenstrasse 9,47.5659179,7.612366199999999,4058
360,Horburgstrasse 87,47.57153599999999,7.5958709,4057
361,Seltisbergerstrasse 81,47.5284961,7.5975412,4059
362,"Riehenring 189, 189A",47.5704699,7.5974314,4058
363,"Riehenring 191, 191A",47.5705699,7.5974396,4058
364,Riehenring 193,47.5706705,7.5974562,4058
365,Holbeinstrasse 15,47.5544963,7.584448399999999,4051
366,Gundeldingerrain 154,47.533152,7.594464200000001,4059
367,Neubadstrasse 73,47.5490647,7.5703999,4054
368,Altkircherstrasse 23,47.55341,7.5692548,4054
369,Oberalpstrasse 74,47.55066370000001,7.563960900000001,4054
373,Schäublin-Strasse 91,47.5332556,7.5838935,4059
374,Passwangstrasse 33,47.5357876,7.5941664,4059
375,Mythenstrasse 8,47.555621,7.564561100000001,4054
376,Burgunderstrasse 28,47.55326059999999,7.5793214,4051
379,Wanderstrasse 97,47.5519054,7.5634723,4054
380,Markircherstrasse 5,47.5663308,7.563931200000001,4055
381,Ryffstrasse 49,47.5677548,7.5771834,4056
382,Binningerstrasse 15,47.5504219,7.586145399999999,4051
383,Hüningerstrasse 70,47.5728275,7.576970599999999,4056
385,Fischmarkt 10,47.5590733,7.586620999999999,4051
386,Steinenbachgässlein 17,47.5532159,7.588571,4051
387,Leimenstrasse 66,47.5523871,7.58055,4051
388,Kleinhüningerstrasse 141,47.5787871,7.5901733,4057
389,Sperrstrasse 109,47.5661648,7.597336,4057
390,Rütimeyerstrasse 52,47.5485459,7.575765400000001,4054
391,Amerbachstrasse 90,47.569242,7.595924999999999,4057
392,Kleinriehenstrasse 21,47.5661424,7.6126327,4058
393,Davidsrain 12,47.5652559,7.576074,4056
394,Burgunderstrasse 14,47.5537533,7.5801049,4051
395,Dittingerstrasse 9,47.5405416,7.5896674,4053
396,"Müllheimerstrasse 51, 53, 53A",47.5658645,7.5928455,4057
398,Gotthelfstrasse 50,47.5546825,7.5690594,4054
399,St. Alban-Ring 253,47.5466645,7.6076971,4052
400,Käferholzstrasse 113,47.5654571,7.619673199999998,4058
401,Largitzenstrasse,47.5665869,7.567648500000001,4056
402,Neubadstrasse 90,47.5484648,7.568033900000001,4054
403,Welschmattstrasse,47.5620819,7.562957900000001,4055
404,St. Jakobs-Strasse 7,47.55079370000001,7.5960143,4052
405,Emanuel Büchel-Strasse 18,47.5498808,7.6132705,4052
406,Rennweg 72,47.5501025,7.6092991,4052
407,Bartenheimerstrasse 11,47.56015350000001,7.5708259,4055
408,Starenstrasse 20,47.538985,7.5876866,4059
410,Weiherhofstrasse 62,47.54952129999999,7.5585108,4054
411,Ziegelstrasse 8,47.5658231,7.5637018,4055
412,Göschenenstrasse 7,47.5473456,7.563461599999999,4054
413,Schaffhauserrheinweg 121,47.5576894,7.6057095,4058
414,Stachelrain 4,47.5578144,7.6051274,4058
415,Hirzbrunnenallee 37,47.5672743,7.6135001,4058
416,Marignanostrasse 10,47.535735,7.5861712,4059
417,"Wettsteinallee 60, 62, 64, 66, 68, 70, 72",47.5607252,7.602291,4058
418,Sperrstrasse 103,47.5660657,7.597018599999999,4057
419,Tessinstrasse 10,47.5515771,7.5645236,4054
420,Gasstrasse 52,47.56951979999999,7.575300899999999,4056
421,Maiengasse 56,47.5610681,7.577356399999998,4056
422,Sonnenbergstrasse 50,47.5365194,7.5916983,4059
423,Hebelstrasse 76,47.56229889999999,7.578885199999999,4056
424,Gerbergasse 66,47.5555002,7.5886704,4001
425,Gerbergässlein 42,47.5554337,7.588425999999999,4051
426,Chrischonastrasse 54,47.5596622,7.603523399999999,4058
427,Hirzbrunnenschanze 84,47.5659918,7.6170572,4058
428,Mülhauserstrasse 131,47.5662219,7.5757298,4056
429,Oetlingerstrasse 27,47.56756110000001,7.588372000000001,4057
430,Oetlingerstrasse 29,47.56757,7.588478399999999,4057
431,Austrasse 105,47.5552812,7.576619699999999,4051
432,Byfangweg 16,47.5522166,7.582231299999999,4051
433,Knöringerstrasse 8,47.5632337,7.566980099999999,4055
434,Beckenstrasse 17,47.5718589,7.5746291,4056
435,Kanonengasse 27,47.5530486,7.5853826,4051
436,St. Alban-Vorstadt 15,47.55478919999999,7.595802699999999,4052
437,"Grenzacherstrasse 483, 483A",47.5624528,7.625642399999999,4058
438,Gundeldingerstrasse 461,47.5374487,7.602724299999999,4053
439,"Horburgstrasse 96, 98",47.5712771,7.595962,4057
440,Lerchenstrasse 125,47.5357421,7.587685199999999,4059
441,Kirchgasse 1,47.5596806,7.596733899999999,4058
442,Nonnenweg 29A,47.557962,7.5760154,4055
443,Gundeldingerstrasse 156,47.5416216,7.587736,4053
444,Im Holeeletten 14,47.5469869,7.5665636,4054
445,Klingelbergstrasse 3,47.5605651,7.5799256,4056
446,Schäferweg 47,47.5843438,7.594852899999999,4057
447,Sustenstrasse 10,47.5456947,7.559632199999999,4054
448,St. Galler-Ring 175,47.5528269,7.567885,4054
449,Marignanostrasse 8,47.535789,7.586211199999999,4059
450,Davidsbodenstrasse 70,47.5672338,7.5752405,4056
451,Peter Merian-Strasse 45,47.5474514,7.595010699999999,4052
452,Birsigstrasse 93,47.5499574,7.579119200000001,4054
453,Homburgerstrasse 18,47.5557821,7.612293299999999,4052
454,Ahornstrasse 16,47.5576411,7.573556600000001,4055
455,Schlettstadterstrasse 18,47.5593595,7.573109199999999,4055
456,Eichenstrasse 46,47.5548846,7.569537400000001,4054
457,Arabienstrasse 53,47.5301628,7.5900865,4059
458,Mönchsbergerstrasse 7,47.5377685,7.599099499999999,4053
459,Friedrich Miescher-Strasse,47.5732818,7.5614969,4056
460,Oetlingerstrasse 193,47.5682621,7.597297800000001,4057
461,"Gellertstrasse 97, 99, 97/99",47.5496256,7.6170441,4052
462,Birmannsgasse 21,47.557735,7.5778616,4055
463,Vogesenstrasse 39,47.5664321,7.5776982,4056
464,St. Alban-Ring 260,47.5467018,7.607152999999999,4052
465,Kleinriehenstrasse 60,47.567504,7.615109,4058
466,Neuweilerstrasse 97,47.5458744,7.558068700000001,4054
467,Unterer Rheinweg 140,47.5686695,7.586714,4057
468,Wiesenstrasse 2,47.577026,7.5921932,4057
469,Bartenheimerstrasse 9,47.5602074,7.570892400000001,4055
470,Totentanz 11,47.5621681,7.5858323,4051
471,Spalenberg 36,47.5569501,7.585721599999999,4051
472,"Barfüsserplatz 15,",47.554657,7.5887096,4051
473,Barfüsserplatz 14,47.5545953,7.5886932,4051
474,Steinenvorstadt 37,47.5528717,7.5888486,4051
475,"Schnabelgasse 1, 3",47.5571217,7.5865689,4051
476,Gerbergasse 56,47.5556711,7.588604399999999,4001
477,Gerbergasse  58,47.5556351,7.5886043,4001
478,Gerbergasse 62,47.5555722,7.588630699999999,4001
479,Im langen Loh 281,47.5467106,7.5600064,4054
480,Strassburgerallee 83,47.561878,7.5700816,4055
481,Im tiefen Boden 40,47.530333,7.590671299999999,4059
482,"Angensteinerstrasse 30, 30A",47.5495341,7.6043157,4052
483,Efringerstrasse 20,47.5682708,7.596603600000001,4057
484,Allschwilerstrasse 118,47.5573069,7.565478499999999,4055
485,Mittlere Strasse 57,47.5615483,7.577911400000001,4056
486,Theodorsgraben 18,47.5579697,7.598283299999999,4058
487,Rudolfstrasse 20,47.5549212,7.5748047,4054
488,Rheinländerstrasse 9,47.5636073,7.578368599999999,4056
489,Neuweilerstrasse 61,47.5460799,7.560217700000001,4054
490,St.Johanns-Platz 24,47.5668514,7.580583,4056
491,"Auf dem Wolf 31, 31 A",47.541693,7.614537599999999,4052
492,C. F. Meyer-Strasse 21,47.5312034,7.5922009,4059
493,Hermann Albrecht-Strasse 9,47.5684957,7.614646999999999,4058
494,Weiherweg 28,47.5540484,7.577201000000001,4054
495,Hegenheimerstrasse 35,47.560268,7.5729786,4055
496,Schöllenenstrasse 22,47.5510763,7.564997999999998,4054
497,Holeestrasse 129A,47.5454979,7.5670571,4054
498,Weissensteinstrasse 5,47.5360767,7.593211,4059
500,Tessinstrasse 52,47.5510688,7.5619533,4054
501,Waldenburgerstrasse 16,47.5549688,7.6088497,4052
502,Mostackerstrasse 9,47.55537349999999,7.582093599999999,4051
503,Hegenheimerstrasse 87,47.5609822,7.5697384,4055
504,Schliengerweg 16,47.5718741,7.5958368,4057
505,Freie Strasse 59,47.5560075,7.5905619,4001
506,Friedensgasse 9,47.5631511,7.579345500000001,4056
507,"Riehenteichstrasse 58, 60, 62, 64",47.5653465,7.603341599999999,4058
508,Maulbeerstrasse 151,47.56973199999999,7.608374100000001,4058
509,Bernerring 7,47.5463977,7.574604199999999,4054
510,Petersgraben 5,47.56089110000001,7.585775699999999,4051
511,Herrengrabenweg 14,47.5557419,7.5722044,4054
512,Altkircherstrasse 15,47.5532476,7.5696796,4054
513,"Pilgerstrasse 8, 10, 12, 14, 16",47.55957009999999,7.577181899999998,4055
514,Oberalpstrasse 107,47.5510241,7.5634038,4054
515,Klybeckstrasse 45,47.5666889,7.5906168,4057
516,"Rittergasse 23, 25",47.5555564,7.5937855,4051
517,Rittergasse 21,47.555395,7.593439699999998,4051
518,Eptingerstrasse 22,47.5547002,7.608011899999999,4052
519,Eptingerstrasse 24,47.5545652,7.6080779,4052
520,In den Schorenmatten 244 bis 266,47.5710536,7.608178499999999,4058
521,Seltisbergerstrasse 98,47.52735879999999,7.595390099999999,4059
522,Rheingasse 29,47.5599381,7.592456299999999,4058
523,"Dornacherstrasse 230, 232, 234",47.54091409999999,7.5958552,4053
524,Klybeckstrasse 11,47.5650933,7.591102500000001,4057
525,Sonnenbergstrasse 51,47.5367613,7.592363000000001,4059
526,Oberwilerstr. 64,47.5487797,7.5770855,4054
528,Oberwilerstrasse 151,47.5451732,7.5757567,4054
529,Mülhauserstrasse 88,47.5678164,7.578146599999999,4056
530,In den Ziegelhöfen 112,47.5454328,7.5594365,4054
531,Feierabenstrasse 57,47.5529119,7.5799481,4051
532,Kraftstrasse 17,47.5727773,7.5772802,4056
533,Eimeldingerweg 13,47.5719868,7.596295400000001,4057
534,Peter Rot-Strasse 51,47.5594365,7.6041073,4058
535,Rheinländerstrasse 11,47.5635535,7.5782621,4056
536,Gasstrasse 1,47.570389,7.578027499999998,4056
537,Maulbeerstrasse 15,47.56699690000001,7.600091,4058
538,Voltastrasse,47.5726886,7.5815926,
539,"Schönausstrasse 20, 22",47.5676961,7.6001414,4058
540,St. Alban-Ring 243,47.5469239,7.608055999999999,4052
541,Pilgerstrasse 21,47.5590762,7.576935100000001,4055
542,General Guisan-Strasse 142,47.5490296,7.562498600000001,4054
543,Lerchenstrasse 12,47.5394371,7.588837799999999,4059
544,Lindenhofstrasse 18,47.5468841,7.595448299999999,4052
545,Nufenenstrasse 53,47.5507551,7.5625795,4054
546,Feldbergstrasse 123,47.5672566,7.596052899999999,4057
547,Glaserbergstrasse 11,47.5672285,7.570012900000001,4056
548,Zur Gempenfluh 60,47.5291946,7.6011586,4059
549,Hebelstrasse 93,47.5627715,7.5778747,4056
550,Thiersteinerallee 70,47.5403621,7.596650199999999,4053
551,Hebelplatz 4,47.5650494,7.5757413,4056
552,Krachenrain 1,47.5362878,7.590856499999999,4059
553,Im Wasenboden 52,47.5708706,7.5705313,4056
554,Grenzacherstrasse 110,47.55870669999999,7.605035099999998,4058
555,Florastrasse 8,47.5647858,7.5908741,4057
556,Auf dem Wolf 19,47.5410748,7.6139854,4052
557,Hans Huber-Strasse 23,47.5452181,7.580720899999999,4053
558,Lothringerstrasse 121,47.5704103,7.5752102,4056
559,Sennheimerstrasse 8,47.5534683,7.5720995,4054
560,Drosselstrasse 31,47.5379265,7.5885148,4059
561,Nufenenstrasse 58,47.55092570000001,7.562911999999999,4054
563,Lukas Legrand-Strasse 11,47.569024,7.6162036,4058
564,"Arnold Böcklin-Strasse 39, 41",47.55120729999999,7.5764099,4051
565,Blauensteinerstrasse 16,47.5440273,7.583038,4053
566,Starenstrasse 8,47.5388376,7.586379,4059
567,Spalentorweg 16,47.5570668,7.580091899999999,4051
569,Lyon-Strasse 43,47.5329316,7.6060603,4053
570,Sperrstrasse 84,47.5655006,7.5959539,4057
571,Sennheimerstrasse 13,47.5534074,7.571539899999999,4054
572,Baumgartenweg 16,47.54202009999999,7.5943041,4053
573,Belforterstrasse,47.5642155,7.557875299999999,4055
574,St. Alban-Vorstadt 110,47.5532961,7.6024808,4052
575,Metzerstrasse 51,47.5648428,7.575514900000001,4056
576,Luftmattstrasse 12,47.5481251,7.602159399999999,4052
577,Schlossgasse 7,47.57698629999999,7.5885048,4057
578,Mariasteinstrasse 7,47.548765,7.571611000000001,4054
579,Mariasteinstrasse,47.54844,7.57085,4054
580,Mülhauserstrasse 61,47.5681745,7.5797227,4056
581,Benkenstrasse 24,47.548876,7.5721166,4054
582,Furkastrasse 62,47.54852040000001,7.561764199999999,4054
583,Rütimeyerstrasse 35,47.5488637,7.576211,4054
584,Klosterberg 17,47.5519725,7.5902812,4051
585,Bläsiring 15,47.56862280000001,7.5874679,4057
587,Bläsiring 9,47.5686073,7.5871563,4057
588,Sonnenbergstrasse 67,47.536607,7.5934649,4059
589,Bündnerstrasse 42,47.55885259999999,7.568005899999999,4055
590,Angensteinerstrasse 46,47.5498931,7.604834899999999,4052
591,Wartenbergstrasse 37,47.5474702,7.607351299999999,4052
592,Spitalstrasse 41,47.5642338,7.580908199999999,4056
593,"Amerbachstrasse 55, 55A",47.5694424,7.5940252,4057
594,Erstfeldstrasse,47.5482457,7.5633001,4054
595,Bruderholzweg 22,47.53962629999999,7.591088399999999,4053
596,Falkensteinerstrasse 50,47.53889909999999,7.601002200000001,4053
597,Eimeldingerweg 29,47.5726028,7.596245799999999,4057
598,Efringerstrasse 9,47.567662,7.596323600000001,4057
599,Fürstensteinerstrasse 65,47.5374258,7.599829,4053
600,In den Ziegelhöfen 97,47.54538729999999,7.5607119,4054
601,Eisenbahnweg 23,47.559375,7.6145976,4058
602,Largitzenstrasse 74,47.5662972,7.5669863,4056
603,Dornacherstrasse 133,47.5429437,7.5908659,4053
604,Riehenring 5,47.5612424,7.601832099999999,4058
605,Kannenfeldstrasse 48,47.5639835,7.5736814,4056
606,"Malzgasse 15, 15A",47.5535091,7.598044199999999,4052
607,Landskronstrasse 40,47.568466,7.5766271,4056
608,Drahtzugstrasse 67,47.5641668,7.597956399999998,4057
609,Birkenstrasse 34,47.5569807,7.573033099999999,4055
610,Bartenheimerstrasse 23,47.5597942,7.570413099999999,4055
611,Wettsteinplatz 3,47.5595891,7.597876299999999,4058
612,Im langen Loh 19,47.5559698,7.564119499999999,4054
613,Hohe Winde-Strasse 9,47.5347423,7.588877699999999,4059
614,Eichenstrasse 35,47.5551806,7.5702954,4054
615,Güterstrasse 79,47.5466279,7.585058900000001,4053
616,Horburgstrasse 8,47.5705613,7.5912111,4057
617,Gundeldingerstrasse 494,47.5368815,7.6031742,4053
618,Efringerstrasse 7,47.5675787,7.596336399999999,4057
619,Auf dem Wolf 23,47.5413519,7.614200800000001,4052
620,St. Galler-Ring 192,47.5517301,7.567550300000001,4054
621,Haltingerstrasse 104,47.5664699,7.5974317,4057
622,Elsässerstrasse 119,47.5720726,7.576516799999998,4056
623,Mostackerstrasse 4,47.5556615,7.5819881,4051
624,St. Johanns-Vorstadt 47,47.5647605,7.583190999999999,4056
625,"Hegenheimerstrasse 226, 228",47.5645247,7.562425399999999,4055
626,Peter Ochs-Strasse 46,47.5302835,7.5940574,4059
627,Mülhauserstrasse 79,47.5677709,7.578804700000001,4056
628,Murtengasse 11,47.5533529,7.578789,4051
629,Schliengerweg 14,47.5718207,7.5958381,4057
630,Wasgenring 64,47.5618789,7.563934,4055
631,Signalstrasse,47.57026920000001,7.6041601,
632,Hegenheimerstrasse 88,47.561405,7.5696198,4055
633,Gärtnerstrasse 35,47.575886,7.5908675,4057
634,Aeschengrabe,47.5498451,7.5928717,4051
635,Weissensteinstrasse 1,47.53620249999999,7.5932778,4059
636,Spalenring 167,47.5540757,7.5768271,4055
637,Bürenfluhstrasse 13,47.5296464,7.5996063,4059
638,Sulzerstrasse 21,47.55376709999999,7.571856100000001,4054
639,Offenburgerstrasse 23,47.5693157,7.587712499999999,4057
640,Lerchenstrasse 79,47.53752919999999,7.589735499999999,4059
641,Rütimeyerstrasse 43,47.5485902,7.5763234,4054
642,Zur Gempenfluh 26,47.5301941,7.6002985,4059
643,Claramattweg 19,47.5630628,7.596318699999999,4057
644,Thannerstrasse 66,47.5548133,7.572690799999999,4054
645,Neubadstrasse 130,47.547352,7.565799600000001,4054
646,"Schützenmattstrasse 61, 63",47.5543156,7.5793407,4051
647,"Burgunderstrasse 8, 10",47.5539187,7.580322699999999,4051
648,Ryffstrasse 17,47.5684186,7.578633599999999,4056
649,Obwaldnerstrasse 7,47.5600634,7.566466,4055
650,Bruderholzstrasse 72,47.5421564,7.593241900000001,4053
651,Birsigstrasse 24,47.5507992,7.5842645,4054
652,Hegenheimerstrasse 241,47.56446280000001,7.5613622,4055
653,Realpstrasse 2,47.5496062,7.568793899999999,4054
654,Lerchenstrasse 23,47.5396706,7.5890509,4059
655,Hegenheimerstrasse 37,47.5601782,7.572872099999999,4055
656,Mülhauserstrasse 114,47.5669221,7.576337099999999,4056
657,"Burgfelderstrasse 11, 215",47.5621874,7.5726935,4055
658,Burgfelderstrasse,47.5666615,7.5642596,
659,Burgfelderstrasse 211,47.5670243,7.5630557,4055
660,Burgfelderstrasse 215,47.5672666,7.5628081,4055
661,Kaysersbergerstrasse,47.5660685,7.561670400000001,4055
662,Martinsgasse 12,47.5579817,7.5892088,4051
663,Riedbergstrasse 15,47.5335526,7.590813299999999,4059
664,"Frobenstrasse 62, 62A",47.5437382,7.584779599999999,4053
665,Bruderholzallee 154,47.5321997,7.5937044,4059
666,Grenzacherstrasse 13,47.5591008,7.5997615,4058
667,Gasstrasse 10,47.5703632,7.5769643,4056
668,Kapellenstrasse 16,47.5500859,7.601854599999999,4052
669,Schafgässlein 3,47.56052409999999,7.59226,4058
670,Hardstrasse 121,47.5489081,7.6080998,4052
671,Dornacherstrasse 11,47.5455461,7.5841859,4053
672,Riehenring 17,47.5615905,7.6009118,4058
673,"Wasserstrasse 21, 23, 25",47.5699186,7.580285499999999,4056
674,"Wasserstrasse 31, 33, 35, 37",47.5700977,7.5808574,4056
675,Gotthardstrasse 43,47.5483984,7.562879599999999,4054
676,Bristenweg 18,47.5497337,7.5672798,4054
677,Feldbergstrasse 71,47.5666745,7.5924226,4057
678,"Eisenbahnweg 22, 24",47.5595653,7.614277,4058
679,Heinrichsgasse 17,47.5563158,7.5763433,4055
680,Nufenenstrasse 60,47.5509796,7.562885599999999,4054
681,Muespacherstrasse 74,47.5616334,7.5664314,4055
682,Petersplatz 12,47.5596986,7.5828493,4051
683,Giornicostrasse 106,47.52829699999999,7.5998545,4059
684,Glaserbergstrasse 52,47.5663261,7.568210000000001,4056
685,Benkenstrasse 73,47.5477821,7.5752321,4054
686,Kahlstrasse 12,47.5478838,7.572801399999999,4054
687,Peter Ochs-Strasse 14,47.5318125,7.5940619,4059
688,"Erlenparkweg 45, 89, 93, 101, 110, 111",47.5742045,7.6038873,4058
689,Hirzbrunnenschanze 26,47.5667041,7.6158769,4058
690,Peter Ochs-Strasse 18,47.53167759999999,7.5940084,4059
691,Hirzbrunnenstrasse 16,47.56776869999999,7.613674499999999,4058
692,Grenzacherstrasse,47.5606988,7.616076899999999,
693,Hohe Winde-Strasse 110,47.5328312,7.592245500000001,4059
694,Eisenbahnweg 6,47.5600591,7.6149215,4058
695,Kleinhüningerstrasse 169,47.5796345,7.590639899999999,4057
696,Unterer Heuberg 21,47.5561853,7.5873703,4051
697,Andreasplatz 16,47.558282,7.586485899999999,4051
698,Wasserstrasse 39,47.5702501,7.5813096,4056
699,Friedlingerstrasse,47.5855712,7.592181999999999,4057
700,Baumgartenweg 17,47.5419402,7.594636599999999,4053
701,Erstfeldstrasse 50,47.5482282,7.562281400000001,4054
702,Gotthelfstrasse 52,47.5547445,7.569059599999998,4054
703,Schweizergasse 6,47.5492432,7.5792609,4054
704,Holbeinstrasse 3,47.55503789999999,7.584417699999999,4051
705,Holbeinstrasse 5,47.5549659,7.584430800000001,4051
706,Farnsburgerstrasse 26,47.555673,7.6131034,4052
707,Weilerweg 1,47.5848926,7.5926947,4057
708,Mittlere Strasse 41,47.561008,7.578454799999999,4056
709,Vogesenstrasse,47.5680769,7.5761227,4056
710,Spalenring 56,47.5591062,7.5743708,4055
711,Heuberg 38,47.555862,7.5870107,4051
712,Arabienstrasse 8,47.53208919999999,7.5888038,4059
713,Horburgstrasse,47.5707437,7.592713,
714,Mattenstrasse 24,47.56596829999999,7.602466499999999,4058
715,Marignanostrasse 110,47.5320237,7.5836909,4059
716,Amerbachstrasse 18,47.5691848,7.591552699999999,4057
717,Sonnenweg 24,47.5490952,7.609269399999999,4052
718,Horburgstrasse 74,47.5705226,7.594950299999999,4057
719,Petersgasse 40,47.55983060000001,7.5859356,4051
720,Neubadstrasse 80,47.5486442,7.5684329,4054
721,St.Johanns-Vorstadt 80,47.5652804,7.583358,4056
722,St.Alban-Ring 200,47.54874419999999,7.609467500000001,4052
723,Rosentalstrasse 70,47.5661061,7.6066927,4058
724,Gotthelfstrasse 47,47.5533386,7.568709999999999,4054
725,St.Alban-Vorstadt 12,47.55455,7.595590700000001,4052
726,Scherkesselweg,47.54581839999999,7.615522500000001,4052
727,St. Alban-Kirchrain 6,47.5537189,7.602402399999999,4052
728,"St. Alban-Rheinweg 62, 64",47.5546356,7.601641399999999,4052
729,Sundgauerstrasse 2,47.5647846,7.563302999999999,4055
730,In den Ziegelhöfen 143,47.5450484,7.5584618,4054
731,Gotthardstrasse 118,47.5508405,7.5619021,4054
732,Oberer Batterieweg 6,47.5333045,7.586965500000001,4059
733,Lindenberg 15,47.55915419999999,7.594782399999999,4058
734,Delsbergerallee 81,47.5385242,7.598982299999999,4053
735,Münchensteinerstrasse 136,47.5425088,7.600462599999999,4053
736,Ackerstrasse 47,47.5780624,7.590940199999999,4057
737,Waldenburgerstrasse 22,47.5548157,7.6089422,4052
738,Jungstrasse 20,47.5675941,7.579304999999999,4056
739,Mülhauserstrasse 160,47.5658245,7.574387899999999,4056
740,Luzernerring 75,47.5687875,7.568776,4056
741,Im Witterswilerhof 5,47.5606203,7.5635059,4055
742,Maulbeerstrasse 91,47.5682319,7.604413699999999,4058
743,Murbacherstrasse 18,47.56970580000001,7.577759899999999,4056
744,"Gärtnerstrasse 113, 115",47.5801559,7.592461399999999,4057
745,"Klybeckstrasse 140, 142",47.5689252,7.590661599999999,4057
746,Claragraben 165,47.56617199999999,7.591490899999999,4057
747,Markgräflerstrasse 18,47.56992959999999,7.5913403,4057
748,Markgräflerstrasse 20,47.5699297,7.5914831,4057
749,Amerbachstrasse 15,47.56943099999999,7.5914006,4057
750,Passwangstrasse 18,47.5367048,7.5943152,4059
751,Leimenstrasse 37,47.55374519999999,7.582447900000001,4051
752,Largitzenstrasse 82,47.5661069,7.5667429,4056
753,Tellstrasse 30,47.5429621,7.5960601,4053
754,Matthäusstrasse 17,47.56718739999999,7.592158299999999,4057
755,Lukas Legrand-Strasse 9,47.569087,7.6161373,4058
756,"Offenburgerstrasse 45, 47, 55, 57",47.5693681,7.588975100000001,4057
757,Nauenstrasse 55,47.5473904,7.5938317,4052
758,General Guisan-Strasse 152,47.54899289999999,7.562097199999999,4054
759,Wilhelm His-Strasse 5,47.5644021,7.583021400000001,4056
760,Wilhelm His-Strasse 7,47.5643483,7.5828618,4056
761,Oberer Rheinweg 21,47.55987289999999,7.591891899999999,4058
762,Im Wasenboden 60,47.5710739,7.5704261,4056
763,Tellstrasse 23,47.5432402,7.596271499999999,4053
764,Käferholzstrasse 147,47.5648084,7.620455000000001,4058
765,Fröschgasse,47.54543899999999,7.5576237,4054
766,Realpstrasse 24,47.5491664,7.567969199999999,4054
767,Peter Ochs-Strasse 7,47.5317841,7.5950843,4059
768,Peter Ochs-Strasse 7A,47.5317841,7.5950843,4059
769,C.F.Meyer-Strasse 60,47.529351,7.591890199999999,4059
770,Bläsiring 17,47.5686282,7.5876114,4057
771,Brombacherstrasse 2,47.57047499999999,7.5952907,4057
772,Schäublinstrasse 107,47.5326718,7.5832677,4059
773,Reinacherstrasse 265,47.5320934,7.6055631,4053
774,Sonnenbergstrasse 65,47.5366793,7.5931862,4059
775,Auf dem Hummel 17,47.5315255,7.5934634,4059
776,Spalenring 36,47.5599882,7.574103300000001,4055
777,Spalenring 34,47.56008079999999,7.574140000000001,4055
778,"Kohlenstrasse 40, 54",47.5758413,7.576181,4056
779,Scheltenstrasse 28,47.5331728,7.592379200000001,4059
780,Solothurnerstrasse 21,47.5450729,7.5913641,4053
781,Hüningerstrasse 18,47.5708156,7.5746929,4056
782,Largitzenstrasse 63,47.5663053,7.5674892,4056
783,Gasstrasse 35,47.5697791,7.5765907,4056
784,Bergalingerstrasse 40,47.5607583,7.6105025,4058
785,Paradieshofstrasse 53,47.5498586,7.559894,4054
786,Amselstrasse 44,47.5379868,7.588815099999999,4059
787,Wanderstrasse 19,47.5526181,7.5696913,4054
788,Rixheimerstrasse 7,47.5607127,7.569405499999999,4055
789,Mülhauserstrasse 139,47.5659673,7.575291799999999,4056
790,Neubadstrasse 67,47.5492621,7.5707857,4054
791,Eisenbahnweg,47.5596202,7.615673300000001,4058
792,Jungstrasse 24,47.5675097,7.579109699999999,4056
793,Amselstrasse 55,47.538204,7.5895914,4059
794,Bergalingerstrasse 18,47.5601733,7.6107663,4058
795,Gotthelfplatz 9,47.5534563,7.5680194,4054
796,Im Holeeletten 24,47.5467038,7.5663825,4054
797,Largitzenstrasse 87,47.5657323,7.5667486,4056
798,Austrasse 16,47.5528639,7.583904800000001,4051
799,Wettsteinallee 35,47.56035,7.6004562,4058
800,In den Ziegelhöfen 154,47.5451485,7.5572798,4054
801,Lehenmattstrasse 202,47.54959909999999,7.6209877,4052
802,Bürenfluhstrasse 21,47.5293589,7.599419500000001,4059
803,"Sperrstrasse 42, 44, 46, 48",47.5649448,7.594557000000001,4057
804,Solothurnerstrasse 79,47.542338,7.589097199999999,4053
805,Allschwilerstrasse 77,47.5572148,7.5696852,4055
806,Krachenrain 55,47.53479129999999,7.592676099999998,4059
807,General Guisan-Strasse 63,47.5501747,7.567041700000001,4054
808,Largitzenstrasse 81,47.5658812,7.566953700000001,4056
809,Kleinhüningerstrasse 105,47.5776595,7.589556699999999,4057
810,Markircherstrasse 6,47.5666638,7.5636795,4055
811,Paracelsusstrasse 12,47.56442149999999,7.614713300000001,4058
812,"Kraftstrasse 10, 10A",47.5725657,7.5778205,4056
813,Andreasplatz 18,47.5581739,7.586631799999999,4051
814,Leimenstrasse 77,47.5513983,7.580157100000001,4051
815,Lindenhofstrasse 40,47.5465564,7.5966769,4052
816,"Landskronstrasse 65, 67, 69, 71",47.567829,7.5759639,4056
817,Marktgräflerstrasse 20,47.5699297,7.5914831,4057
818,Bruderholzallee 28,47.5345016,7.587203700000001,4059
819,Tiergartenrain 15,47.55032,7.5812963,4054
820,St. Alban-Anlage 66,47.5517731,7.603311499999999,4052
821,Eulerstrasse 30,47.55525799999999,7.5809773,4051
822,Binzenstrasse 46,47.5676519,7.619441500000001,4058
823,Margarethenstrasse 69,47.5453821,7.5832159,4053
824,Reinacherstrasse 126,47.5363765,7.604115500000001,4053
825,"Klybeckstrasse 64, 66, 70",47.5658293,7.5913505,4057
826,"Burgfelderstrasse 211, 215",47.5670243,7.5630557,4055
827,Murbacherstrasse 47,47.5688279,7.5764742,4056
828,Markgräflerstrasse 50,47.5699285,7.5936678,4057
829,Seltisbergerstrasse 85,47.5285152,7.597408,4059
830,Allschwilerstrasse 101,47.55710819999999,7.5676961,4055
831,Klingelbergstrasse 93,47.5645068,7.5782912,4056
832,Schorenweg,47.5725821,7.611663,4058
833,Lysbüchelstrasse 146,47.5765599,7.5691918,4056
834,Lysbüchelstrasse 154,47.57642509999999,7.5690984,4056
835,Sarnerstrasse 6,47.5595083,7.565941100000001,4055
836,Sevogelstrasse 30,47.5518362,7.604522200000001,4052
837,Im Wasenboden 14,47.5698944,7.571093100000001,4056
838,Leuengasse,47.5661932,7.5880163,4057
839,Im Heimatland 76,47.5650395,7.6164029,4058
840,Blauenstrasse 9,47.5556036,7.5738724,4054
841,Sommergasse 39,47.5640621,7.573997999999999,4056
842,"Hardstrasse 43, 43 T",47.5512388,7.6032538,4052
843,Karpfenweg 12,47.551329,7.619000899999999,4052
844,Delsbergerallee 23,47.5413368,7.600744,4053
845,Münchensteinerstrasse 154,47.54184799999999,7.6017417,4053
846,Im langen Loh 145,47.5515927,7.5615054,4054
847,Hardstrasse 52,47.5502891,7.6045072,4052
848,Schäublinstrasse 37,47.5356643,7.585214799999999,4059
849,Largitzenstrasse 76,47.5662519,7.5669188,4056
850,Peter Ochs-Strasse 30,47.5310742,7.5939291,4059
851,Schwarzwaldallee 61,47.5612617,7.6106636,4058
852,Largitzenstrasse 43,47.5668465,7.5682459,4056
853,In den Ziegelhöfen 125,47.5452181,7.559578,4054
854,Wanderstrasse 95,47.5519143,7.563578599999999,4054
855,Neubadstrasse 146,47.5466161,7.5643765,4054
856,Peter Merian-Strasse 47,47.54734819999999,7.594906,4052
857,St. Johanns-Vorstadt 41,47.5643655,7.5834997,4056
858,Mittlere Strasse 69,47.5618996,7.5774871,4056
859,Spalentorweg 12,47.5572465,7.580225299999999,4051
860,Gotthardstrasse 34,47.5481729,7.563569800000001,4054
861,"Leimenstrasse 16, 18",47.554977,7.582730199999999,4051
862,Neubadstrasse 33,47.5501329,7.5727956,4054
863,Oberwilerstrasse 84,47.547808,7.5760956,4054
864,Delsbergerallee 67,47.5390454,7.599315899999999,4053
865,Gartenstrasse 99,47.54811549999999,7.5934854,4052
866,Hagentalerstrasse 45,47.5619435,7.570657600000001,4055
867,Meltingerstrasse 13,47.5453998,7.581841,4053
868,Sustenstrasse 14,47.5455778,7.559671799999999,4054
869,Gasstrasse 16,47.5702287,7.576698100000001,4056
870,Tessinstrasse 50,47.5510885,7.562048900000001,4054
871,Efringerstrasse 15,47.5678648,7.596304499999999,4057
872,Birsigstrasse 124,47.5506841,7.5776838,4054
873,Hasenmattstrasse 1,47.533794,7.591916200000001,4059
874,Eulerstrasse 56,47.5562584,7.5791996,4051
875,Sennheimerstrasse 30,47.5539049,7.570806399999999,4054
876,Ampereplatz,47.5705909,7.581385099999999,4056
877,Hünigerstrasse,47.5734253,7.577404899999999,4056
878,Luzernerring,47.5686593,7.568106399999999,
879,Baldeggerstrasse 4,47.5538581,7.616000599999999,4052
880,"St. Alban-Rheinweg  242, 244",47.5569657,7.614675399999999,4052
881,St. Alban-Rheinweg 240,47.5570919,7.6145899,4052
882,Birsstrasse,47.5475465,7.6223306,4052
883,Brüglingerstrasse,47.53955,7.61434,
884,Baldeggerstrasse,47.553905,7.6159947,4052
885,In der Breite,47.5568742,7.6141728,4052
886,Birsfelderstrasse,47.55618880000001,7.6159594,4052
887,Grosspeterstrasse,47.5452088,7.6016479,4052
888,Efringerstrasse,47.5693922,7.596278499999999,4057
889,Bad. Bahnhof-Passage,47.54758899999999,7.589662,4051
890,Brombacherstrasse,47.5702943,7.596318,4057
891,Dreirosenbrücke,47.5707969,7.584628799999999,
892,Mauerstrasse,47.5737643,7.592448399999999,
893,Schwarzwaldstrasse,47.56249030000001,7.6104864,4058
894,"Schwarzwaldbrücke,",47.5572267,7.614232899999999,
895,Hochbergerstrasse,47.5785868,7.5954909,4057
896,Freiburgerstrasse,47.5779191,7.603097500000001,4057
897,General Guisan-Strasse 52,47.5511016,7.566579,4054
898,Im langen Loh 251,47.5476368,7.5601546,4054
899,Schwarzwaldallee 51,47.5607846,7.610941,4058
900,Hirzbrunnenschanze 12,47.56707309999999,7.6156788,4058
901,Hardrain 14,47.5458648,7.617578699999999,4052
902,Bettingerweg,47.5639885,7.632165799999999,4058
903,Centralbahnplatz 14,47.5487219,7.589985700000001,4051
904,Wanderstrasse 71,47.5520746,7.5650004,4054
906,Hirzbrunnenstrasse 98,47.5652363,7.617094599999999,4058
907,"Tangentenweg 50, 52, 54, 56",47.5706374,7.598535499999999,4058
908,"Erlkönigweg 31, 33, 35, 37, 39, 40",47.5715637,7.600311699999999,4058
909,Birkenstrasse 25,47.55713739999999,7.573635099999999,4055
910,Largitzenstrasse 75,47.5660264,7.567143199999999,4056
911,Falkensteinerstrasse 9,47.5400619,7.602198899999999,4053
912,Schöllenenstrasse 15,47.5508967,7.5647186,4054
913,Passwangstrasse 39,47.5354551,7.5939928,4059
914,Kembserweg 10,47.5610606,7.571984100000001,4055
915,Rufacherstrasse 52,47.5591327,7.569948900000001,4055
916,Delsbergerallee 77,47.538668,7.599035799999999,4053
917,Hagenbachstrasse 22,47.5473931,7.6006765,4052
918,Schlossgasse 20,47.57665950000001,7.588819,4057
919,Hagentalerstrasse 61,47.5625384,7.5694499,4055
920,St. Jakobs-Strasse 165,47.5449022,7.604367799999999,4052
921,St. Jakobs-Strasse 54,47.548186,7.5971781,4052
922,Rümmingerstrasse 41,47.565167,7.6211871,4058
923,Bärenfelserstrasse 41,47.56782310000001,7.5874691,4057
924,Holeestrasse 87,47.54508209999999,7.569996700000001,4054
925,Picassoplatz 2,47.5536563,7.595600099999999,4052
926,Giornicostrasse 112,47.5279645,7.5996942,4059
927,Kraftstrasse 25,47.5728949,7.577147,4056
928,Largitzenstrasse 26,47.5673768,7.5684725,4056
929,Oberwilerstrasse 100,47.5470568,7.5756895,4054
930,Dammerkirchstrasse 34,47.56734350000001,7.5672158,4056
931,Thannerstrasse 67,47.55509,7.570879799999999,4054
932,Realpstrasse 23,47.548979,7.5681527,4054
933,Rümelinsplatz 1,47.5564999,7.5875572,4001
934,Erlkönigweg 7,47.5706242,7.6002561,4058
935,Spalenvorstadt 34,47.5578627,7.5819825,4051
936,Morgartenring 28,47.5558521,7.5648499,4054
937,Rheinweilerweg 22,47.5721739,7.596080000000001,4057
938,Im Heimatland 20,47.5645462,7.615511,4058
939,Palmenstrasse 12,47.5568944,7.5737806,4055
940,"Drahtzugstrasse 24, 24A",47.56320849999999,7.595631999999999,4057
941,"Gundeldingerstrasse 428, 430, 430",47.5379837,7.5996314,4053
942,Birsfelderstrasse 11,47.556352,7.616095,4052
943,Rotbergerstrasse 30,47.5493174,7.5766697,4054
944,St. Johanns-Vorstadt 66,47.5648277,7.583685,4056
946,Strassburgerallee 81,47.5619177,7.569827699999998,4055
947,Blauenstrasse 37,47.5547724,7.573336799999999,4054
948,"Kleinriehenstrasse 71, 73",47.5681113,7.6152679,4058
949,Kannenfeldstrasse 12,47.5624665,7.5741063,4056
950,Im Wasenboden 28,47.5702264,7.570890700000001,4056
951,Eichenstrasse 14,47.556485,7.570095,4054
952,Feldbergstrasse 46,47.5660515,7.5904745,4057
953,Brombacherstrasse 16,47.5702582,7.595941299999999,4057
954,Feldbergstrasse 44,47.5659846,7.590374199999999,4057
955,Henric Petri-Strasse 35,47.551365,7.594039100000001,4051
956,Oetlingerstrasse 35,47.5676054,7.588916999999999,4057
957,Lerchenstrasse 90,47.53664269999999,7.5878507,4059
958,Froburgstrasse 12,47.5559812,7.611470300000001,4052
959,Neuweilerstrasse 12,47.5468057,7.563646299999999,4054
960,Röttelerstrasse 21,47.56944660000001,7.6162714,4058
961,Weiherweg 20,47.5541287,7.577679499999999,4054
962,Muespacherstrasse 67,47.5617676,7.567043,4055
964,Gotthardstrasse 111,47.5505943,7.5615961,4054
965,Jacob Burckhardt-Strasse 11,47.5483248,7.6013196,4052
966,Waldeckstrasse 1,47.5375137,7.6012636,4053
967,Klingentalgraben 7,47.5636029,7.589144899999999,4057
968,Im langen Loh 253,47.54758830000001,7.560151899999999,4054
969,Maiengasse 2,47.5626285,7.5801857,4056
970,Gundeldingerstrasse 204,47.5405406,7.591007599999999,4053
971,"Tessinstrasse 34, 36",47.5511868,7.5626469,4054
972,Rheingasse 45,47.5593075,7.593278300000001,4058
973,Allschwilerstrasse 48,47.55668439999999,7.572028500000001,4055
974,Bruderholzallee 36,47.5341871,7.586937199999999,4059
975,Baldeggerstrasse 58,47.5527972,7.615987499999999,4052
976,Gotthardstrasse 58,47.548902,7.563000300000001,4054
977,Rheingasse 43,47.5593885,7.593185499999999,4058
978,Lothringerstrasse 105,47.5698341,7.575687099999999,4056
979,Theodorsgraben 6,47.5574845,7.5978833,4058
980,C. F. Meyer-Strasse 43,47.5302679,7.592264699999999,4059
981,Knöringerstrasse 9,47.5629456,7.567218599999999,4055
983,Bruderholzallee 207,47.5339477,7.597699899999999,4059
984,Hegenheimerstrasse 103,47.5613075,7.568330700000001,4055
985,Blumenrain 12,47.5607901,7.587396399999998,4051
986,Steinentorstrasse 35,47.5511551,7.5882958,4051
987,Arbedostrasse 4,47.5310314,7.586052,4059
988,Inselstrasse 55,47.5774521,7.589941599999999,4057
989,Göschenenstrasse,47.5471465,7.5609419,4054
990,Colmarerstrasse 45,47.5599637,7.5716625,4055
991,Im tiefen Boden 10,47.5315924,7.5904093,4059
992,Weiherhofstrasse 88,47.54888889999999,7.5582711,4054
993,Im Sesselacker 41,47.5363909,7.6002641,4059
994,Lerchenstrasse 83,47.537406,7.5895105,4059
995,Dornacherstrasse 131,47.5429787,7.590734500000001,4053
996,Alemannengasse 110,47.55808829999999,7.605543299999999,4058
997,St. Galler-Ring 158,47.55339430000001,7.5671557,4054
998,Maulbeerstrasse 37,47.5674025,7.601526100000001,4058
999,Sierenzerstrasse 18,47.5603706,7.569723600000001,4055
1000,Dittingerstrasse 31,47.5399312,7.589264199999999,4053
1001,Müllheimerstrasse 150,47.5697503,7.592458,4057
1002,St. Johanns-Vorstadt 62,47.5647069,7.5837797,4056
1003,Markgräflerstrasse 28,47.56993869999999,7.591955899999999,4057
1004,Oetlingerstrasse 183,47.5681239,7.596254099999999,4057
1005,Belchenstrasse 8,47.5539445,7.573720000000001,4054
1006,Schönaustrasse 53,47.56822649999999,7.6018755,4058
1007,"Schönaustrasse 55,",47.5682622,7.6020483,4058
1008,Margarethenstrasse,47.54633459999999,7.5836136,
1009,Jägerstrasse 15,47.5683522,7.602022,4058
1010,Im Wasenboden 21,47.5698938,7.570770199999999,4056
1011,Klybeckstrasse 190,47.5711969,7.590020399999999,4057
1012,Eichenstrasse 6,47.5567726,7.570027499999999,4054
1013,Schweizergasse 62,47.5503986,7.575730299999999,4054
1014,Blauensteinerstrasse 11,47.5443101,7.583007,4053
1015,Socinstrasse 32,47.5566555,7.578084700000001,4051
1016,Socinstrasse 34,47.5567638,7.577752800000001,4051
1017,Spalenberg 49,47.556706,7.5851783,4051
1018,Sierenzerstrasse 23,47.5600737,7.5698557,4055
1019,Furkastrasse 68,47.5486785,7.5616979,4054
1020,Neuensteinerstrasse 20,47.5401224,7.600939499999999,4053
1021,Schorenweg 45,47.5720446,7.611043899999999,4058
1022,Jakobsbergerholzweg 24,47.5338443,7.6036019,4053
1024,Gundeldingerstrasse 478,47.53726959999999,7.6021394,4053
1025,Habsburgerstrasse 2,47.5625894,7.572041100000001,4055
1026,Totentanz 5,47.561896,7.586099,4051
1027,Schneidergasse 12,47.5583268,7.586658799999999,4051
1028,Bruderholzweg 42,47.5384181,7.590933400000001,4053
1029,"C.F. Meyer-Strasse 36, 38",47.53076309999999,7.5918677,4059
1030,Kirschblütenweg 14,47.5360288,7.588549299999999,4059
1031,Gotthardstrasse 84,47.5496669,7.562550399999998,4054
1032,Morgartenring 30,47.5557892,7.564863000000001,4054
1033,Dornacherstrasse 273,47.54043129999999,7.5986427,4053
1034,Ryffstrasse 9,47.568589,7.5790726,4056
1035,Ramsteinerstrasse 8,47.555476,7.610670999999999,4052
1037,"Claragraben 29, 31",47.5600774,7.5959512,4058
1038,Hegenheimerstrasse 97,47.5611898,7.5690081,4055
1039,Neuweilerstrasse 9,47.54649089999999,7.563712,4054
1040,Neuweilerstrasse 7,47.5465356,7.5639778,4054
1041,Helfenbergstrasse 26,47.5339413,7.589247299999999,4059
1042,Pruntruterstrasse 39,47.54494750000001,7.5817325,4053
1043,Pruntruterstrasse 33,47.5450745,7.581465199999999,4053
1044,"Pruntruterstrasse 35,",47.5450258,7.5815535,4053
1045,Pruntruterstrasse 37,47.5449841,7.5816596,4053
1046,Friedrichstrasse 13,47.556507,7.574404099999999,4055
1047,Nadelberg 32,47.55701020000001,7.5853991,4051
1048,Lehenmattstrasse 91,47.5528077,7.615372999999999,4052
1049,Im Heimatland 5,47.5648171,7.614741200000001,4058
1050,Holbeinstrasse 7,47.554876,7.584430500000001,4051
1051,Jakob Burckhardt-Str. 10,47.54828070000001,7.601039200000001,4052
1052,Jakob Burckhardt-Str. 8,47.54828070000001,7.601039200000001,4052
1053,Jakob Burckhardt-Str. 6,47.54828070000001,7.601039200000001,4052
1054,Jakob Burckhardt-Str. 4,47.54828070000001,7.601039200000001,4052
1055,Unterer Rheinweg 128,47.5679679,7.586751899999999,4057
1056,Metzerstrasse 65,47.5650144,7.5749439,4056
1057,Blauenstrasse 69,47.553712,7.5726035,4054
1058,Kornhausgasse 8,47.5565052,7.583332200000001,4051
1059,Landskronstrasse 55,47.5681154,7.576519900000001,4056
1060,Sierenzerstrasse 55,47.5590946,7.568723999999999,4055
1061,Blauenstrasse 63,47.5538676,7.572728,4054
1062,Strassburgerallee 21,47.56383959999999,7.5719644,4055
1063,Müllheimerstrasse 71,47.5668994,7.592356799999998,4057
1064,Tellstrasse 4,47.5430704,7.595416999999999,4053
1065,Wettsteinallee 21,47.5601169,7.599924100000001,4058
1066,Hammerstrasse 12,47.5600203,7.598223000000001,4058
1067,Rebgasse 46,47.5596193,7.5954582,4058
1068,Pfeffingerstrasse 85,47.5423133,7.5901874,4053
1069,Beckenstrasse 13,47.5719397,7.574815399999999,4056
1070,General Guisan-Strasse 73,47.5500042,7.566709200000001,4054
1071,Hochwaldstrasse 14,47.5299663,7.6024225,4059
1072,Mythenstrasse 9,47.5554301,7.564211199999999,4054
1073,Schöllenstrasse 13,47.5508517,7.564731799999999,4054
1074,Beim Wasserturm 18,47.5268586,7.592772699999999,4059
1075,St. Jakobs-Strasse 59,47.5478196,7.5990969,4052
1076,Güterstrasse 275,47.5415409,7.5993491,4053
1077,Steinenring 46,47.5507714,7.5799424,4051
1078,Mittlere Strasse 66,47.5626824,7.577157,4056
1079,Höhenweg 63,47.5454208,7.579357099999999,4053
1080,Unterer Batterieweg 85,47.5393051,7.586579500000001,4059
1081,Unterer Batterieweg 87,47.5393053,7.586380300000001,4059
1082,Glaserbergstrasse 9,47.5672322,7.5702985,4056
1083,Pfirtergasse 14,47.5496035,7.578823499999999,4054
1084,Oberwilerstrasse 144,47.544526,7.5751246,4054
1085,Offenburgerstrasse 29,47.5693333,7.5880049,4057
1086,Kandererstrasse 3,47.5655813,7.5895899,4057
1087,Jungstrasse 6,47.56789329999999,7.579985499999999,4056
1088,Rümmingerstrasse 33,47.5653921,7.620975199999999,4058
1089,Falkensteinerstrasse 58,47.5383779,7.6006686,4053
1090,Schönaustrasse 48,47.5680915,7.6025287,4058
1091,Mörsbergerstrasse 18,47.5665105,7.593963599999999,4057
1092,Dammerkirchstrasse 12,47.56797220000001,7.568028,4056
1093,Delsbergerallee 17,47.5415345,7.6008774,4053
1094,Auberg 11,47.55215949999999,7.5847021,4051
1095,Maulbeerstrasse 14,47.56664929999999,7.599879899999999,4058
1096,Grienstrasse 44,47.5621117,7.5648913,4055
1097,Im Wasenboden,47.5694896,7.570333100000001,4056
1098,Im Wasenbode,47.5694896,7.570333100000001,4056
1099,Neudorfstrasse 2,47.5747696,7.5657577,4056
1100,Hirzbrunnenschanze 70,47.5662442,7.616699299999999,4058
1101,Realpstrasse 1,47.549399,7.569019200000001,4054
1102,In den Ziegelhöfen 132,47.5453055,7.5585412,4054
1103,St. Alban-Ring 178,47.5494903,7.6097489,4052
1104,Glaserbergstrasse 24,47.5669817,7.5691285,4056
1105,In den Ziegelhöfen 188,47.5449773,7.5562188,4054
1106,Kannenfeldstrasse 34,47.5634148,7.573837,4056
1107,Unterer Batterieweg 117,47.5385686,7.585767300000001,4059
1108,Amselstrasse 12,47.5382237,7.586553599999999,4059
1109,Bristenweg 9,47.5496338,7.568182900000001,4054
1110,Steinbühlallee 105,47.5493137,7.557900800000001,4054
1111,C. F. Meyer-Strasse 19,47.5313922,7.592188199999999,4059
1112,Kandererstrasse 5,47.56560169999999,7.589694600000001,4057
1113,Dornacherstrasse 37,47.5450746,7.585383900000001,4053
1114,Klybeckstrasse  80,47.5666491,7.5911999,4057
1115,Beim Wasserturm 9,47.52730769999999,7.593212199999999,4059
1116,Reservoirstrasse 207,47.5278091,7.592298700000001,4059
1117,Dornacherstrasse 187,47.5418771,7.593652800000001,4053
1118,Elsässerstrasse 209,47.5740635,7.5737044,4056
1119,Bristenweg 16,47.5497607,7.567346300000001,4054
1120,Riehenring 135,47.5672615,7.5973278,4058
1121,Wartenbergstrasse 18,47.5482322,7.6078533,4052
1122,Missionsstrasse 6,47.5588566,7.580017,4055
1123,Kleinriehenstrasse,47.5684839,7.616567600000001,4058
1124,Spalentorweg 17,47.5565529,7.580167299999999,4051
1125,Homburgerstrasse 16,47.5558379,7.6122846,4052
1126,Kleinhüningerstrasse,47.5785996,7.5902862,4057
1127,Südquaistrasse 63,47.5852411,7.597197299999999,4057
1128,Dammerkirchstrasse 25,47.567343,7.567694199999999,4056
1129,"Mattenstrasse 40, 42",47.56677879999999,7.601321,4058
1130,Hirzbrunnenschanze 28,47.5666592,7.615797,4058
1131,Zum Bischofstein 10,47.5605315,7.6053126,4058
1132,Sennheimerstrasse 25,47.5535968,7.571075400000001,4054
1133,St. Johanns-Ring 87,47.5634745,7.5767574,4056
1134,Weiherhofstrasse 61,47.5496797,7.5589106,4054
1135,St. Johanns-Ring 113,47.5626932,7.5756024,4056
1136,Leimenstrasse 39,47.5536684,7.58237,4051
1137,"Amselstrasse 55, 57",47.538204,7.5895914,4059
1138,Spalenring 27,47.5604909,7.574640100000001,4055
1139,Weiherweg 30,47.554013,7.5771029,4054
1140,Schalerstrasse 12,47.5487268,7.5748625,4054
1141,Spalentorweg 57,47.5550267,7.5788244,4051
1142,Hirzbrunnenschanze 60,47.5662232,7.616283500000001,4058
1143,Paracelsusstrasse 4,47.5642952,7.614912199999999,4058
1144,"Käferholzstrasse 78,",47.5660797,7.6183598,4058
1145,Maiengasse 27,47.5616552,7.5787887,4056
1146,Bergalingerstrasse 22,47.5602723,7.610713499999999,4058
1147,Jacob Burckhardt-Strasse 50,47.54652660000001,7.600467500000001,4052
1148,Herbstgasse 6,47.5646178,7.575686999999999,4056
1149,Paulusgasse 10,47.55192599999999,7.577531899999999,4051
1150,Mülhauserstrasse 57,47.5682552,7.5798957,4056
1151,Gundeldingerstrasse 498,47.536764,7.6035589,4053
1152,Wanderstrasse 145,47.5517376,7.560535900000001,4054
1153,Petersgasse 44,47.5597447,7.5857638,4051
1154,Käferholzstrasse 6,47.5678607,7.616135,4058
1155,Missionsstrasse 36,47.560622,7.577869099999999,4055
1156,Missionsstrasse 34,47.5601729,7.5774029,4055
1157,Glaserbergstrasse 54,47.5662101,7.568045399999999,4056
1158,Offenburgerstrasse 6,47.5690468,7.587034000000001,4057
1159,Riehenstrasse 18,47.56052,7.597879999999999,4058
1160,Amselstrasse 7,47.5382985,7.5863796,4059
1161,In den Ziegelhöfen 131,47.5451756,7.559251799999998,4054
1162,Predigerhofstrasse 43,47.5257616,7.590117,4059
1163,Birsstrasse 64,47.5522542,7.6197347,4052
1164,Giessliweg 76,47.580239,7.590826700000001,4057
1165,Pfeffelstrasse 17,47.5593161,7.5717406,4055
1166,Klybeckstrasse 170,47.5702114,7.5906121,4057
1167,Angensteinerstrasse 22,47.5492558,7.603969500000001,4052
1168,Engelgasse 65,47.549448,7.6015789,4052
1169,Häsingerstrasse 39,47.5620359,7.5684255,4055
1170,Münchensteinerstrasse 150,47.5419202,7.601595799999999,4053
1171,Morgartenring 20,47.556084,7.5648433,4054
1172,Largitzenstrasse 40,47.5670695,7.568051,4056
1173,Metzerstrasse 12,47.5643361,7.578078100000001,4056
1174,"Gotthelfstrasse 94,",47.5563977,7.5688715,4054
1175,Bachlettenstrasse 28,47.5495882,7.579649099999999,4054
1176,Rixheimerstrasse 3,47.5608606,7.5695394,4055
1177,Rixheimerstrasse 12,47.560734,7.569004299999999,4055
1178,Hegenheimerstrasse 57,47.5604586,7.5714113,4055
1179,Bäumleingasse 22,47.5550447,7.593093199999999,4051
1180,Vogesenstrasse 47,47.5662168,7.577299,4056
1181,Im Heimatland 14,47.5645016,7.615218499999999,4058
1182,Hohe Winde-Strasse 149,47.5331986,7.593229300000001,4059
1183,Homburgerstrasse 17,47.5558626,7.6126125,4052
1184,Kleinhüningerstrasse 183,47.58018980000001,7.5909399,4057
1185,Steinbühlallee 99,47.5494558,7.557966899999999,4054
1186,Pfeffelstrasse 10,47.5596758,7.571768,4055
1187,Largitzenstrasse 77,47.5659725,7.567059299999999,4056
1188,Thiersteinerallee 95,47.539272,7.596633799999999,4053
1189,Neuweilerstrasse 110,47.54613819999999,7.556923399999999,4054
1190,Allschwilerstrasse 40,47.5564911,7.572557299999999,4055
1191,Delsbergerallee 41,47.5403871,7.600144900000001,4053
1192,Karl Barth-Platz 8,47.5476562,7.609291299999999,4052
1193,Amselstrasse 37,47.538512,7.587852300000001,4059
1194,Lehenmattstrasse 204,47.549494,7.621218799999999,4052
1195,St. Johanns-Ring 37,47.564615,7.578065599999999,4056
1196,Buchenstrasse 4,47.5561917,7.5716894,4054
1197,Claragraben 10,47.5597489,7.5975682,4058
1198,Homburgerstrasse 32,47.5553051,7.6125442,4052
1199,Eulerstrasse 21,47.5547202,7.581379499999999,4051
1200,Heinrichsgasse 19,47.5562799,7.5762635,4055
1201,Heuberg 26,47.55613289999999,7.586201000000001,4051
1202,Biascastrasse 10,47.5275705,7.5916992,4059
1203,Oscar Frey-Strasse 14,47.530886,7.5872468,4059
1204,Bristenweg 31,47.54936619999999,7.5670037,4054
1205,Rümelinbachweg 16,47.55149309999999,7.584387800000001,4054
1206,Passwangstrasse 34,47.5357072,7.593727899999999,4059
1207,Sierenzerstrasse 35,47.5597953,7.569483000000001,4055
1208,Hiltalingerstrasse,47.5872239,7.592576800000001,4057
1209,Gundeldingerstrasse 147,47.54201519999999,7.5876008,4053
1210,Hiltalingerstrasse 80,47.58869319999999,7.593308999999999,4057
1211,Leimenstrasse 79,47.5513161,7.580047599999999,4051
1212,"Engelgasse 8, 8a, 8b",47.5509148,7.5982678,4052
1213,Ahornstrasse 23,47.5573807,7.573223799999999,4055
